Code;NameRu;NameEn;NameUa;CountryCode;CityCode;Popularity;Latitude;Longitude
AAE;Ле-Салин;Les Salines;Ле-Салін;DZ;AAE;0;36.8217;7.81
AAL;Альборг;Aalborg;Альборг;DK;AAL;0;57.0931;9.85
AAM;Mala Mala;Mala Mala;Mala Mala;ZA;AAM;0;-24.8;31.5333
AAN;Аль-Аин;Al Ain;Аль-Аін;AE;AAN;0;24.25;55.75
AAQ;Анапа;Anapa;Анапа;RU;AAQ;2;44.9;37.3167
AAR;Тирструп;Tirstrup;Тірструп;DK;AAR;4;56.3103;10.6181
AAY;Эль-Гайда;Al Ghaydah;Ель-Гайда;YE;AAY;0;16.2;52.1833
ABA;Абакан;Abakan;Абакан;RU;ABA;0;53.7167;91.5
ABC;Los Llanos;Los Llanos;Los Llanos;ES;ABC;0;38.9483;-1.86333
ABD;Abadan;Abadan;Abadan;IR;ABD;0;30.3667;48.2333
ABE;Lehigh Valley;Lehigh Valley;Lehigh Valley;US;ABE;0;40.6547;-75.4383
ABI;Абилин;Abilene;Абілін;US;ABI;0;32.4094;-99.6797
ABJ;Felix Houphouet Boigny;Felix Houphouet Boigny;Felix Houphouet Boigny;CI;ABJ;3;5.25639;-3.92694
ABL;Ambler;Ambler;Ambler;US;ABL;0;67.0875;-157.846
ABM;Бамага;Bamaga;Бамага;AU;ABM;0;-10.8667;142.4
ABQ;Альбукерке;Albuquerque;Альбукерке;US;ABQ;0;35.0422;-106.605
ABR;Абердин;Aberdeen;Абердін;US;ABR;0;45.4525;-98.4261
ABS;Абу-Симбел;Abu Simbel;Абу-Сімбел;EG;ABS;0;22.3722;31.6153
ABT;Эль-Акик;Al Aqiq;Эль-Акік;SA;ABT;0;20.2856;41.6333
ABV;Абуджа;Abuja;Абуджа;NG;ABV;0;9;7.26667
ABX;Олбери;Albury;Олбері;AU;ABX;0;-36.0683;146.977
ABY;Догерти окр.;Dougherty Cty;Догерті окр.;US;ABY;0;31.5322;-84.1961
ABZ;Dyce;Dyce;Dyce;GB;ABZ;16;57.2042;-2.19806
ACA;Альварес;Alvarez;Альварес;MX;ACA;0;16.7556;-99.7669
ACC;Котока ;Kotoka;Котока ;GH;ACC;0;5.59528;-0.170833
ACE;Ланцарот;Lanzarote;Ланцарот;ES;ACE;292;28.9375;-13.6036
ACH;Альтенрейн;Altenrhein;Альтенрейн;CH;ACH;0;47.4833;9.56667
ACI;The Blaye;The Blaye;The Blaye;GB;ACI;0;49.7069;-2.21528
ACK;Nantucket Memorial;Nantucket Memorial;Nantucket Memorial;US;ACK;0;41.2567;-70.0597
ACT;Madison Cooper;Madison Cooper;Madison Cooper;US;ACT;0;31.6078;-97.2303
ACV;Arcata Eureka;Arcata Eureka;Arcata Eureka;US;ACV;0;40.9792;-124.108
ACX;Синъи;Xingyi;Сінї;CN;ACX;0;25.0856;104.959
ACY;Pomona Field;Pomona Field;Pomona Field;US;AIY;0;39.45;-74.5833
ADA;Адана;Adana;Адана;TR;ADA;0;36.9836;35.2808
ADB;Аднан Мендерес;Adnan Menderes;Аднан Мендерес;TR;IZM;0;38.2833;27.15
ADD;Bole;Bole;Bole;ET;ADD;0;8.97778;38.7981
ADE;Йемен;Yemen;Йємен;YE;ADE;0;12.8278;45.0306
ADJ;Civil Marka;Civil Marka;Civil Marka;JO;AMM;0;31.95;35.9833
ADK;Adak Island Ns;Adak Island Ns;Adak Island Ns;US;ADK;5;51.8828;-176.645
ADL;Аделаида;Adelaide;Аделаїда;AU;ADL;12;-34.9483;138.535
ADQ;Кодьяк;Kodiak;Код'як;US;ADQ;0;57.7542;-152.483
ADS;Аддисон;Addison;Аддисон;US;DFW;0;32.7833;-97.3
ADU;Ardabil;Ardabil;Ardabil;IR;ADU;0;38.25;48.3
ADZ;Сан-Андрес-Айленд;San Andres Island;Сан-Андрес-Айленд;CO;ADZ;0;12.5833;-81.7
AEP;Джордж Ньюбери;Jorge Newbery;Джордж Нюбері;AR;BUE;0;-34.5589;-58.4158
AER;Адлер;Adler;Адлер;RU;AER;98;43.45;39.9333
AES;Вигра;Vigra;Вігра;NO;AES;0;62.5625;6.10528
AEX;Александрия;Alexandria;Олександрія;US;AEX;0;31.3333;-92.55
AEY;Акурейри;Akureyri;Акурейрі;IS;AEY;1;65.6569;-18.0722
AFA;Сан-Рафаэль;San Rafael;Сан-Рафаель;AR;AFA;0;-34.5892;-68.4006
AFL;Алта-Флореста;Alta Floresta;Алта-Флореста;BR;AFL;0;-10;-56
AGA;Агадир-Алмассира;Agadir Almassira;Агадір-Алмассіра;MA;AGA;0;30.3806;-9.54583
AGC;Allegheny окр.;Allegheny Cty;Allegheny окр.;US;PIT;0;40.3547;-79.93
AGF;La Garenne;La Garenne;La Garenne;FR;AGF;0;44.1736;0.598611
AGH;Ангелхольм Хелсингборг;Angelholm Helsingborg;Ангелхольм Хелсингборг;SE;AGH;0;56.2931;12.8625
AGN;Angoon;Angoon;Angoon;US;AGN;0;57.5039;-134.583
AGP;Малага;Malaga;Малага;ES;AGP;0;36.6717;-4.49806
AGR;Kheria;Kheria;Kheria;IN;AGR;0;27.1583;77.9628
AGS;Bush Field;Bush Field;Bush Field;US;AGS;0;33.3664;-81.9669
AGT;Алехо Гарсия;Alejo Garcia;Алехо Гарсія;PY;AGT;0;-25.5;-54.8333
AGU;Агуаскальентес;Aguascalientes;Агуаскалієнтес;MX;AGU;0;21.7;-102.317
AHB;Абха;Abha;Абха;SA;AHB;0;18.2333;42.65
AHN;Афины;Athens;Афіни;US;AHN;0;33.9483;-83.3269
AHO;Fertilia;Fertilia;Fertilia;IT;AHO;0;40.6306;8.28889
AIA;Alliance;Alliance;Alliance;US;AIA;0;42.0517;-102.807
AIN;Wainwright;Wainwright;Wainwright;US;AIN;0;70.6333;-160.033
AIT;Аитутаки;Aitutaki;Аітутакі;CK;AIT;0;-18.85;-159.75
AJA;Кампо-Дель-Оро;Campo Dell Oro;Кампо-Дель-Оро;FR;AJA;0;41.9242;8.80306
AJR;Арвидсьяур;Arvidsjaur;Арвідс'яур;SE;AJR;0;65.5914;19.2856
AJU;Санта Мария;Santa Maria;Санта Марія;BR;AJU;0;-10.9833;-37.05
AKJ;Асахикава;Asahikawa;Асахікава;JP;AKJ;0;43.6667;142.45
AKL;Окленд;Auckland;Окленд;NZ;AKL;4;-37.0111;174.799
AKN;King Salmon;King Salmon;King Salmon;US;AKN;0;58.6686;-156.636
AKV;Akulivik;Akulivik;Akulivik;CA;AKV;0;60.7333;-78.5833
AKX;Aqtobe;Aqtobe;Aqtobe;KZ;AKX;0;50.25;57.2167
ALA;Алматы;Almaty;Алмати;KZ;ALA;44;43.35;77.0333
ALB;Олбани окр.;Albany Cty;Олбані окр.;US;ALB;0;42.7458;-73.8053
ALC;Аликанте;Alicante;Аліканте;ES;ALC;8;38.2833;-0.566667
ALF;Эльвебаккен;Elvebakken;Ельвебаккен;NO;ALF;0;69.9761;23.3806
ALG;Houari Boumedienne;Houari Boumedienne;Houari Boumedienne;DZ;ALG;58;36.6933;3.21722
ALH;Олбани;Albany;Олбані;AU;ALH;0;-34.945;117.806
ALL;Альбенга;Albenga;Альбенга;IT;ALL;0;44.05;8.21667
ALM;Аламогордо;Alamogordo;Аламогордо;US;ALM;0;32.8458;-105.985
ALO;Livingston Betsworth Fld;Livingston Betsworth Fld;Livingston Betsworth Fld;US;ALO;0;42.5561;-92.3997
ALP;Nejrab;Nejrab;Nejrab;SY;ALP;0;36.1808;37.2267
ALS;Аламоса;Alamosa;Аламоса;US;ALS;0;37.4367;-105.867
ALW;Walla Walla City окр.;Walla Walla City County;Walla Walla City окр.;US;ALW;0;46.0947;-118.291
ALY;El Nouzha;El Nouzha;El Nouzha;EG;ALY;0;31.2;29.9
AMA;Амарилло;Amarillo;Амарілло;US;AMA;0;35.2272;-101.722
AMD;Ахмедабад;Ahmedabad;Ахмедабад;IN;AMD;0;23.0664;72.6242
AMI;Селапаранг;Selaparang;Селапаранг;ID;AMI;0;-8.56;116.097
AMM;Queen Alia;Queen Alia;Queen Alia;JO;AMM;2;31.7167;36
AMQ;Pattimura;Pattimura;Pattimura;ID;AMQ;0;-2.3;128.083
AMS;Схипхол;Schiphol;Схіпхол;NL;AMS;513;52.3083;4.76806
ANC;Анкоридж;Anchorage;Анкорідж;US;ANC;8;61.1692;-149.985
ANE;Marce;Marce;Marce;FR;ANE;0;47.4667;-0.55
ANF;Cerro Moreno;Cerro Moreno;Cerro Moreno;CL;ANF;0;-23.4394;-70.4428
ANI;Аниак;Aniak;Аніак;US;ANI;0;61.5667;-159.533
ANR;Deurne;Brussels North;Deurne;BE;BRU;0;51.19;4.46
ANU;V C Bird;V C Bird;V C Bird;AG;ANU;0;17.1083;-61.7639
ANX;Andenes;Andenes;Andenes;NO;ANX;0;69.293;16.1417
AOC;Altenburg Nobitz;Altenburg Nobitz;Altenburg Nobitz;DE;AOC;0;50.9833;12.45
AOI;Фальконара;Falconara;Фальконара;IT;AOI;0;43.6167;13.5167
AOJ;Аомори;Aomori;Аоморі;JP;AOJ;0;40.7333;140.7
AOK;Карпатос;Karpathos;Карпатос;GR;AOK;0;34.4167;27.15
AOO;Blair окр.;Blair Cty;Blair окр.;US;AOO;0;40.2972;-78.32
AOR;Sultan Abdul Hamlin;Sultan Abdul Hamlin;Sultan Abdul Hamlin;MY;AOR;0;6.19111;100.404
APA;Centennial;Centennial;Centennial;US;DEN;0;39.7333;-104.983
APF;Неаполь;Naples;Неапіль;US;APF;0;26.1528;-81.7753
APL;Нампула;Nampula;Нампула;MZ;APL;0;-15.1017;39.2872
APN;Phelps Collins;Phelps Collins;Phelps Collins;US;APN;0;45.0817;-83.5558
APO;Апартадо;Apartado;Апартадо;CO;APO;0;7.03333;-77.2
APW;Апия;Apia;Апія;WS;APW;2;-13.8333;-172
AQG;Anqing Arpt;Anqing;Anqing Arpt;CN;AQG;0;30.5167;117.033
AQI;Qaisumah;Qaisumah;Qaisumah;SA;AQI;0;28.3281;46.1306
AQJ;Акаба;Aqaba;Акаба;JO;AQJ;1;29.6167;35.0167
AQP;Rodriguez Ballon;Rodriguez Ballon;Rodriguez Ballon;PE;AQP;0;-16.3378;-71.555
ARH;Архангельск;Arkhangelsk;Архангельськ;RU;ARH;14;64.6333;40.6
ARI;Чакаллута;Chacalluta;Чакаллута;CL;ARI;0;-18.35;-70.35
ARK;Arusha;Arusha;Arusha;TZ;ARK;0;-3.36667;36.6833
ARM;Армидейл;Armidale;Армідейл;AU;ARM;2;-30.5283;151.623
ARN;Арланда;Arlanda;Арланда;SE;STO;86;59.6619;17.9339
ART;Уотертаун;Watertown;Уотертаун;US;ART;0;43.9908;-76.0214
ARU;Аракатуба;Aracatuba;Аракатуба;BR;ARU;0;-21.1436;-50.4261
ARV;Noble F Lee Memorial Field;Noble F Lee Memorial Field;Noble F Lee Memorial Field;US;ARV;0;45.9242;-89.7322
ARW;Арад;Arad;Арад;RO;ARW;0;46.1833;21.2667
ASB;Ашгабат;Ashgabat;Ашгабат;TM;ASB;2;37.9817;58.3608
ASD;Andros Town;Andros Town;Andros Town;BS;ASD;0;24.6978;-77.7961
ASE;Pitkin Cty Arptt Sardy Fld;Pitkin Ctyt Sardy Fld;Pitkin Cty Arptt Sardy Fld;US;ASE;3;39.2242;-106.869
ASF;Астрахань;Astrakhan;Астрахань;RU;ASF;5;46.4167;48.0833
ASJ;Амами О Сима;Amami O Shima;Амамі О Сіма;JP;ASJ;0;28.4169;129.697
ASM;Асмара;Asmara;Асмара;ER;ASM;0;15.2911;38.9103
ASP;Алис-Спрингс;Alice Springs;Аліс-Спрінгс;AU;ASP;3;-23.8033;133.884
ASR;Кайсери;Kayseri;Кайсері;TR;ASR;1;38.7042;35.5097
AST;Astoria;Astoria;Astoria;US;AST;0;46.1597;-123.88
ASU;Salvio Pettirosse;Salvio Pettirosse;Salvio Pettirosse;PY;ASU;3;-25.2392;-57.5192
ASW;Daraw;Daraw;Daraw;EG;ASW;0;23.965;32.8217
ATC;Arthurs Town;Arthurs Town;Arthurs Town;BS;ATC;0;24.6286;-75.6714
ATH;Eleftherios Venizelos;Eleftherios Venizelos;Eleftherios Venizelos;GR;ATH;75;37.9364;23.9444
ATL;Hartsfield Jackson;Hartsfield Jackson;Hartsfield Jackson;US;ATL;22;33.6408;-84.4272
ATQ;Raja Sansi;Raja Sansi;Raja Sansi;IN;ATQ;0;31.7069;74.7972
ATW;Outagamie окр.;Outagamie Cty;Outagamie окр.;US;ATW;0;44.2589;-88.5211
ATY;Уортертаун;Watertown;Уортертаун;US;ATY;0;44.9089;-97.1542
AUA;Reina Beatrix;Reina Beatrix;Reina Beatrix;AW;AUA;2;12.5022;-70.0139
AUG;Мэн шт.;Maine State;Мен шт.;US;AUG;0;44.3181;-69.7967
AUH;Даби;Dhabi;Дабі;AE;AUH;12;24.4333;54.65
AUQ;Атуона;Atuona;Атуона;PF;AUQ;0;-9.76667;-139.017
AUR;Tronquieres;Tronquieres;Tronquieres;FR;AUR;0;44.8975;2.41806
AUS;Bergstrom;Bergstrom;Bergstrom;US;AUS;0;30.2;-97.6667
AVL;Эшвилль;Asheville;Ешвілль;US;AVL;0;35.435;-82.5411
AVN;Avignon Caumont;Avignon Caumont;Avignon Caumont;FR;AVN;0;43.9;4.9
AVP;Wilkes Barre Scranton;Wilkes Barre Scranton;Wilkes Barre Scranton;US;AVP;0;41.3392;-75.7258
AVV;Мельбурн Авалон;Melbourne Avalon;Мельбурн Авалон;AU;MEL;0;-38.0944;144.494
AXA;Wallblake;Wallblake;Wallblake;AI;AXA;0;18.2167;-63.0667
AXD;Dhmokritos;Dhmokritos;Dhmokritos;GR;AXD;0;40.8556;25.95
AXM;El Eden;El Eden;El Eden;CO;AXM;0;4.45;-75.7667
AXN;Александрия;Alexandria;Олександрія;US;AXN;0;45.8672;-95.3942
AXT;Акита;Akita;Акіта;JP;AXT;0;39.6167;140.317
AYQ;Коннелан;Connellan;Коннелан;AU;AYQ;0;-25.3333;131.05
AYT;Анталия;Antalya;Анталія;TR;AYT;75;36.9056;30.7906
AZA;Williams Gateway Arpt;Williams Gateway;Williams Gateway Arpt;US;PHX;0;33.3078;-111.656
AZD;Язд;Yazd;Язд;IR;AZD;0;31.8978;54.2817
AZO;Каламазу окр.;Kalamazoo Cty;Каламазу окр.;US;AZO;0;42.2364;-85.5536
BAG;Лоакан;Loakan;Лоакан;PH;BAG;0;16.3767;120.618
BAH;Бахрейн;Bahrain;Бахрейн;BH;BAH;2;26.2708;50.6375
BAQ;E Cortissoz;E Cortissoz;E Cortissoz;CO;BAQ;0;10.8961;-74.7789
BAS;Balalae;Balalae;Balalae;SB;BAS;0;-6.98333;155.883
BAU;Бауру;Bauru;Бауру;BR;BAU;0;-22.3431;-49.0525
BAV;Baotou;Baotou;Baotou;CN;BAV;0;40.6667;109.983
BAY;Baia Mare;Baia Mare;Baia Mare;RO;BAY;0;47.65;23.4667
BBA;Teniente Vidal;Teniente Vidal;Teniente Vidal;CL;BBA;0;-45.9167;-71.695
BBI;Бхубанесвар;Bhubaneswar;Бхубанесвар;IN;BBI;0;20.2436;85.82
BBK;Касане;Kasane;Касане;BW;BBK;0;-17.8167;25.15
BBU;Baneasa;Baneasa;Baneasa;RO;BUH;0;44.5;26.1
BCD;Bacolod;Bacolod;Bacolod;PH;BCD;0;10.6444;122.929
BCI;Barcaldine;Barcaldine;Barcaldine;AU;BCI;0;-23.5592;145.302
BCM;Bacau;Bacau;Bacau;RO;BCM;0;46.5986;26.8819
BCN;Барселона;Barcelona;Барселона;ES;BCN;238;41.3028;2.09444
BCT;Boca Raton Public;Boca Raton Public;Boca Raton Public;US;FLL;0;26.35;-80.0833
BDA;Bermuda;Bermuda;Bermuda;BM;BDA;0;32.3653;-64.69
BDB;Бундаберг;Bundaberg;Бундаберг;AU;BDB;0;-24.9058;152.321
BDD;Badu Island;Badu Island;Badu Island;AU;BDD;0;-10.15;142.183
BDJ;Sjamsudin Noor;Sjamsudin Noor;Sjamsudin Noor;ID;BDJ;0;-3.46667;114.75
BDL;Брэдли;Bradley;Бредлі;US;HFD;0;41.9386;-72.6833
BDO;Husein Sastranegara;Husein Sastranegara;Husein Sastranegara;ID;BDO;0;-6.90167;107.576
BDQ;Вадодара;Vadodara;Вадодара;IN;BDQ;0;22.3292;73.2208
BDR;Sikorsky Memorial;Sikorsky Memorial;Sikorsky Memorial;US;BDR;0;41.1642;-73.1244
BDS;Papola Casale;Papola Casale;Papola Casale;IT;BDS;0;40.6581;17.9467
BDU;Бардуфосс;Bardufoss;Бардуфосс;NO;BDU;0;69.0561;18.54
BEB;Бенбекула;Benbecula;Бенбекула;GB;BEB;0;57.4822;-7.36472
BED;Бедфорт;Bedford;Бедфорт;US;BED;0;42.4708;-71.29
BEG;Белград;Belgrade Beograd;Белград;RS;BEG;205;44.8192;20.3122
BEL;Val De Cans;Val De Cans;Val De Cans;BR;BEL;0;-1.45;-48.4833
BEN;Бенина;Benina;Беніна;LY;BEN;0;32.1;20.2667
BER;Бранденбург;Brandenburg;Бранденбург;DE;BER;0;52.3667;13.5033
BES;Гуипавас;Guipavas;Гуіпавас;FR;BES;0;48.4472;-4.42056
BET;Bethel;Bethel;Bethel;US;BET;0;60.7844;-161.831
BEU;Bedourie;Bedourie;Bedourie;AU;BEU;0;-24.23;139.445
BEW;Beira;Beira;Beira;MZ;BEW;0;-19.7944;34.9119
BEY;Бейрут;Beirut;Бейрут;LB;BEY;20;33.8128;35.4903
BFD;Бредфорд региональный;Bradford Regional;Бредфорд регіональний;US;BFD;0;41.8022;-78.6394
BFF;Scottsbluff;Scottsbluff;Scottsbluff;US;BFF;0;41.8753;-103.601
BFI;Seattle Boeing Field;Seattle Boeing Field;Seattle Boeing Field;US;SEA;0;47.5289;-122.299
BFL;Meadows Field;Meadows Field;Meadows Field;US;BFL;0;35.43;-119.052
BFN;Блумфонтейн;Bloemfontein;Блумфонтейн;ZA;BFN;0;-29.1;26.3
BFS;Белфаст;Belfast;Белфаст;GB;BFS;16;54.6533;-6.22472
BFV;Buri Ram;Buri Ram;Buri Ram;TH;BFV;0;15.2269;103.255
BGA;Пало-Негро;Palo Negro;Пало-Негро;CO;BGA;0;7.10722;-73.1281
BGF;Bangui;Bangui;Bangui;CF;BGF;0;4.39611;18.5203
BGI;Grantley Adams;Grantley Adams;Grantley Adams;BB;BGI;5;13.0722;-59.4931
BGM;Edwin A Link Field;Edwin A Link Field;Edwin A Link Field;US;BGM;0;42.2014;-75.9692
BGO;Flesland;Flesland;Flesland;NO;BGO;0;60.2936;5.21944
BGR;Бангор;Bangor;Бангор;US;BGR;0;44.8078;-68.8278
BGW;Аль-Мутхана;Al Muthana;Аль-Мутхана;IQ;BGW;0;33.2556;44.225
BGY;Orio Al Serio;Orio Al Serio;Orio Al Serio;IT;BGY;0;45.6683;9.70028
BHB;Hancock окр.;Hancock County;Хенкок окр.;US;BHB;0;44.4489;-68.3617
BHD;Belfast City;Belfast City;Belfast City;GB;BFS;0;54.6167;-5.88333
BHE;Woodbourne;Woodbourne;Woodbourne;NZ;BHE;0;-41.5167;173.872
BHI;Commandante;Commandante;Commandante;AR;BHI;0;-38.7306;-62.1506
BHJ;Рудра-Мата;Rudra Mata;Рудра-Мата;IN;BHJ;0;23.2875;69.6706
BHK;Бухара;Bukhara;Бухара;UZ;BHK;0;39.7667;64.4833
BHM;Бирмингем;Birmingham;Бірмінгем;US;BHM;0;33.5631;-86.7556
BHO;Бхопал;Bhopal;Бхопал;IN;BHO;0;23.2847;77.3386
BHQ;Брокен-Хилл;Broken Hill;Брокен-Хілл;AU;BHQ;0;-32.0017;141.467
BHS;Raglan;Raglan;Raglan;AU;BHS;0;-33.4092;149.653
BHX;Бирмингем;Birmingham;Бірмінгем;GB;BHX;7;52.4531;-1.74639
BHY;Beihai;Beihai;Beihai;CN;BHY;0;21.4833;109.083
BIA;Поретта;Poretta;Поретта;FR;BIA;0;42.5492;9.48611
BID;Block Island;Block Island;Block Island;US;BID;0;41.1667;-71.5792
BII;Enyu  аэродром;Enyu Airfield;Enyu  аэродром;MH;BII;0;12;166
BIK;Мокмер;Mokmer;Мокмер;ID;BIK;0;-1.18667;136.086
BIL;Логан;Logan Field;Логан;US;BIL;0;45.8069;-108.543
BIM;Бимини;Bimini;Біміні;BS;BIM;0;25.7;-79.2833
BIO;Бильбао;Bilbao;Більбао;ES;BIO;2;43.3028;-2.92167
BIQ;Bayonne Anglet;Bayonne Anglet;Bayonne Anglet;FR;BIQ;0;43.4697;-1.52278
BIS;Бисмарк;Bismarck;Бісмарк;US;BIS;0;46.7666;-100.75
BJA;Bejaia;Bejaia;Bejaia;DZ;BJA;0;36.75;5.08333
BJF;Batsfjord;Batsfjord;Batsfjord;NO;BJF;0;70.6;29.6667
BJI;Бемиджи;Bemidji;Беміджі;US;BJI;0;47.5097;-94.9347
BJL;Юндум;Yundum;Юндум;GM;BJL;0;13.35;-16.6667
BJM;Буджумбура;Bujumbura;Буджумбура;BI;BJM;0;-3.38333;29.3667
BJR;Bahar Dar;Bahar Dar;Bahar Dar;ET;BJR;0;11.5903;37.3847
BJV;Milas;Milas;Milas;TR;BXN;2;37.25;27.6833
BJX;Del Bajio;Del Bajio;Del Bajio;MX;BJX;0;20.995;-102.483
BJZ;Talaveral La Real;Talaveral La Real;Talaveral La Real;ES;BJZ;0;38.8917;-6.82
BKA;Быково;Bykovo;Биково;RU;MOW;12;55.4333;37.9667
BKI;Kota Kinabalu;Kota Kinabalu;Kota Kinabalu;MY;BKI;0;5.94083;116.05
BKK;Суварнабуми;Suvarnabhumi;Суварнабумі;TH;BKK;111;13.6897;100.742
BKL;Burke Lakefront;Burke Lakefront;Burke Lakefront;US;CLE;0;41.5169;-81.6833
BKO;Senou;Senou;Senou;ML;BKO;0;12.6322;-8.02667
BKQ;Blackall;Blackall;Blackall;AU;BKQ;0;-24.4342;145.428
BKS;Padangkemiling;Padangkemiling;Padangkemiling;ID;BKS;0;-3.76667;102.3
BKW;Raleigh Cty Memorial;Raleigh Cty Memorial;Raleigh Cty Memorial;US;BKW;0;37.7819;-81.1242
BLA;Gen J A Anzoategui;Gen J A Anzoategui;Gen J A Anzoategui;VE;BLA;0;10.1097;-64.6875
BLE;Dala;Dala;Dala;SE;BLE;0;60.4233;15.5181
BLI;Bellingham;Bellingham;Bellingham;US;BLI;0;48.7944;-122.535
BLK;Блекпул;Blackpool;Блекпул;GB;BLK;0;53.7719;-3.03611
BLL;Биллунд;Billund;Біллунд;DK;BLL;0;55.7383;9.15
BLQ;Гильельмо Маркони;Guglielmo Marconi;Гілієльмо Марконі;IT;BLQ;20;44.5306;11.2925
BLR;Hindustan;Hindustan;Hindustan;IN;BLR;2;13.1979;77.7063
BLT;Blackwater;Blackwater;Blackwater;AU;BLT;0;-23.5833;148.883
BLZ;Chileka;Chileka;Chileka;MW;BLZ;0;-15.6747;34.9708
BMA;Bromma;Bromma;Bromma;SE;STO;0;59.3528;17.9464
BME;Broome;Broome;Broome;AU;BME;0;-17.95;122.23
BMI;Normal;Normal;Normal;US;BMI;0;40.4819;-88.9275
BMV;Phung Duc;Phung Duc;Phung Duc;VN;BMV;0;12.6667;108.05
BNA;Нэшвилл;Nashville;Нешвілл;US;BNA;0;36.1267;-86.6819
BNE;Брисбен;Brisbane;Брісбен;AU;BNE;6;-27.425;153.086
BNJ;Бонн ж/д вокзал;Bonn Railroad Station;Бонн ж/д вокзал;DE;BNJ;0;0;0
BNK;Ballina;Ballina;Ballina;AU;BNK;0;-28.8333;153.55
BNN;Bronnoy;Bronnoy;Bronnoy;NO;BNN;0;65.4603;12.2069
BNX;Баня-Лука;Banja Luka;Баня-Лука;BA;BNX;0;44.9333;17.3
BOB;Motu Mute;Motu Mute;Motu Mute;PF;BOB;2;-16.4431;-151.748
BOC;Bocas Del Toro;Bocas Del Toro;Bocas Del Toro;PA;BOC;0;9.34;-82.2519
BOD;Бордо;Bordeaux;Бордо;FR;BOD;5;44.8294;-0.714444
BOG;Эльдорадо;Eldorado;Эльдорадо;CO;BOG;2;4.7;-74.15
BOH;Борнмут;Bournemouth;Борнмут;GB;BOH;0;50.7806;-1.83694
BOI;Boise Gowen Field;Boise Gowen Field;Boise Gowen Field;US;BOI;0;43.5653;-116.225
BOJ;Бургас;Bourgas;Бургас;BG;BOJ;4;42.4167;27.2833
BOM;Chhatrapati Shivaji;Chhatrapati Shivaji;Chhatrapati Shivaji;IN;BOM;51;19.0881;72.8517
BON;Flamingo Field;Flamingo Field;Flamingo Field;AN;BON;0;12.1342;-68.2733
BOO;Bodo;Bodo;Bodo;NO;BOO;0;67.2692;14.3722
BOS;Logan;Logan;Logan;US;BOS;24;42.365;-71.0053
BOY;Borgo;Borgo;Borgo;BF;BOY;0;11.1636;-4.32444
BPN;Sepingan;Sepingan;Sepingan;ID;BPN;56;-1.28333;116.833
BPS;Porto Seguro;Porto Seguro;Porto Seguro;BR;BPS;0;-16.5333;-39.0833
BPT;Джефферсон-Сити;Jefferson Cty;Джефферсон-Сіті;US;BPT;0;29.9508;-94.02
BQK;Gylnco;Gylnco Jet Port;Gylnco;US;BQK;0;31.1667;-81.4833
BQL;Boulia;Boulia;Boulia;AU;BQL;0;-22.9;139.9
BQN;Borinquen;Borinquen;Borinquen;US;BQN;0;18.4958;-67.13
BQS;Благовещенск;Blagoveshchensk;Благовєщенськ;RU;BQS;0;50.4167;127.4
BRC;San Carlos De Bariloche;San Carlos De Bariloche;San Carlos De Bariloche;AR;BRC;0;-41.1497;-71.1583
BRD;Crowwing окр.;Crowwing Cty;Crowwing окр.;US;BRD;0;46.3972;-94.1375
BRE;Бремен;Bremen;Бремен;DE;BRE;0;53.0467;8.79
BRI;Бари;Bari;Барі;IT;BRI;8;41.1411;16.7883
BRL;Burlington;Burlington;Burlington;US;BRL;0;40.7861;-91.1233
BRM;Barquisimeto;Airport Barquisimeto;Barquisimeto;VE;BRM;0;10.0453;-69.3561
BRN;Belp;Belp;Belp;CH;BRN;3;46.9153;7.49917
BRO;South Padre Island;South Padre Island;South Padre Island;US;BRO;0;25.9089;-97.4233
BRQ;Turnay;Turnay;Turnay;CZ;BRQ;0;49.15;16.7
BRR;North Bay;North Bay;North Bay;GB;BRR;0;57.0233;-7.44028
BRS;Бристоль;Bristol;Брістоль;GB;BRS;0;51.3817;-2.70889
BRU;Брюссель национальный;Brussels National;Брюссель национальный;BE;BRU;141;50.9017;4.49417
BRW;Barrow WBAS;Barrow WBAS;Barrow WBAS;US;BRW;0;71.2833;-156.769
BSB;Бразилиа;Brasilia;Бразіліа;BR;BSB;1;-15.8606;-47.9153
BSD;Баошань;Baoshan;Баошань;CN;BSD;0;25.15;99.15
BSK;Biskra;Biskra;Biskra;DZ;BSK;0;34.7933;5.73806
BSL;Базель;Basel EuroAirport Swiss;Базель;CH;BSL;1;47.6556;7.65278
BSR;Басра;Basra;Басра;IQ;BSR;0;30.5556;47.7914
BTH;Hang Nadim;Hang Nadim;Hang Nadim;ID;BTH;0;1.06667;104.133
BTJ;Blang Bintang;Blang Bintang;Blang Bintang;ID;BTJ;0;5.52;95.4194
BTK;Братск;Bratsk;Братск;RU;BTK;4;56.3667;101.817
BTM;Bert Mooney;Bert Mooney;Bert Mooney;US;BTM;0;45.9511;-112.494
BTR;Ryan;Ryan;Ryan;US;BTR;0;30.5317;-91.1506
BTS;Иванка;Ivanka;Іванка;SK;BTS;11;48.1667;17.2167
BTU;Bintulu;Bintulu;Bintulu;MY;BTU;0;3.175;113.043
BTV;Burlington;Burlington;Burlington;US;BTV;0;44.4728;-73.153
BUC;Burketown;Burketown;Burketown;AU;BUC;0;-17.75;139.533
BUD;Ferihegy;Ferihegy;Ferihegy;HU;BUD;135;47.4333;19.2333
BUF;Greater Buffalo;Greater Buffalo;Greater Buffalo;US;BUF;0;42.9411;-78.7364
BUQ;Bulawayo;Bulawayo;Bulawayo;ZW;BUQ;0;-20.0164;28.6186
BUR;Burbank Glendale Pasadena;Burbank Glendale Pasadena;Burbank Glendale Pasadena;US;BUR;0;34.2;-118.358
BUS;Батуми;Batumi;Батумі;GE;BUS;2;41.6108;41.6006
BUZ;Bushehr;Bushehr;Bushehr;IR;BUZ;0;28.9492;50.8325
BVA;Beauvais Tille;Beauvais Tille;Beauvais Tille;FR;PAR;0;49.4558;2.1125
BVB;Boa Vista;Boa Vista;Boa Vista;BR;BVB;0;2.83333;-60.6667
BVC;Rabil;Rabil;Rabil;CV;BVC;0;16.0833;-22.8333
BVE;Laroche;Laroche;Laroche;FR;BVE;0;45.1667;1.53333
BVI;Birdsville;Birdsville;Birdsville;AU;BVI;0;-25.8983;139.343
BWE;Брауншвейг;Braunschweig;Брауншвейг;DE;BWE;0;52.2667;10.5333
BWI;Балтимор Вашингтон;Baltimore Washington;Балтімор Вашингтон;US;BWI;16;39.1756;-76.6714
BWN;Бруней;Brunei;Бруней;BN;BWN;0;4.925;114.928
BWT;Burnie Wynyard;Burnie Wynyard;Burnie Wynyard;AU;BWT;0;-40.9958;145.728
BXU;Butuan;Butuan;Butuan;PH;BXU;0;8.95139;125.484
BZE;Белиз;Belize;Беліз;BZ;BZE;0;17.5361;-88.31
BZG;Быдгощ;Bydgoszcz;Бидгощ;PL;BZG;0;53.0967;17.9786
BZN;Gallatin Field;Gallatin Field;Gallatin Field;US;BZN;0;45.7803;-111.159
BZO;Больцано;Bolzano;Больцано;IT;BZO;0;46.5167;11.3667
BZR;Beziers Vias;Beziers Vias;Beziers Vias;FR;BZR;0;43.3242;3.35444
BZV;Maya Maya;Maya Maya;Maya Maya;CG;BZV;0;-4.25194;15.2547
BZZ;F'hjgjhn Brize Norton Raf Station;Brize Norton Raf Station;F'hjgjhn Brize Norton Raf Station;GB;OXF;0;51.75;-1.58709
CAE;Columbia Metro;Columbia Metro;Columbia Metro;US;CAE;0;33.9364;-81.1158
CAG;Elmas;Elmas;Elmas;IT;CAG;10;39.2472;9.06111
CAI;Каир;Cairo;Каїр;EG;CAI;81;30.1375;31.4069
CAK;Akron Canton региональный;Akron Canton Regional;Akron Canton региональный;US;CAK;0;40.9139;-81.4417
CAL;Machrihanish;Machrihanish;Machrihanish;GB;CAL;0;55.4364;-5.68667
CAN;Baiyun;Baiyun;Baiyun;CN;CAN;0;23.3925;113.299
CAP;Cap Haitien;Cap Haitien;Cap Haitien;HT;CAP;0;19.7328;-72.195
CAY;Rochambeau;Rochambeau;Rochambeau;GF;CAY;0;4.81667;-52.3667
CBB;J Wilsterman;J Wilsterman;J Wilsterman;BO;CBB;0;-17.4283;-66.1717
CBO;Awang;Awang;Awang;PH;CBO;0;7.2;124.167
CBR;Канберра;Canberra;Канберра;AU;CBR;83;-35.3089;149.195
CCC;Cayo Coco;Cayo Coco;Cayo Coco;CU;CCC;0;22.5125;-78.5083
CCF;Salvaza;Salvaza;Salvaza;FR;CCF;0;43.2167;2.31667
CCJ;Kozhikode;Kozhikode;Kozhikode;IN;CCJ;0;11.1333;75.95
CCK;Cocos Islands;Cocos Islands;Cocos Islands;CC;CCK;0;-12.1667;96.9167
CCP;Carriel Sur;Carriel Sur;Carriel Sur;CL;CCP;0;-36.7683;-73.06
CCS;Симон Боливар;Simon Bolivar;Сімон Болівар;VE;CCS;5;10.6064;-66.9892
CCU;Netaji Subhas Chandra Bose;Netaji Subhas Chandra Bose;Netaji Subhas Chandra Bose;IN;CCU;0;22.6525;88.4492
CDC;Cedar City;Cedar City;Cedar City;US;CDC;0;37.7025;-113.096
CDG;Шарль-де-Голль;Charles De Gaulle;Шарль-де-Голль;FR;PAR;182;49.0097;2.54861
CDR;Chadron;Chadron;Chadron;US;CDR;0;42.835;-103.098
CDV;Mudhole Smith;Mudhole Smith;Mudhole Smith;US;CDV;0;60.4931;-145.47
CEB;Cebu;Cebu;Cebu;PH;CEB;0;10.3317;123.907
CEC;Crescent City;Crescent City;Crescent City;US;CEC;0;41.78;-124.236
CED;Ceduna;Ceduna;Ceduna;AU;CED;0;-32.1317;133.706
CEG;Chester;Chester;Chester;GB;CEG;0;53.1667;-2.91667
CEI;Chaing Rai;Chaing Rai;Chaing Rai;TH;CEI;0;19.8864;99.8306
CEK;Челябинск;Chelyabinsk;Челябінськ;RU;CEK;26;55.3;61.5
CEN;Сьюдад-Обрегон;Ciudad Obregon;С'юдад-Обрегон;MX;CEN;0;27.3919;-109.839
CER;Maupertius;Maupertius;Maupertius;FR;CER;0;49.6511;-1.46528
CEZ;Montezuma окр.;Montezuma County;Montezuma окр.;US;CEZ;0;37.3028;-108.627
CFB;Cabo Frio;Cabo Frio;Cabo Frio;BR;CFB;0;-22.925;-42.0786
CFE;Aulnat;Aulnat;Aulnat;FR;CFE;0;45.7858;3.1675
CFG;Cienfuegos;Cienfuegos;Cienfuegos;CU;CFG;2;22.15;-80.4142
CFN;Donegal;Donegal;Donegal;IE;CFN;0;55.0417;-8.34028
CFR;Carpiquet;Carpiquet;Carpiquet;FR;CFR;0;49.1733;-0.448056
CFS;Coffs Harbour;Coffs Harbour;Coffs Harbour;AU;CFS;0;-30.3217;153.121
CFU;I Kapodistrias;I Kapodistrias;I Kapodistrias;GR;CFU;2;39.6014;19.9103
CGA;Craig база гидросамолетов;Craig Seaplane Base;Craig база гидросамолетов;US;CGA;0;55.4792;-133.146
CGB;Marechal Rondon;Marechal Rondon;Marechal Rondon;BR;CGB;0;-15.65;-56.1167
CGD;Changde;Changde;Changde;CN;CGD;0;29.0667;111.583
CGH;Congonhas;Congonhas;Congonhas;BR;SAO;0;-23.625;-46.66
CGI;Cape Girardeau;Cape Girardeau;Cape Girardeau;US;CGI;0;37.2236;-89.5717
CGK;Soekarno Hatta;Soekarno Hatta;Soekarno Hatta;ID;JKT;2;-6.11667;106.65
CGN;Кельн Бонн;Koeln Bonn;Кельн Бонн;DE;CGN;21;50.8658;7.14194
CGO;Чжэнчжоу;Zhengzhou;Чженчжоу;CN;CGO;0;34.8;113.65
CGP;Patenga;Patenga;Patenga;BD;CGP;1;22.2575;91.8256
CGQ;Changchun;Changchun;Changchun;CN;CGQ;0;43.8833;125.317
CGR;Кампо-Гранде;Internacional;Кампо-Гранде;BR;CGR;0;-20.4633;-54.6725
CGY;Lumbia;Lumbia;Lumbia;PH;CGY;0;8.41611;124.611
CHA;Chattanooga Lovell Fld;Chattanooga Lovell Fld;Chattanooga Lovell Fld;US;CHA;0;35.0364;-85.2036
CHC;Крайстчерч;Christchurch;Крайстчерч;NZ;CHC;1;-43.4883;172.533
CHO;Charlotesville Albemarle;Charlottesville Albemarle;Charlotesville Albemarle;US;CHO;0;38.1414;-78.4531
CHQ;Souda;Souda;Souda;GR;CHQ;2;35.5325;24.1483
CHS;Чарльзтон;Charleston;Чарльзтон;US;CHS;0;32.8992;-80.0389
CIA;Чампино;Ciampino;Чампіно;IT;ROM;0;41.7994;12.5933
CIC;Chico;Chico;Chico;US;CIC;0;39.7958;-121.857
CID;Cedar Rapids;Cedar Rapids;Cedar Rapids;US;CID;0;41.8844;-91.7061
CIT;Шимкент;Shimkent;Шимкент;KZ;CIT;0;42.3;69.6
CIU;Chippewa Cnty;Chippewa Cnty;Chippewa Cnty;US;SSM;0;46.5;-84.35
CIX;Cornel Ruiz;Cornel Ruiz;Cornel Ruiz;PE;CIX;5;-6.78972;-79.8322
CJB;Peelamedu;Peelamedu;Peelamedu;IN;CJB;0;11.0283;77.0433
CJC;El Loa;El Loa;El Loa;CL;CJC;0;-22.4872;-68.9167
CJJ;Cheongju;Cheongju;Cheongju;KR;CJJ;0;36.7167;127.507
CJS;Abraham Gonzalez;Intl Abraham Gonzalez;Abraham Gonzalez;MX;CJS;0;31.6372;-106.429
CJU;Jeju;Jeju;Jeju;KR;CJU;0;33.5056;126.495
CKB;Clarksburg Benedum;Clarksburg Benedum;Clarksburg Benedum;US;CKB;0;39.2956;-80.2295
CKG;Chongqing;Chongqing;Chongqing;CN;CKG;0;29.5;106.35
CKY;Конакри;Conakry;Конакрі;GN;CKY;0;9.57639;-13.6108
CLD;Carlsbad;Carlsbad;Carlsbad;US;CLD;0;33.1167;-117.267
CLE;Hopkins;Hopkins;Hopkins;US;CLE;16;41.4119;-81.8481
CLJ;Напока;Napoca;Напока;RO;CLJ;231;46.7833;23.6833
CLL;Easterwood Field;Easterwood Field;Easterwood Field;US;CLL;0;30.5894;-96.3644
CLM;William Fairchild;William Fairchild;William Fairchild;US;CLM;0;48.1189;-123.494
CLO;Alfonso Bonella Aragon;Alfonso Bonella Aragon;Alfonso Bonella Aragon;CO;CLO;0;3.54611;-76.385
CLQ;Колима;Colima;Колима;MX;CLQ;0;19.3;-103.65
CLT;Charlotte Douglas;Charlotte Douglas;Charlotte Douglas;US;CLT;16;35.2192;-80.9358
CLY;Ste Catherine;Ste Catherine;Ste Catherine;FR;CLY;0;42.5278;8.79167
CMA;Cunnamulla;Cunnamulla;Cunnamulla;AU;CMA;0;-28.0314;145.616
CMB;Bandaranaike;Bandaranaike;Bandaranaike;LK;CMB;17;7.175;79.8847
CME;Ciudad Del Carmen;Ciudad Del Carmen;Ciudad Del Carmen;MX;CME;0;18.65;-91.8
CMF;Chambery Aix Les Bains;Chambery Aix Les Bains;Chambery Aix Les Bains;FR;CMF;0;43.55;6.95
CMH;Port Columbus;Port Columbus;Port Columbus;US;CMH;0;39.9911;-82.8783
CMI;Univ Of Illinois Willard;Univ Of Illinois Willard;Univ Of Illinois Willard;US;CMI;1;40.0397;-88.2797
CMN;Мохаммед V;Mohamed V;Мохаммед V;MA;CAS;40;33.3667;-7.58667
CMW;Ign Agramonte;Ign Agramonte;Ign Agramonte;CU;CMW;0;21.4186;-77.8497
CMX;Houghton Cty Memorial;Houghton Cty Memorial;Houghton Cty Memorial;US;CMX;0;47.1678;-88.4864
CNC;Coconut Island;Coconut Island;Coconut Island;AU;CNC;0;-10.05;143.067
CND;Kogalniceanu;Kogalniceanu;Kogalniceanu;RO;CND;0;44.35;28.4833
CNF;Tancredo Neves;Tancredo Neves;Tancredo Neves;BR;BHZ;0;-19.6333;-43.9686
CNJ;Cloncurry;Cloncurry;Cloncurry;AU;CNJ;0;-20.6667;140.5
CNM;Carlsbad;Carlsbad;Carlsbad;US;CNM;1;32.3372;-104.263
CNQ;Camba Punta;Camba Punta;Camba Punta;AR;CNQ;0;-27.4497;-58.7622
CNS;Cairns;Cairns;Cairns;AU;CNS;0;-16.8833;145.752
CNX;Chiang Mai;Chiang Mai;Chiang Mai;TH;CNX;0;18.7719;98.9683
CNY;Moab;Moab;Moab;US;CNY;0;38.7594;-109.746
COD;Yellowstone региональный;Yellowstone Regional;Yellowstone региональный;US;COD;0;44.5158;-109.028
COK;Kochi;Kochi;Kochi;IN;COK;0;9.94444;76.2719
COO;Cotonou;Cotonou;Cotonou;BJ;COO;0;6.35417;2.38556
COR;Pajas Blanco;Pajas Blanco;Pajas Blanco;AR;COR;0;-31.3131;-64.1994
COS;Колорадо Спрингз;Colorado Springs;Колорадо Спрінгз;US;COS;0;38.8089;-104.709
COU;Columbia региональный;Columbia Regional;Columbia региональный;US;COU;0;38.8136;-92.2192
CPC;Chapelco;Chapelco;Chapelco;AR;CPC;0;-40.0667;-71.1333
CPD;Coober Pedy;Coober Pedy;Coober Pedy;AU;CPD;0;-29.0444;134.753
CPE;Кампече;Campeche;Кампече;MX;CPE;0;19.835;-90.5094
CPH;Копенгаген;Copenhagen;Копенгаген;DK;CPH;114;55.6081;12.6333
CPO;Chamonate;Chamonate;Chamonate;CL;CPO;3;-27.4167;-70.5361
CPQ;Campinas;International Campinas;Campinas;BR;CPQ;0;-22.9417;-47.1806
CPR;Natrona окр.;Natrona Cty;Natrona окр.;US;CPR;0;42.9086;-106.463
CPS;East St Louis;East St Louis;East St Louis;US;STL;0;38.6333;-96.1333
CPT;Кейптаун;Cape Town;Кейптаун;ZA;CPT;2;-33.9647;18.6022
CPV;Joao Suassuana;Joao Suassuana;Joao Suassuana;BR;CPV;0;-7.26667;-35.9
CQD;Shahre Kord;Shahre Kord;Shahre Kord;IR;CQD;0;32.2972;50.8422
CRA;Крайова;Craiova;Крайова;RO;CRA;0;44.3189;23.8864
CRD;Comodoro Rivadavia;Comodoro Rivadavia;Comodoro Rivadavia;AR;CRD;0;-45.7872;-67.4628
CRK;Clark Field Arpt;Clark Field;Clark Field Arpt;PH;CRK;0;15.1833;120.55
CRL;Брюссель Юг Шарлеруа;Brussels South Charleroi;Брюссель Південь Шарлеруа;BE;BRU;0;50.4167;4.43333
CRP;Корпус Кристи;Corpus Christi;Корпус Крісті;US;CRP;0;27.7722;-97.5014
CRW;Yeager;Yeager;Yeager;US;CRW;0;38.3728;-81.5931
CSG;Columbus Metro Ft Benning;Columbus Metro Ft Benning;Columbus Metro Ft Benning;US;CSG;0;32.5133;-84.9411
CSX;Changsha;Changsha;Changsha;CN;CSX;0;28.1867;113.222
CTA;Fontanarossa;Fontanarossa;Fontanarossa;IT;CTA;2;37.4028;15.1
CTC;Choya;Choya;Choya;AR;CTC;0;-28.4483;-65.7797
CTG;Rafael Nunez;Rafael Nunez;Rafael Nunez;CO;CTG;0;10.4467;-75.5108
CTL;Charleville;Charleville;Charleville;AU;CTL;0;-26.4133;146.26
CTM;Chetumal;Chetumal;Chetumal;MX;CTM;0;18.4819;-88.3333
CTS;Chitose;Chitose;Chitose;JP;SPK;0;42.7958;141.669
CTU;Chengdu;Chengdu;Chengdu;CN;CTU;0;30.7;103.95
CUC;Camilo Dazo;Camilo Dazo;Camilo Dazo;CO;CUC;0;7.93;-72.5094
CUE;Cuenca;Cuenca;Cuenca;EC;CUE;2;-2.86667;-78.9833
CUF;Levaldigi;Levaldigi;Levaldigi;IT;CUF;0;44.5353;7.6175
CUL;Fedl De Bachigualato;Fedl De Bachigualato;Fedl De Bachigualato;MX;CUL;0;24.7644;-107.474
CUM;Антонио Хосе дэ Сукре;Antonio Jose De Sucre;Антоніо Хосе де Сукре;VE;CUM;0;10.4478;-64.1919
CUN;Cancun;Cancun Aeropuerto Internacional;Cancun;MX;CUN;32;21.0333;-86.8667
CUR;Areopuerto Hato;Areopuerto Hato;Areopuerto Hato;AN;CUR;0;12.1942;-68.9606
CUU;Chihuahua;Chihuahua;Chihuahua;MX;CUU;0;28.6525;-106.094
CUZ;Tte Velazco Astete;Tte Velazco Astete;Tte Velazco Astete;PE;CUZ;0;-13.5294;-71.9597
CVG;Cincinnati No Kentucky;Cincinnati No Kentucky;Cincinnati No Kentucky;US;CVG;16;39.0478;-84.6686
CVM;Ciudad Victoria;Ciudad Victoria;Ciudad Victoria;MX;CVM;0;23.7139;-98.9653
CVN;Clovis;Clovis;Clovis;US;CVN;0;34.4272;-103.079
CVO;Corvallis;Corvallis;Corvallis;US;CVO;0;44.6333;-123.117
CVQ;Carnarvon;Carnarvon;Carnarvon;AU;CVQ;0;-24.88;113.667
CVT;Baginton;Baginton;Baginton;GB;CVT;0;52.3692;-1.47861
CVU;Corvo;Corvo;Corvo;PT;CVU;0;39.7;-31.1
CWA;Central Wisconsin;Central Wisconsin;Central Wisconsin;US;AUW;0;44.7822;-89.6592
CWB;Afonso Pena;Afonso Pena;Afonso Pena;BR;CWB;0;-25.5267;-49.1778
CWL;Кардифф Уэльс;Cardiff Wales;Кардіфф Уельс;GB;CWL;0;51.3975;-3.34667
CXH;Coal Harbor база гидросамолетов;Coal Harbor Sea Plane;Coal Harbor база гидросамолетов;CA;YVR;0;49.2667;-123.117
CXJ;Campo Dos Bugres;Campo Dos Bugres;Campo Dos Bugres;BR;CXJ;0;-29.1667;-51.1833
CXR;Cam Ranh;Cam Ranh;Cam Ranh;VN;CXR;0;11.9936;109.225
CYB;Gerrard Smith;Gerrard Smith;Gerrard Smith;KY;CYB;0;19.6867;-79.8875
CYO;Cayo Largo Del Sur;Cayo Largo Del Sur;Cayo Largo Del Sur;CU;CYO;0;21.6167;-81.5167
CYS;Cheyenne;Cheyenne;Cheyenne;US;CYS;8;41.1558;-104.817
CZE;Coro;Coro;Coro;VE;CZE;0;11.4158;-69.6819
CZL;Ain El Bey;Ain El Bey;Ain El Bey;DZ;CZL;0;36.2769;6.63
CZM;De Cozumel;Aeropuerto De Cozumel;De Cozumel;MX;CZM;0;20.5167;-86.9333
CZS;Campo;Campo;Campo;BR;CZS;0;-7.58333;-72.7833
CZX;Changzhou;Changzhou;Changzhou;CN;CZX;0;31.7;119.967
DAB;Daytona Beach региональный;Daytona Beach Regional;Daytona Beach региональный;US;DAB;0;29.1825;-81.0528
DAC;Zia;Zia Intl;Zia;BD;DAC;3;23.7806;90.3861
DAD;Da Nang;Da Nang;Da Nang;VN;DAD;1;16.0422;108.204
DAL;Love Field;Love Field;Love Field;US;DFW;0;32.8469;-96.8533
DAM;Дамаск;Damascus;Дамаск;SY;DAM;2;33.4139;36.5178
DAR;Эс-Салам;Es Salaam;Ес-Салам;TZ;DAR;0;-6.87528;39.2019
DAT;Датон;Datong;Датон;CN;DAT;0;30.8;117.733
DAY;Dayton;Dayton International;Dayton;US;DAY;0;39.9;-84.2211
DBO;Dubbo;Dubbo;Dubbo;AU;DBO;0;-32.2192;148.577
DBQ;Dubuque;Dubuque;Dubuque;US;DBQ;0;42.41;-90.7108
DBV;Дубровник;Dubrovnik;Дубровнік;HR;DBV;4;42.5633;18.2653
DCA;Рональд Рейган национальный;Ronald Reagan National;Рональд Рейган національний;US;WAS;0;38.8517;-77.0369
DCF;Canefield;Canefield;Canefield;DM;DOM;1;15.5;-61.3333
DCM;Mazamet;Mazamet;Mazamet;FR;DCM;0;43.5558;2.28417
DDC;Dodge City;Dodge City;Dodge City;US;DDC;0;37.7617;-99.965
DDG;Dandong;Dandong;Dandong;CN;DDG;0;40;125
DEC;Decatur;Decatur;Decatur;US;DEC;0;39.8342;-88.8686
DED;Джолли Грант;Jolly Grant;Джоллі Грант;IN;DED;0;30.3167;78.0333
DEL;Дели Индира Ганди;Delhi Indira Gandhi;Делі Індіра Ганді;IN;DEL;60;28.5736;77.1008
DEN;Денвер;Denver;Денвер;US;DEN;7;39.8547;-104.718
DEZ;Al Jafrah;Al Jafrah;Al Jafrah;SY;DEZ;0;35.3333;40.15
DFW;Даллас Форт Уэрт;Dallas Ft Worth;Даллас Форт Уерт;US;DFW;5;32.8944;-97.0297
DGO;Guadalupe Victoria;Guadalupe Victoria;Guadalupe Victoria;MX;DGO;0;24.125;-104.525
DHM;Gaggal Arpt;Gaggal;Gaggal Arpt;IN;DHM;0;32.3;76.2667
DHN;Dothan;Dothan;Dothan;US;DHN;2;31.32;-85.4483
DIB;Chabua;Chabua;Chabua;IN;DIB;0;27.4839;95.0208
DIE;Antsiranana Arrachart ;Antsiranana Arrachart;Antsiranana Arrachart ;MG;DIE;0;-12.3461;49.2925
DIG;Diging;Diging;Diging;CN;DIG;0;27.7897;99.6778
DIK;Dickinson;Dickinson;Dickinson;US;DIK;0;46.8333;-102.9
DIL;Comoro;Comoro;Comoro;TL;DIL;0;-8.53333;125.577
DIN;Gialam;Gialam;Gialam;VN;DIN;0;21.3833;103
DIR;Aba Tenna D Yilma;Aba Tenna D Yilma;Aba Tenna D Yilma;ET;DIR;0;9.62222;41.8508
DIU;Diu;Diu;Diu;IN;DIU;0;20.7167;70.9167
DIY;Diyarbakirarpt;Diyarbakirarpt;Diyarbakirarpt;TR;DIY;0;37.8953;40.2031
DJB;Sultan Taha Syarifudin;Sultan Taha Syarifudin;Sultan Taha Syarifudin;ID;DJB;0;-1.63472;103.642
DJE;Melita;Melita;Melita;TN;DJE;0;33.8742;10.7833
DKR;Leopold Sedar Senghor;Leopold Sedar Senghor;Leopold Sedar Senghor;SN;DKR;0;14.7408;-17.4906
DLA;Douala;Douala;Douala;CM;DLA;0;4.01333;9.70917
DLC;Dalian;Dalian;Dalian;CN;DLC;0;38.9667;121.55
DLG;Dillingham;Dillingham;Dillingham;US;DLG;0;59.05;-158.5
DLH;Duluth;Duluth;Duluth;US;DLH;0;46.8425;-92.1903
DLI;Lienkhang;Lienkhang;Lienkhang;VN;DLI;0;11.7497;108.378
DLM;Dalman;Dalman;Dalman;TR;DLM;5;36.7167;28.7833
DLU;Dali;Dali;Dali;CN;DLU;0;25.6667;100.317
DMD;Doomadgee;Doomadgee;Doomadgee;AU;DMD;0;-18;138.833
DME;Домодедово;Domodedovo;Домодєдово;RU;MOW;1569;55.4174;37.8968
DMK;Дон Муанг;Don Muang;Дон Муанг;TH;BKK;0;13.9125;100.607
DMM;King Fahad;King Fahad;King Fahad;SA;DMM;2;26.4667;49.8
DND;Riverside Park;Riverside Park;Riverside Park;GB;DND;0;56.4528;-3.00833
DNH;Dunhuang;Dunhuang;Dunhuang;CN;DNH;0;40.2;94.6833
DNK;Днепропетровска/п;Dnepropetrovsk;Дніпропетровськ;UA;DNK;2;48.45;34.9833
DNR;Pleurtuit;Pleurtuit;Pleurtuit;FR;DNR;0;48.5878;-2.08361
DNZ;Cardak;Cardak;Cardak;TR;DNZ;1;37.7872;29.7033
DOH;Доха;Doha;Доха;QA;DOH;2;25.2569;51.5664
DOK;Донецк;Donetsk;Донецьк;UA;DOK;28;48.0833;37.75
DOM;Melville Hall;Melville Hall;Melville Hall;DM;DOM;2;15.5431;-61.3092
DOV;Dover база ВВС;Dover AFB;Dover база ВВС;US;DOV;0;39.1286;-75.4642
DPA;Dupage окр.;Dupage County;Дюпедж окр.;US;CHI;0;41.9144;-88.2464
DPL;Dipolog;Dipolog;Dipolog;PH;DPL;0;8.6;123.35
DPO;Devonport;Devonport;Devonport;AU;DPO;0;-41.1708;146.425
DPS;Ngurah Rai;Ngurah Rai;Ngurah Rai;ID;DPS;58;-8.74861;115.165
DRO;Durango La Plata окр.;Durango La Plata Cty;Durango La Plata окр.;US;DRO;0;37.15;-107.751
DRS;Дрезден;Dresden;Дрезден;DE;DRS;0;51.1333;13.7667
DRT;Del Rio;International Del Rio;Del Rio;US;DRT;0;29.3333;-100.978
DRW;Дарвин;Darwin;Дарвін;AU;DRW;0;-12.4167;130.872
DSA;Finningley;Finningley;Finningley;GB;DSA;0;53.4753;-1.00389
DSM;Де-Мойн;Des Moines Airport;Де-Мойн;US;DSM;0;41.5339;-93.6567
DTM;Wickede Dortmund;Wickede Dortmund;Wickede Dortmund;DE;DTM;2;51.5167;7.6
DTW;Detroit Metro Wayne окр.;Detroit Metro Wayne Cnty;Detroit Metro Wayne окр.;US;DTT;16;42.2186;-83.3486
DUB;Дублин;Dublin;Дублін;IE;DUB;99;53.4325;-6.25222
DUD;Momona;Momona;Momona;NZ;DUD;0;-45.925;170.2
DUJ;Dubois Jefferson окр.;Dubois Jefferson Cty;Dubois Jefferson окр.;US;DUJ;0;41.1783;-78.8989
DUR;Durban;Durban;Durban;ZA;DUR;0;-29.9692;30.9569
DUS;Дюссельдорф;Dusseldorf;Дюссельдорф;DE;DUS;176;51.2811;6.75278
DUT;Emergency Field;Emergency Field;Emergency Field;US;DUT;0;53.9011;-166.536
DVL;Devils Lake;Devils Lake;Devils Lake;US;DVL;0;48.1131;-98.9075
DVN;Давенпорт;Davenport;Давенпорт;US;DVN;0;41.6106;-90.5886
DVO;Mati;Mati;Mati;PH;DVO;0;7.13167;125.649
DVX;Делавэр аэродром;Delaware Airpark;Делавер аеродром;US;DOV;0;0;0
DXB;Дубаи;Dubai;Дубаї;AE;DXB;58;25.25;55.3578
DYG;Dayong;Dayong;Dayong;CN;DYG;0;29.1333;110.483
DYR;Анадырь;Anadyr;Анадир;RU;DYR;1;64.7333;177.75
DYU;Душанбе;Dushanbe;Душанбе;TJ;DYU;0;38.55;68.8236
DZA;Dzaoudzi;Dzaoudzi;Dzaoudzi;YT;DZA;0;-12.7833;45.2833
EAA;Eagle;Eagle;Eagle;US;EAA;0;64.7767;-141.149
EAM;Nejran;Nejran;Nejran;SA;EAM;0;17.6117;44.4297
EAR;Kearney;Kearney Arrpt;Kearney;US;EAR;0;40.7283;-98.9989
EAS;Сан-Себастьян;San Sebastian;Сан-Себастьян;ES;EAS;0;43.3578;-1.79
EAT;Pangborn Memorial Fld;Pangborn Memorial Fld;Pangborn Memorial Fld;US;EAT;0;47.3997;-120.208
EAU;Claire;Claire Airport;Claire;US;EAU;0;44.8644;-91.4872
EBB;Entebbe;Entebbe;Entebbe;UG;EBB;4;0.0425;32.4381
EBJ;Esbjerg;Esbjerg;Esbjerg;DK;EBJ;0;55.5264;8.5525
EBL;Erbil Arpt;Erbil;Erbil Arpt;IQ;EBL;0;36.2375;43.9631
ECN;Ercan;Ercan;Ercan;CY;ECN;2;35.1597;33.4897
EDI;Эдинбург;Edinburgh;Эдінбург;GB;EDI;31;55.95;-3.3725
EDL;Eldoret;Eldoret;Eldoret;KE;EDL;0;0.516667;35.2833
EDR;Edward River;Edward River;Edward River;AU;EDR;0;-14.9;141.617
EFL;Argostoli;Argostoli;Argostoli;GR;EFL;0;38.1181;20.5056
EGC;Roumaniere;Roumaniere;Roumaniere;FR;EGC;0;44.85;0.483333
EGE;Eagle окр.;Eagle County;Ігл окр.;US;EGE;0;39.645;-106.912
EGM;Sege Arpt;Sege;Sege Arpt;SB;EGM;0;-8.55;157.85
EGO;Белгород;Belgorod;Бєлгород;RU;EGO;0;50.6333;36.65
EGS;Egilsstadir;Egilsstadir;Egilsstadir;IS;EGS;3;65.2778;-14.4028
EGV;Eagle River Union;Eagle River Union;Eagle River Union;US;EGV;0;45.9292;-89.2658
EIN;Welschap;Welschap;Welschap;NL;EIN;0;51.4533;5.38889
EIS;Beef Island;Beef Island;Beef Island;VG;EIS;0;18.4439;-64.5428
EJA;Variguies;Variguies;Variguies;CO;EJA;0;7.01583;-73.7992
EKO;J C Harris Field;J C Harris Field;J C Harris Field;US;EKO;0;40.8239;-115.79
ELH;North Eleuthera;North Eleuthera;North Eleuthera;BS;ELH;0;25.4747;-76.685
ELM;Elmira Corning региональный;Elmira Corning Regional;Elmira Corning региональный;US;ELM;0;42.1608;-76.8953
ELP;Эль-Пасо;El Paso;Эль-Пасо;US;ELP;0;31.8011;-106.399
ELQ;Gassim;Gassim;Gassim;SA;ELQ;0;26.3033;43.7708
ELS;Ист-Лондон;East London;Іст-Лондон;ZA;ELS;0;-33.0361;27.8239
ELY;Yelland Field;Yelland Field;Yelland Field;US;ELY;0;39.3019;-114.842
EMA;East Midlands;East Midlands;East Midlands;GB;NQT;1;52.8311;-1.32806
EMD;Emerald;Emerald;Emerald;AU;EMD;0;-23.57;148.178
ENA;Кенай;Kenai;Кєнаї;US;ENA;0;60.5675;-151.251
ENW;Kenosha;Kenosha;Kenosha;US;ENW;0;42.5833;-87.8167
ENY;Yanan Arpt;Yanan;Yanan Arpt;CN;ENY;0;36;109.333
EOH;Enrique Olaya Herrara;Enrique Olaya Herrara;Enrique Olaya Herrara;CO;MDE;0;6.21667;-75.5833
EOI;Eday;Eday;Eday;GB;EOI;0;59.1833;-2.78333
EPR;Esperance;Esperance;Esperance;AU;EPR;0;-33.685;121.824
EQS;Esquel;Esquel;Esquel;AR;EQS;0;-42.9097;-71.1425
ERC;Эрзинджан;Erzincan;Ерзінджан;TR;ERC;0;39.7117;39.5169
ERF;Эрфурт;Erfurt;Ерфурт;DE;ERF;0;50.9833;10.9667
ERI;Эри;Erie;Ері;US;ERI;0;42.08;-80.1786
ERS;Эрос;Eros;Ерос;NA;WDH;0;-22.6167;17.0833
ERZ;Эрзурум;Erzurum;Ерзурум;TR;ERZ;0;39.9556;41.1736
ESB;Esenboga;Esenboga;Esenboga;TR;ANK;18;40.1333;33
ESC;Delta окр.;Delta County;Delta окр.;US;ESC;0;45.7206;-87.0867
ESD;Eastsound Orcas Is;Eastsound Orcas Is;Eastsound Orcas Is;US;ESD;0;48.7083;-122.912
ESR;Эль-Сальвадор;El Salvador;Ель-Сальвадор;CL;ESR;0;-26.3153;-69.7653
ESS;Эссен;Essen;Эссен;DE;ESS;1;51.4039;6.94167
ESU;Essaouira;Essaouira;Essaouira;MA;ESU;0;31.5333;-9.7
ETH;Elat;Elat;Elat;IL;ETH;18;29.5597;34.9614
ETZ;Metz Nancy Lorraine;Metz Nancy Lorraine;Metz Nancy Lorraine;FR;ETZ;1;48.9792;6.24778
EUG;Eugene;Eugene;Eugene;US;EUG;0;44.1208;-123.218
EUN;Hassan I;Hassan I;Hassan I;MA;EUN;0;27.1333;-13.2167
EUX;Roosevelt Field;Roosevelt Field;Roosevelt Field;AN;EUX;0;17.4931;-62.9778
EVE;Evenes;Evenes;Evenes;NO;EVE;0;68.4967;16.6797
EVG;Sveg;Sveg;Sveg;SE;EVG;0;62.0333;14.35
EVN;Ереван;Yerevan;Єреван;AM;EVN;3;40.15;44.4
EVV;Evansville региональный;Evansville Regional;Evansville региональный;US;EVV;0;38.0367;-87.5325
EWB;New Bedford;New Bedford;New Bedford;US;EWB;0;41.6769;-70.9592
EWN;Simmons Nott;Simmons Nott;Simmons Nott;US;EWN;0;35.0736;-77.0425
EWR;Ньюарк;Newark Liberty;Ньюарк;US;EWR;17;40.6958;-74.1717
EXI;Excursion Inlet;Excursion Inlet;Excursion Inlet;US;EXI;0;58.4208;-135.447
EXT;Экзетер;Exeter;Екзетер;GB;EXT;0;50.7342;-3.42167
EYW;Ки-Уэст;Key West;Кі-Уест;US;EYW;0;24.5561;-81.7597
EZE;Ministro Pistarini;Ministro Pistarini;Ministro Pistarini;AR;BUE;0;-34.82;-58.5339
EZS;Elazig;Elazig;Elazig;TR;EZS;0;38.6083;39.2917
FAE;Faeroe;Faeroe;Faeroe;DK;FAE;0;62.0667;-7.26667
FAI;Фэрбенкс;Fairbanks;Фербенкс;US;FAI;0;64.8144;-147.863
FAO;Фаро;Faro;Фаро;PT;FAO;69;37.0144;-7.97083
FAR;Hector;Hector;Hector;US;FAR;0;46.9156;-96.8147
FAT;Фресно аэротерминал;Fresno Air Terminal;Фресно аеротермінал;US;FAT;0;36.7711;-119.714
FAY;Fayetteville;Fayetteville;Fayetteville;US;FAY;0;34.9894;-78.8811
FBM;Luano;Luano;Luano;CD;FBM;0;-11.5908;27.5292
FBU;Fornebu;Fornebu;Fornebu;NO;OSL;0;0;0
FCA;Glacier Park;Glacier Park;Glacier Park;US;FCA;0;48.3128;-114.251
FCO;Фиумичино;Fiumicino;Фіумічіно;IT;ROM;9;41.8003;12.2389
FDE;Bringeland;Bringeland;Bringeland;NO;FDE;0;61.4592;5.8475
FDF;Lamentin;Lamentin;Lamentin;MQ;FDF;0;14.5897;-61.0061
FDH;Friedrichshafen Lowenthal;Friedrichshafen Lowenthal;Friedrichshafen Lowenthal;DE;FDH;0;47.6672;9.5125
FEN;Fernando De Noronha;Fernando De Noronha;Fernando De Noronha;BR;FEN;0;-3.85;-32.4167
FEZ;Fez;Fez;Fez;MA;FEZ;0;33.9333;-4.96667
FFM;Fergus Falls;Fergus Falls;Fergus Falls;US;FFM;0;46.2833;-96.0667
FGI;Fagali;Fagali;Fagali;WS;APW;0;-13.8333;-171.733
FHU;Sierra Vista;Sierra Vista;Sierra Vista;US;FHU;0;31.5889;-110.343
FIH;Киншаса;Kinshasa;Кіншаса;CD;FIH;0;-4.38333;15.4333
FKB;Soellingen;Soellingen;Soellingen;DE;FKB;1;48.7792;8.08028
FKL;Chess Lamberton;Chess Lamberton;Chess Lamberton;US;FKL;1;41.3792;-79.8597
FKS;Фукусима;Fukushima;Фукусіма;JP;FKS;0;37.2267;140.433
FLG;Flagstaff;Flagstaff;Flagstaff;US;FLG;0;35.1378;-111.672
FLL;Ft Lauderdale Hollywood;Ft Lauderdale Hollywood;Ft Lauderdale Hollywood;US;FLL;0;26.0742;-80.1517
FLN;Hercilio Luz;Hercilio Luz;Hercilio Luz;BR;FLN;2;-27.6697;-48.5506
FLO;Gilbert Field;Gilbert Field;Gilbert Field;US;FLO;0;34.1889;-79.7244
FLR;Amerigo Vespucci;Amerigo Vespucci;Amerigo Vespucci;IT;FLR;0;43.8103;11.1978
FLW;Das Flores;Aerodromo Das Flores;Das Flores;PT;FLW;1;39.4667;-31.15
FMA;El Pucu;El Pucu;El Pucu;AR;FMA;0;-26.2128;-58.235
FMN;Four Corners региональный;Four Corners Regional;Four Corners региональный;US;FMN;1;36.7411;-108.229
FMO;Мюнстер;Muenster;Мюнстер;DE;FMO;0;52.1333;7.68333
FMY;Page Field;Page Field;Page Field;US;FMY;0;26.5833;-81.8667
FNA;Lungi;Lungi;Lungi;SL;FNA;0;8.6175;-13.1969
FNC;Мадейра;Madeira;Мадейра;PT;FNC;6;32.6942;-16.7781
FNI;Nimes;Nimes;Nimes;FR;FNI;0;43.75;4.41667
FNJ;Sunan;Sunan;Sunan;KP;FNJ;0;39.2;125.667
FNT;Bishop;Bishop;Bishop;US;FNT;0;42.9667;-83.7417
FOC;Fuzhou;Fuzhou;Fuzhou;CN;FOC;0;26.1;119.283
FOD;Ft Dodge;Ft Dodge;Ft Dodge;US;FOD;0;42.5525;-94.1897
FOE;Forbes Field;Forbes Field;Forbes Field;US;TOP;0;38.9525;-95.6625
FOG;Gino Lisa;Gino Lisa;Gino Lisa;IT;FOG;0;41.4267;15.5394
FOR;Pinto Martines;Pinto Martines;Pinto Martines;BR;FOR;0;-3.77667;-38.5344
FPO;Grand Bahama;Grand Bahama;Grand Bahama;BS;FPO;0;26.5553;-78.7
FRA;Франкфурт;Frankfurt;Франкфурт;DE;FRA;188;50.0389;8.57056
FRD;Friday Harbor;Friday Harbor;Friday Harbor;US;FRD;0;48.5264;-123.024
FRG;Republic;Republic;Republic;US;FRG;0;40.7333;-73.4167
FRL;Луиджи Ридольфи;Luigi Ridolfi;Луіджі Рідольфі;IT;FRL;0;44.1953;12.0686
FRO;Флора;Flora;Флора;NO;FRO;0;61.5819;5.01444
FRS;Flores;Flores;Flores;GT;FRS;0;16.9167;-89.8833
FRU;Бишкек;Bishkek;Бішкек;KG;FRU;10;42.8333;74.5667
FRW;Франсистаун;Francistown;Франсістаун;BW;FRW;0;-21.16;27.4825
FSC;Sud Corse;Sud Corse;Sud Corse;FR;FSC;0;41.5;9.1
FSD;Joe Foss Field;Joe Foss Field;Joe Foss Field;US;FSD;0;43.5789;-96.7408
FSM;Форт-Смит;Ft Smith;Форт-Сміт;US;FSM;0;35.3361;-94.37
FSP;St Pierre;St Pierre;St Pierre;CA;FSP;0;46.9167;-56.1667
FTE;El Calafate;El Calafate;El Calafate;AR;FTE;0;-50.2803;-72.0533
FTY;Fulton окр.;Fulton Cty;Фултон окр.;US;ATL;0;33.7833;-84.5167
FUE;Fuerteventura;Fuerteventura;Fuerteventura;ES;FUE;0;28.4772;-13.9876
FUJ;Fukue;Fukue;Fukue;JP;FUJ;0;32.6667;128.833
FUK;Itazuke;Itazuke;Itazuke;JP;FUK;0;33.5822;130.453
FUN;Funafuti;Funafuti;Funafuti;TV;FUN;0;-8.51667;179.208
FWA;Baer Field;Baer Field;Baer Field;US;FWA;0;40.9783;-85.1881
FXE;Ft Lauderdale Excutive;Ft Lauderdale Excutive;Ft Lauderdale Excutive;US;FLL;0;26.0667;-80.15
GAJ;Ямагата;Yamagata;Ямагата;JP;GAJ;0;38.4;140.383
GAL;Galena;Galena;Galena;US;GAL;0;64.7364;-156.932
GAU;Borjhar;Borjhar;Borjhar;IN;GAU;0;26.1042;91.5875
GAY;Gaya;Gaya;Gaya;IN;GAY;0;24.7467;84.9458
GBD;Greate Bend;Greate Bend;Greate Bend;US;GBD;0;38.3472;-98.8642
GBE;Габороне;Gaborone;Габороне;BW;GBE;0;-24.55;25.9167
GCC;Campbell окр.;Campbell Cty;Campbell окр.;US;GCC;0;44.3514;-105.525
GCI;Гернси;Guernsey;Гернсі;GB;GCI;0;49.4361;-2.60278
GCK;Garden City;Garden City;Garden City;US;GCK;0;37.9286;-100.73
GCM;Owen Roberts;Owen Roberts;Owen Roberts;KY;GCM;0;19.2925;-81.3581
GDL;Мигель Идальго;Miguel Hidalgo;Мігель Ідальго;MX;GDL;0;20.5239;-103.313
GDN;Ребехово;Rebiechowo;Ребехово;PL;GDN;0;54.3667;18.65
GDT;Grand Turk Is;Grand Turk Is;Grand Turk Is;TC;GDT;0;21.4667;-71.1333
GDX;Магадан;Magadan;Магадан;RU;GDX;0;59.9167;150.717
GEA;Маджента;Magenta;Маджента;NC;NOU;0;-22.2597;166.471
GEG;Спокане;Spokane;Спокане;US;GEG;0;47.6169;-117.537
GEO;Cheddi Jagan;Cheddi Jagan;Cheddi Jagan;GY;GEO;0;6.5;-58.25
GER;Рафаэль Кабрера;Rafael Cabrera;Рафаель Кабрера;CU;GER;0;21.8375;-82.78
GES;Buayan;Buayan;Buayan;PH;GES;0;6.10944;125.235
GET;Geraldton;Geraldton;Geraldton;AU;GET;0;-28.7917;114.7
GEV;Gallivare;Gallivare;Gallivare;SE;GEV;0;67.1344;20.8167
GFF;Гриффит;Griffith;Гріффіт;AU;GFF;0;-34.2508;146.066
GFK;Grand Forks Mark Andrews;Grand Forks Mark Andrews;Grand Forks Mark Andrews;US;GFK;0;47.9519;-97.1786
GFN;Grafton;Grafton;Grafton;AU;GFN;0;-29.7558;153.034
GGG;Greg окр.;Greg County;Грег окр.;US;GGG;0;32.3867;-94.7153
GGT;George Town;George Town;George Town;BS;GGT;0;23.4681;-75.7825
GGW;Глазго;International Glasgow;Глазго;US;GGW;0;48.2128;-106.616
GHA;Noumerate;Noumerate;Noumerate;DZ;GHA;0;32.3822;3.80056
GHB;Governors Harbour;Governors Harbour;Governors Harbour;BS;GHB;0;25.2839;-76.3308
GIB;North Front;North Front;North Front;GI;GIB;0;36.15;-5.34722
GIC;Boigu Island;Boigu Island;Boigu Island;AU;GIC;0;-9.23333;142.217
GIG;Rio;Rio Internacional;Rio;BR;RIO;0;-22.9;-43.2556
GIL;Gilgit;Gilgit;Gilgit;PK;GIL;0;35.9192;74.3358
GIS;Gisborne;Gisborne;Gisborne;NZ;GIS;0;-38.6597;177.972
GIZ;Gizan;Gizan Aprt;Gizan;SA;GIZ;0;16.8667;42.5833
GJT;Walker Field;Walker Field;Walker Field;US;GJT;0;39.1225;-108.527
GKA;Goroka;Goroka;Goroka;PG;GKA;0;-6.07917;145.398
GLA;Глазго;Glasgow;Глазго;GB;GLA;22;55.8667;-4.43333
GLH;Greenville;Greenville;Greenville;US;GLH;0;33.4844;-90.985
GLO;Staverton;Staverton;Staverton;GB;GLO;0;51.8833;-2.23333
GLR;Otsego;Otsego;Otsego;US;GLR;0;45.0333;-84.6667
GLT;Gladstone;Gladstone;Gladstone;AU;GLT;0;-23.8333;151.254
GMP;Gimpo;Gimpo;Gimpo;KR;SEL;0;37.5511;126.785
GMZ;La Gomera;La Gomera;La Gomera;ES;GMZ;0;28.0167;-17.2
GNB;Saint Geoirs;Saint Geoirs;Saint Geoirs;FR;GNB;8;45.3628;5.32972
GND;Port Saline;Port Saline;Port Saline;GD;GND;0;12.15;-61.6167
GNV;Gainesville региональный;Gainesville Regional;Gainesville региональный;US;GNV;0;29.6897;-82.2758
GNY;Guney Anadolu;Guney Anadolu;Guney Anadolu;TR;GNY;0;40.1665;-105.922
GOA;Christoforo Colombo;Christoforo Colombo;Christoforo Colombo;IT;GOA;0;44.4131;8.83778
GOH;Nuuk;Nuuk;Nuuk;GL;GOH;0;64.1819;-51.725
GOI;Dabolim;Dabolim;Dabolim;IN;GOI;34;15.3833;73.8333
GOJ;Нижний Новгород;Nizhniy Novgorod;Нижній Новгород;RU;GOJ;21;56;44
GOT;Landvetter;Landvetter;Landvetter;SE;GOT;0;57.6667;12.2833
GOV;Nhulunbuy;Nhulunbuy;Nhulunbuy;AU;GOV;0;-12.2817;136.822
GPS;Baltra;Baltra;Baltra;EC;GPS;0;-0.434722;-90.2828
GPT;Biloxi региональный;Biloxi Regional;Biloxi региональный;US;GPT;0;30.4061;-89.0703
GPZ;Итаска окр.;Itasca County;Ітаска окр.;US;GPZ;0;47.2144;-93.5111
GRB;Austin Straubel Fld;Austin Straubel Fld;Austin Straubel Fld;US;GRB;0;44.4881;-88.1306
GRI;Hall окр. региональный;Hall Cty Regional;Hall окр. региональный;US;GRI;0;40.9672;-98.3067
GRJ;George;George;George;ZA;GRJ;0;-33.9675;22.4211
GRK;Gray авиационная база сухопутных сил;Gray AAF;Gray авиационная база сухопутных сил;US;ILE;0;31.0673;-97.8289
GRO;Коста-Брава;Costa Brava;Коста-Брава;ES;GRO;0;41.9092;2.76333
GRQ;Eelde;Eelde;Eelde;NL;GRQ;0;53.1203;6.57556
GRR;Kent окр.;Kent County;Keнт окр.;US;GRR;0;42.8811;-85.5242
GRU;Guarulhos;Guarulhos;Guarulhos;BR;SAO;0;-23.4333;-46.4833
GRW;Graciosa;Graciosa;Graciosa;PT;GRW;0;39.05;-28.05
GRX;Гранада;Granada;Гранада;ES;GRX;0;37.1878;-3.78056
GRZ;Thalerhof;Thalerhof;Thalerhof;AT;GRZ;0;46.9933;15.44
GSE;Saeve;Saeve;Saeve;SE;GOT;0;57.7683;11.8678
GSO;Piedmont Triad;Piedmont Triad;Piedmont Triad;US;GSO;0;36.0919;-79.9428
GSP;Greenville Spartanburg;Greenville Spartanburg;Greenville Spartanburg;US;GSP;0;34.905;-82.21
GST;Gustavus;Gustavus;Gustavus;US;GST;0;58.4275;-135.705
GTF;Great Falls;Great Falls;Great Falls;US;GTF;0;47.4856;-111.367
GTR;Golden;Golden;Golden;US;GTR;0;33.45;-88.6
GUA;La Aurora;La Aurora;La Aurora;GT;GUA;0;14.5819;-90.5275
GUC;Gunnison окр.;Gunnison Cty;Гуннісон окр.;US;GUC;0;38.5339;-106.939
GUM;Antonio B Won Pat;Antonio B Won Pat;Antonio B Won Pat;GU;GUM;0;13.48;144.791
GUR;Gurney;Gurney;Gurney;PG;GUR;0;-10.3108;150.339
GUW;Атырау;Atyrau;Атирау;KZ;GUW;0;47.1167;51.9
GVA;Geneve Cointrin;Geneve Cointrin;Geneve Cointrin;CH;GVA;372;46.2394;6.11028
GWT;Westerland;Westerland;Westerland;DE;GWT;0;54.9153;8.34306
GWY;Carnmore;Carnmore;Carnmore;IE;GWY;0;53.2833;-9.03333
GYD;Гейдар Алиев;Heydar Aliyev;Гейдар Аліев;AZ;BAK;0;40.5;49.9833
GYE;Симон Боливар;Simon Bolivar;Сімон Болівар;EC;GYE;0;-2.15444;-79.8756
GYI;Gisenyi;Gisenyi;Gisenyi;RW;GYI;0;-1.68333;29.25
GYM;Gen Jose M Yanez;Gen Jose M Yanez;Gen Jose M Yanez;MX;GYM;0;27.9556;-110.931
GYN;Santa Genoveva;Santa Genoveva;Santa Genoveva;BR;GYN;0;-16.6383;-49.2108
GZO;Gizo Arpt;Gizo;Gizo Arpt;SB;GZO;0;-8.11667;156.833
GZT;Gaziantep;Gaziantep;Gaziantep;TR;GZT;0;37.0667;37.3333
HAC;Hachijo Jima;Hachijo Jima;Hachijo Jima;JP;HAC;0;33.1133;139.791
HAD;Halmstad;Halmstad;Halmstad;SE;HAD;0;56.6833;12.8194
HAH;Prince Said Ibrahim In;Prince Said Ibrahim In;Prince Said Ibrahim In;KM;YVA;0;-11.5333;43.2667
HAJ;Ганновер;Hanover;Ганновер;DE;HAJ;4;52.4617;9.68472
HAK;Haikou;Haikou;Haikou;CN;HAK;0;20.1;110.35
HAM;Fuhlsbuettel;Fuhlsbuettel;Fuhlsbuettel;DE;HAM;27;53.6339;9.995
HAN;Noibai;Noibai;Noibai;VN;HAN;11;21.0358;105.89
HAS;Hail;Hail;Hail;SA;HAS;0;27.55;41.3833
HAU;Karmoy;Karmoy;Karmoy;NO;HAU;0;59.4056;5.27917
HAV;Jose Marti;Jose Marti;Jose Marti;CU;HAV;106;22.9894;-82.4075
HBA;Hobart;Hobart;Hobart;AU;HBA;0;-42.8333;147.483
HBE;Borg El Arab;Borg El Arab;Borg El Arab;EG;HBE;0;30.9;29.6833
HBT;Hafr Albatin;Hafr Albatin;Hafr Albatin;SA;HBT;0;27.8944;45.5264
HCN;Hengchun;Hengchun;Hengchun;TW;HCN;0;21.9333;120.833
HDD;Хайдерабад;Hyderabad;Хайдерабад;PK;HDD;0;25.3222;68.3639
HDN;Hayden;Hayden;Hayden;US;HDN;0;40.4833;-107.217
HDY;Hat Yai;Hat Yai;Hat Yai;TH;HDY;0;6.93333;100.417
HEH;Heho;Heho;Heho;MM;HEH;0;20.7439;96.7944
HEL;Хельсинки;Helsinki;Хельсінки;FI;HEL;184;60.3256;24.9717
HER;N Kazantzakis;N Kazantzakis;N Kazantzakis;GR;HER;7;35.3403;25.1833
HET;Hohhot;Hohhot;Hohhot;CN;HET;0;40.8533;111.822
HFA;Хайфа;Haifa;Хайфа;IL;HFA;6;32.8111;35.0417
HFD;Brainard;Brainard;Brainard;US;HFD;0;41.7331;-72.65
HFE;Hefei;Hefei;Hefei;CN;HFE;0;31.85;117.283
HFT;Hammerfest;Hammerfest;Hammerfest;NO;HFT;0;70.6794;23.6683
HGD;Hughenden;Hughenden;Hughenden;AU;HGD;0;-20.8189;144.224
HGH;Hangzhou;Hangzhou;Hangzhou;CN;HGH;0;30.3333;120.233
HGN;Mae Hong Son;Mae Hong Son;Mae Hong Son;TH;HGN;0;19.2989;97.9764
HGU;Kagamuga;Kagamuga;Kagamuga;PG;HGU;0;-5.82722;144.295
HHH;Hilton Head;Hilton Head;Hilton Head;US;HHH;0;32.2167;-80.6833
HHN;Hahn;Hahn;Hahn;DE;FRA;0;49.95;7.26667
HHQ;Hua Hin;Hua Hin;Hua Hin;TH;HHQ;0;12.6306;99.9544
HIB;Hibbing Chisolm;Hibbing Chisolm;Hibbing Chisolm;US;HIB;0;47.3886;-92.8386
HID;Horn Island;Horn Island;Horn Island;AU;HID;0;-10.5833;142.283
HII;Lake Havasu City M;Lake Havasu City Airport;Lake Havasu City M;US;HII;0;34.5683;-114.355
HIJ;Хиросима;Hiroshima;Хіросіма;JP;HIJ;0;34.4328;132.925
HIN;Sacheon;Sacheon;Sacheon;KR;HIN;0;35.0881;128.078
HIR;Henderson;Henderson;Henderson;SB;HIR;0;-9.42528;160.046
HJR;Khajuraho;Khajuraho;Khajuraho;IN;HJR;0;24.8242;79.9228
HKB;Healy Lake;Healy Lake;Healy Lake;US;HKB;0;63.8667;-148.967
HKD;Hakodate;Hakodate;Hakodate;JP;HKD;0;41.7689;140.82
HKG;Гонконг;Hong Kong;Гонконг;CN;HKG;48;22.3167;113.917
HKK;Hokitika;Hokitika;Hokitika;NZ;HKK;0;-42.7161;170.987
HKN;Hoskins;Hoskins;Hoskins;PG;HKN;0;-5.47528;150.417
HKT;Пхукет;Phuket Intl;Пхукет;TH;HKT;9;8.11056;98.3125
HLA;Lanseria;Lanseria;Lanseria;ZA;HLA;0;-26.0833;27.5833
HLD;Хайлер;Hailer;Хайлер;CN;HLD;0;49.2;119.7
HLN;Helena;Helena;Helena;US;HLN;0;46.6067;-111.982
HLZ;Hamilton;Hamilton;Hamilton;NZ;HLZ;0;-37.8611;175.333
HMA;Ханты-Мансийск;Khanty Mansiysk;Ханти-Мансійськ;RU;HMA;0;61.0186;69.0839
HME;Вед Ирара;Oued Irara;Вед Ірара;DZ;HME;0;31.6739;6.14278
HMO;Gen Ignacio Pesqueira Garcia;Gen Ignacio Pesqueira Garcia;Gen Ignacio Pesqueira Garcia;MX;HMO;3;29.0964;-111.046
HMV;Хемаван;Hemavan Flyg;Хемаван;SE;HMV;0;65.7278;15.2731
HNA;Hanamaki;Hanamaki;Hanamaki;JP;HNA;0;39.7333;141.117
HND;Haneda;Haneda;Haneda;JP;TYO;0;35.5536;139.766
HNH;Hoonah;Hoonah;Hoonah;US;HNH;0;58.0981;-135.403
HNL;Гонолулу;Honolulu;Гонолулу;US;HNL;21;21.3258;-157.922
HNM;Hana;Hana;Hana;US;HNM;0;20.7958;-156.019
HNS;Haines;Haines;Haines;US;HNS;0;59.2458;-135.519
HOB;Lea окр.;Lea County;Лєа окр.;US;HOB;0;32.6886;-103.217
HOD;HODEIDAH Arpt;Hodeidah;HODEIDAH Arpt;YE;HOD;0;14.7472;42.9828
HOF;Alahsa;Alahsa;Alahsa;SA;HOF;0;25.5;49.8333
HOG;Frank Pias;Frank Pias;Frank Pias;CU;HOG;2;20.7853;-76.315
HOM;Homer;Homer;Homer;US;HOM;0;59.6453;-151.476
HON;Huron;Huron;Huron;US;HON;0;44.3836;-98.2264
HOP;Hopkinsville Christian Country;Hopkinsville Christian Country;Hopkinsville Christian Country;US;HOP;0;36.8667;-87.4833
HOQ;Hof Pirk;Hof Pirk;Hof Pirk;DE;HOQ;0;50.2892;11.8622
HOR;Horta;Horta;Horta;PT;HOR;0;38.52;-28.7172
HOU;Houston Hobby;Houston Hobby;Houston Hobby;US;HOU;61;29.645;-95.2786
HOV;Hovden;Hovden;Hovden;NO;HOV;0;62.1833;6.15
HPA;Salote Pilolevu;Salote Pilolevu;Salote Pilolevu;TO;HPA;0;-19.8167;-174.333
HPH;Catbi;Catbi;Catbi;VN;HPH;0;20.8167;106.567
HPN;Westchester окр.;Westchester County;Westchester окр.;US;HPN;0;41.0689;-73.7078
HRB;Харбин;Harbin;Харбін;CN;HRB;0;45.75;126.667
HRE;Хараре;Harare;Хараре;ZW;HRE;0;-17.9228;31.1014
HRG;Хургада;Hurghada;Хургада;EG;HRG;26;27.2;33.8667
HRK;Харьков;Kharkov;Харків;UA;HRK;5;49.9333;36.2833
HRL;Rio Grande Valley;Rio Grande Valley;Rio Grande Valley;US;HRL;0;26.2333;-97.65
HRO;Boone окр.;Boone County;Бооне окр.;US;HRO;0;36.2617;-93.1556
HSG;Saga;Saga;Saga;JP;HSG;0;33.1464;130.304
HSL;Huslia;Huslia;Huslia;US;HSL;0;65.7025;-156.375
HSN;Чжоушань;Zhoushan;Чжоушань;CN;HSN;0;28.0833;122.367
HSV;Huntsville;Huntsville;Huntsville;US;HSV;0;34.6428;-86.7756
HTA;Чита;Chita;Чіта;RU;HTA;3;52.0333;113.3
HTI;Hamilton Island;Hamilton Island;Hamilton Island;AU;HTI;0;-20.35;148.967
HTS;Tri State Milton;Tri State Milton;Tri State Milton;US;HTS;0;38.3669;-82.5561
HUH;Huahine;Huahine;Huahine;PF;HUH;0;-16.7167;-151.05
HUI;Phu Bai;Phu Bai;Phu Bai;VN;HUI;0;16.3992;107.703
HUN;Hualien;Hualien;Hualien;TW;HUN;1;24.0222;121.613
HUS;Hughes;Hughes;Hughes;US;HUS;0;66.0406;-154.263
HUX;Bahia De Huatulco;Bahia De Huatulco;Bahia De Huatulco;MX;HUX;0;15.7683;-96.2356
HUY;Humberside;Humberside;Humberside;GB;HUY;2;53.5833;-0.35
HVB;Hervey Bay;Hervey Bay;Hervey Bay;AU;HVB;0;-25;153
HVG;Valan;Valan;Valan;NO;HVG;0;70.9833;25.8333
HVN;Tweed New Haven;Tweed New Haven;Tweed New Haven;US;HVN;0;41.2653;-72.8883
HVR;Город и округ;City County;Місто і округ;US;HVR;0;48.5444;-109.761
HYA;Barnstable окр.;Barnstable Cty;Barnstable окр.;US;HYA;0;41.6658;-70.2806
HYD;Begumpet;Begumpet;Begumpet;IN;HYD;0;17.25;78.4167
HYN;Huangyan;Huangyan;Huangyan;CN;HYN;0;28.4167;122.367
HYS;Hays;Hays;Hays;US;HYS;0;38.8461;-99.2742
IAD;Вашингтон Даллес;Washington Dulles;Вашингтон Даллес;US;WAS;17;38.95;-77.45
IAG;Niagara Falls;Niagara Falls;Niagara Falls;US;IAG;0;43.1;-78.95
IAH;George Bush Intercontinental;George Bush Intercontinental;George Bush Intercontinental;US;HOU;1;29.9833;-95.34
IAS;Iasi;Iasi;Iasi;RO;IAS;0;47.1833;27.6
IBZ;Ибица;Ibiza;Ібіца;ES;IBZ;8;38.8736;1.37278
ICN;Incheon;Incheon;Incheon;KR;SEL;0;37.425;126.375
ICT;Mid Continent;Mid Continent;Mid Continent;US;ICT;0;37.6525;-97.4283
IDA;Fanning Field;Fanning Field;Fanning Field;US;IDA;0;43.5161;-112.065
IDR;Indore;Indore;Indore;IN;IDR;0;22.7231;75.8056
IEV;Жуляны;Zhulhany;Жуляни;UA;IEV;489;50.4019;30.4508
IFJ;Исафьордур;Isafjordur;Ісафьордур;IS;IFJ;0;66.0597;-23.1328
IFN;Исфахан;Isfahan;Ісфахан;IR;IFN;0;32.75;51.85
IFO;Ивано-Франковск;Ivano Frankovsk;Івано-Франківськ;UA;IFO;0;48.8833;24.6833
IFP;Laughlin Bullhead;Laughlin Bullhead;Laughlin Bullhead;US;IFP;0;35.1833;-114.583
IGM;Mohave окр.;Mohave County;Мохаве окр.;US;IGM;0;35.2567;-113.94
IGR;Iguazu;Iguazu;Iguazu;AR;IGR;0;-25.7417;-54.4658
IGU;Cataratas;Cataratas;Cataratas;BR;IGU;0;-25.6;-54.4833
IKA;Имам Хомейни;Imam Khomeini;Імам Хомейні;IR;THR;0;35.4097;51.1508
IKT;Иркутск;Irkutsk;Іркутськ;RU;IKT;9;52.2667;104.417
ILG;Greater Wilmington New Castle;Greater Wilmington New Castle;Greater Wilmington New Castle;US;ILG;0;39.6783;-75.6075
ILM;New Hanover окр.;New Hanover Cty;New Hanover окр.;US;ILM;0;34.2669;-77.9039
ILO;Mandurriao;Mandurriao;Mandurriao;PH;ILO;0;10.7144;122.544
ILP;Ile Des Pins;Ile Des Pins;Ile Des Pins;NC;ILP;0;-22.5897;167.447
ILY;Islay;Islay;Islay;GB;ILY;0;55.6819;-6.25417
ILZ;Zilina Arpt;Zilina;Zilina Arpt;SK;ILZ;0;49.2333;18.7667
IMP;Imperatriz;Imperatriz;Imperatriz;BR;IMP;0;-5.53194;-47.4806
IMT;Ford;Ford;Ford;US;IMT;0;45.8156;-88.1142
INC;Инчуань;Yinchuan;Інчуань;CN;INC;0;38.35;106.35
IND;Индианаполис;Indianapolis;Індіанаполіс;US;IND;1;39.7289;-86.2817
INI;Ниш;Nis;Ніш;RS;INI;0;43.3339;21.8517
INL;Falls;Intl Falls;Falls;US;INL;0;48.5631;-93.4042
INN;Kranebitten;Kranebitten;Kranebitten;AT;INN;5;47.2608;11.3472
INT;Smith Reynolds;Smith Reynolds;Smith Reynolds;US;INT;0;36.1353;-80.2256
INU;Науру;Nauru;Науру;NR;INU;0;-0.533333;166.917
INV;Inverness;Inverness;Inverness;GB;INV;0;57.5425;-4.04833
IOA;Ioannina;Ioannina;Ioannina;GR;IOA;0;39.6967;20.8258
IOM;Ronaldsway;Ronaldsway;Ronaldsway;GB;IOM;0;54.0825;-4.62778
IOS;Eduardo Gomes;Eduardo Gomes;Eduardo Gomes;BR;IOS;0;-14.8139;-39.03
IPC;Mataveri;Mataveri;Mataveri;CL;IPC;6;-27.1167;-109.367
IPI;San Luis;San Luis;San Luis;CO;IPI;0;0.866389;-77.7117
IPL;Imperial окр.;Imperial County;Імперіал окр.;US;IPL;0;32.8372;-115.575
IPT;Williamsport Lycoming;Williamsport Lycoming;Williamsport Lycoming;US;IPT;0;41.2422;-76.9206
IQQ;Cavancha Chucumata;Cavancha Chucumata;Cavancha Chucumata;CL;IQQ;0;-20.2167;-70.15
IQT;C F Secada;C F Secada;C F Secada;PE;IQT;0;-3.75;-73.2
IRJ;La Rioja;La Rioja;La Rioja;AR;IRJ;0;-29.3833;-66.7833
ISA;Mount Isa;Mount Isa;Mount Isa;AU;ISA;0;-20.6558;139.479
ISB;Исламабад;Islamabad;Ісламабад;PK;ISB;2;33.6139;73.1042
ISC;St Marys;St Marys;St Marys;GB;ISC;0;49.9;-6.4
ISG;Ishigaki;Ishigaki;Ishigaki;JP;ISG;0;24.3369;124.169
ISM;Kissimmee;Kissimmee;Kissimmee;US;ISM;0;28.45;-81.3333
ISN;Sloulin Field;Sloulin Field;Sloulin Field;US;ISN;0;48.1761;-103.636
ISP;Long Island Macarthur;Long Island Macarthur;Long Island Macarthur;US;ISP;0;40.9024;-73.1021
IST;Ататюрк;Ataturk;Ататюрк;TR;IST;247;40.9767;28.8153
ITH;Tomkins окр.;Tomkins County;Tomkins окр.;US;ITH;0;42.4903;-76.4581
ITM;Itami;Itami;Itami;JP;OSA;0;34.7817;135.442
ITO;Hilo Hawaii;Hilo Hawaii;Hilo Hawaii;US;ITO;2;19.7236;-155.058
IUE;Hanan;Hanan;Hanan;NU;IUE;0;-19.0833;-169.933
IVC;Invercargill;Invercargill;Invercargill;NZ;IVC;0;-46.4125;168.321
IVL;Ивало;Ivalo;Івало;FI;IVL;0;68.6111;27.4156
IVR;Inverell;Inverell;Inverell;AU;IVR;0;-29.89;151.145
IWA;Иваново;Ivanovo;Иваново;RU;IWA;0;57;41
IWD;Ironwood;Ironwood;Ironwood;US;IWD;0;46.5256;-90.1317
IWJ;Iwami;Iwami;Iwami;JP;IWJ;0;34.6731;131.793
IXB;Bagdogra;Bagdogra;Bagdogra;IN;IXB;1;26.6833;88.3333
IXC;Chandigarh;Chandigarh;Chandigarh;IN;IXC;0;30.6719;76.7906
IXD;Bamrauli;Bamrauli;Bamrauli;IN;IXD;0;25.4397;81.7361
IXE;Bajpe;Bajpe;Bajpe;IN;IXE;0;12.9639;74.8939
IXI;Lilabari;Lilabari;Lilabari;IN;IXI;0;27.2903;94.0889
IXJ;Satwari;Satwari;Satwari;IN;IXJ;0;32.6903;74.8389
IXL;Leh;Leh;Leh;IN;IXL;6;34.1667;77.5833
IXM;Madurai;Madurai;Madurai;IN;IXM;1;9.8325;78.0881
IXR;Ранчи;Ranchi;Ранчі;IN;IXR;0;23.3144;85.3236
IXU;Chikkalthana;Chikkalthana;Chikkalthana;IN;IXU;0;19.8636;75.4011
IXZ;Port Blair;Port Blair;Port Blair;IN;IXZ;0;11.6483;92.7436
IYK;Kern окр.;Kern Cty;Керн окр.;US;IYK;0;35.6567;-117.829
IZO;Izumo;Izumo;Izumo;JP;IZO;0;35.4094;132.889
JAC;Jackson Hole;Jackson Hole;Jackson Hole;US;JAC;0;43.6067;-110.737
JAI;Sanganeer;Sanganeer;Sanganeer;IN;JAI;1;26.8217;75.8061
JAL;Jalapa;Jalapa;Jalapa;MX;JAL;0;19.4722;-96.7819
JAN;Jackson Evers;Jackson Evers;Jackson Evers;US;JAN;0;32.4118;-90.1589
JAV;Ilulissat;Ilulissat;Ilulissat;GL;JAV;0;69.2344;-51.0511
JAX;Джексонвилль;Jacksonville;Джексонвілль;US;JAX;0;30.4925;-81.6897
JCK;Julia Creek;Julia Creek;Julia Creek;AU;JCK;0;-20.5833;141.7
JDF;Francisco De Assis;Francisco De Assis;Francisco De Assis;BR;JDF;0;-21.75;-43.3333
JDH;Йодпур;Jodhpur;Йодпур;IN;JDH;0;26.2606;73.0478
JDO;Do Cariri региональный;Regional Do Cariri;Do Cariri региональный;BR;JDO;0;-7.2;-39.3167
JDZ;Jingdezhen;Jingdezhen;Jingdezhen;CN;JDZ;0;29.2667;117.183
JED;Jeddah;Jeddah;Jeddah;SA;JED;2;21.6833;39.15
JEG;Aasiaat;Aasiaat;Aasiaat;GL;JEG;0;68.7;-52.75
JER;States;States;States;GB;JER;0;49.2111;-2.21667
JFK;Джон Ф. Кеннеди;John F Kennedy;Джон Ф. Кеннеді;US;NYC;520;40.6386;-73.7769
JGA;Govardhanpur;Govardhanpur;Govardhanpur;IN;JGA;0;22.4633;70.0119
JGN;Jiayuguan;Jiayuguan;Jiayuguan;CN;JGN;0;39.8333;98.4167
JHB;Sultan Ismail;Sultan Ismail;Sultan Ismail;MY;JHB;0;1.63889;103.671
JHG;Jinghong;Jinghong;Jinghong;CN;JHG;0;22.0167;100.8
JHM;Kapalua;Kapalua;Kapalua;US;JHM;0;20.9647;-156.677
JHS;Sisimiut;Sisimiut;Sisimiut;GL;JHS;0;66.9369;-53.7042
JHW;Chautauqua окр.;Chautauqua Cty;Chautauqua окр.;US;JHW;0;42.1506;-79.2581
JIB;Ambouli;Ambouli;Ambouli;DJ;JIB;0;11.5467;43.1589
JIK;Ikaria;Ikaria;Ikaria;GR;JIK;0;37.6667;26.3333
JIM;Jimma;Jimma;Jimma;ET;JIM;0;7.65444;36.8211
JIU;Jiujiang;Jiujiang;Jiujiang;CN;JIU;0;29.7;115.967
JJN;Jinjiang;Jinjiang;Jinjiang;CN;JJN;0;24.8833;118.6
JJU;Qaqortoq;Qaqortoq;Qaqortoq;GL;JJU;0;60.7167;-46.0333
JKG;Axamo;Axamo;Axamo;SE;JKG;0;57.7586;14.0719
JKH;Chios;Chios;Chios;GR;JKH;3;38.345;26.1417
JLN;Joplin;Joplin;Joplin;US;JLN;0;37.1497;-94.4978
JMK;Mykonos Greece;Mykonos Greece;Mykonos Greece;GR;JMK;2;37.4361;25.3444
JMS;Jamestown;Jamestown;Jamestown;US;JMS;0;46.93;-98.6783
JNB;О. Р. Тамбо;O R Tambo;О. Р. Тамбо;ZA;JNB;0;-26.1333;28.25
JNN;Nanortalik;Nanortalik;Nanortalik;GL;JNN;0;60.1342;-45.2336
JNS;Narsaq г/п;Narsaq Heleport;Narsaq г/п;GL;JNS;0;60.9167;-46.05
JNU;Juneau;Juneau;Juneau;US;JNU;0;58.3556;-134.575
JNX;Наксос;Naxos;Наксос;GR;JNX;0;37.1;25.3833
JNZ;Jinzhou;Jinzhou;Jinzhou;CN;JNZ;0;41.1167;121.017
JOE;Joensuu;Joensuu;Joensuu;FI;JOE;0;62.6625;29.6089
JOG;Adisutjipto;Adisutjipto;Adisutjipto;ID;JOG;0;-7.78972;110.431
JOI;Cubatao;Cubatao;Cubatao;BR;JOI;0;-26.2333;-48.7833
JPA;Castro Pinto;Castro Pinto;Castro Pinto;BR;JPA;0;-7.14639;-34.9519
JPR;Ji Parana;Ji Parana;Ji Parana;BR;JPR;0;-8.05;-62.8667
JQA;Qaarsut;Qaarsut;Qaarsut;GL;JQA;0;70.7319;-52.7028
JRO;Килиманджаро;Kilimanjaro;Кіліманджаро;TZ;JRO;0;-3.43333;37.0667
JSI;Skiathos;Skiathos;Skiathos;GR;JSI;0;39.1806;23.5056
JST;Johnstown Cambria;Johnstown Cambria;Johnstown Cambria;US;JST;0;40.3167;-78.8344
JSU;Maniitsoq г/п;Maniitsoq Heleport;Maniitsoq г/п;GL;JSU;0;65.4167;-52.9
JSY;Syros Island;Syros Island;Syros Island;GR;JSY;0;37.4236;24.95
JSZ;Сен-Тропез;St Tropez Hlpt;Сен-Тропез;FR;LTT;0;0;0
JTR;Santorini;Santorini;Santorini;GR;JTR;0;36.4;25.4833
JTY;Astypalaia;Astypalaia;Astypalaia;GR;JTY;1;36.5667;26.3667
JUJ;El Cadillal;El Cadillal;El Cadillal;AR;JUJ;0;-24.4;-65.0833
JUL;Juliaca;Juliaca;Juliaca;PE;JUL;0;-15.4642;-70.1544
JWN;Zanjan;Zanjan;Zanjan;IR;JWN;0;36.7747;48.3592
JYV;Ювяскюля;Jyvaskyla;Ювяскюля;FI;JYV;0;62.3992;25.6819
JZH;Jiu Zhai Huang Long;Jiu Zhai Huang Long;Jiu Zhai Huang Long;CN;JZH;0;32.8567;103.683
KAE;Kake;Kake;Kake;US;KAE;0;56.9667;-133.95
KAJ;Kajaani;Kajaani;Kajaani;FI;KAJ;0;64.2778;27.6889
KAN;Aminu Kano;Aminu Kano;Aminu Kano;NG;KAN;0;12.0464;8.52389
KAO;Kuusamo;Kuusamo;Kuusamo;FI;KAO;0;65.9903;29.2339
KAT;Kaitaia;Kaitaia;Kaitaia;NZ;KAT;0;-35.0694;173.283
KBL;Хвайя Раваш;Khwaja Rawash;Хвайя Раваш;AF;KBL;0;34.5639;69.2139
KBP;Борисполь;Borispol;Бориспіль;UA;IEV;216;50.35;30.9167
KBR;Pengkalan Chepa;Pengkalan Chepa;Pengkalan Chepa;MY;KBR;2;6.16528;102.294
KBV;Krabi;Krabi;Krabi;TH;KBV;0;8.10117;98.9826
KCH;Kuching;Kuching;Kuching;MY;KCH;0;1.48417;110.341
KCZ;Kochi;Kochi;Kochi;JP;KCZ;0;33.5411;133.677
KEF;Рейкъявик-Кефлавик;Reykjavik Keflavik;Рейк'явік-Кефлавік;IS;REK;16;63.985;-22.6061
KEJ;Кемерово;Kemerovo;Кемерово;RU;KEJ;9;55.3333;86.0833
KEM;Kemi Tornio;Kemi Tornio;Kemi Tornio;FI;KEM;0;65.78;24.5858
KER;Kerman;Kerman;Kerman;IR;KER;0;30.2633;56.9575
KGC;Kingscote;Kingscote;Kingscote;AU;KGC;0;-35;137.167
KGD;Калининград;Kaliningrad;Калінінград;RU;KGD;43;54.7167;20.5
KGF;Караганда;Karaganda;Караганда;KZ;KGF;4;49.8333;73.1667
KGI;Kalgoorlie;Kalgoorlie;Kalgoorlie;AU;KGI;0;-30.7667;121.467
KGL;Kayibanda;Kayibanda;Kayibanda;RW;KGL;0;-1.96778;30.14
KGS;Kos;Kos;Kos;GR;KGS;0;36.7931;27.0953
KHH;Kaohsiung;Kaohsiung;Kaohsiung;TW;KHH;0;22.5725;120.345
KHI;Quaid E Azam;Quaid E Azam;Quaid E Azam;PK;KHI;2;24.9056;67.1569
KHN;Nanchang;Nanchang;Nanchang;CN;KHN;0;28.6833;115.883
KHV;Новый;Novyy;Новий;RU;KHV;3;48.5167;135.183
KID;Кристианстад;Kristianstad;Крістіанстад;SE;KID;0;55.9194;14.0889
KIJ;Ниигата;Niigata;Ніігата;JP;KIJ;0;37.9533;139.123
KIM;Кимберли;Kimberley;Кімберлі;ZA;KIM;0;-28.8058;24.7664
KIN;Norman Manly;Norman Manly;Norman Manly;JM;KIN;9;17.95;-76.7333
KIR;Керри окр.;Kerry County;Керрі окр.;IE;KIR;0;52.05;-9.5
KIS;Кисуму;Kisumu;Кісуму;KE;KIS;0;-0.085556;34.7286
KIT;Kithira;Kithira;Kithira;GR;KIT;0;36.2917;23.025
KIV;Кишинэу;Chisinau;Кишинеу;MD;KIV;220;46.9167;28.9333
KIX;Kansai;Kansai;Kansai;JP;OSA;0;34.4239;135.247
KJA;Красноярск;Krasnojarsk;Красноярськ;RU;KJA;5;56.0167;92.8333
KKC;Khon Kaen;Khon Kaen;Khon Kaen;TH;KKC;0;16.465;102.787
KKE;Kerikeri;Kerikeri;Kerikeri;NZ;KKE;0;-35.2167;173.95
KKJ;Kokura;Kokura;Kokura;JP;KKJ;0;33.8331;130.949
KKN;Hoeybuktmoen;Hoeybuktmoen;Hoeybuktmoen;NO;KKN;0;69.7228;29.8933
KLG;Kalskag;Kalskag;Kalskag;US;KLG;0;61.5383;-160.324
KLO;Kalibo;Kalibo;Kalibo;PH;KLO;1;11.6828;122.377
KLR;Kalmar;Kalmar;Kalmar;SE;KLR;0;56.685;16.2872
KLU;Klagenfurt;Klagenfurt;Klagenfurt;AT;KLU;0;46.6431;14.3417
KLV;Карловы Вары;Karlovy Vary;Карлови Вари;CZ;KLV;27;50.2;12.9167
KLW;Klawock;Klawock;Klawock;US;KLW;0;55.555;-133.1
KLX;Kalamata;Kalamata;Kalamata;GR;KLX;0;37.0694;22.0278
KMC;King Khalid военный;King Khalid Military;King Khalid военный;SA;KMC;0;27.9003;45.5186
KMG;Kunming;Kunming;Kunming;CN;KMG;0;25.0167;102.683
KMI;Miyazaki;Miyazaki;Miyazaki;JP;KMI;0;31.8744;131.444
KMJ;Кумамото;Kumamoto;Кумамото;JP;KMJ;0;32.8319;130.852
KMQ;Комацу;Komatsu;Комацу;JP;KMQ;0;36.3939;136.417
KNH;Shang Yi;Shang Yi;Shang Yi;TW;KNH;0;24.4206;118.344
KNS;King Island;King Island;King Island;AU;KNS;0;-39.8833;143.883
KNX;Kununurra;Kununurra;Kununurra;AU;KNX;0;-15.785;128.708
KOA;Keahole;Keahole;Keahole;US;KOA;0;19.7333;-156.05
KOC;Koumac;Koumac;Koumac;NC;KOC;0;-20.5;164.417
KOI;Kirkwall;Kirkwall;Kirkwall;GB;KOI;0;58.9586;-2.96667
KOJ;Кагосима;Kagoshima;Кагосіма;JP;KOJ;0;31.8019;130.72
KOK;Коккола;Kokkola;Коккола;FI;KOK;0;63.7167;23.15
KOP;Nakhon Phanom;Nakhon Phanom;Nakhon Phanom;TH;KOP;0;17.4;104.75
KOW;Ganzhou;Ganzhou;Ganzhou;CN;KOW;0;25.9;114.917
KPO;Pohang;Pohang;Pohang;KR;KPO;0;35.9861;129.42
KRF;Kramfors;Kramfors;Kramfors;SE;KRF;0;63.0494;17.7728
KRK;John Paul 11 Balice;John Paul 11 Balice;John Paul 11 Balice;PL;KRK;2;50.1773;19.7984
KRN;Кируна;Kiruna;Кіруна;SE;KRN;0;67.8222;20.3458
KRP;Karup;Karup;Karup;DK;KRP;0;56.3;9.11667
KRR;Краснодар;Krasnodar;Краснодар;RU;KRR;26;45.0667;38.9167
KRS;Kjevik;Kjevik;Kjevik;NO;KRS;0;58.2031;8.08417
KRT;Гражданский;Civil;цивільний;SD;KRT;0;15.5994;32.5561
KSC;Barca;Barca;Barca;SK;KSC;0;48.6667;21.25
KSD;Karlstad;Karlstad;Karlstad;SE;KSD;0;59.3617;13.4694
KSH;Kermanshah;Kermanshah;Kermanshah;IR;KSH;0;34.35;47.15
KSN;Костанай;Kostanay;Костанай;KZ;KSN;0;53.2;63.55
KSO;Aristoteles;Aristoteles;Aristoteles;GR;KSO;0;40.4508;21.2733
KSU;Kvernberget;Kvernberget;Kvernberget;NO;KSU;0;63.1147;7.84444
KSY;Карс;Kars;Карс;TR;KSY;0;40.5517;43.0858
KTA;Karratha;Karratha;Karratha;AU;KTA;0;-20.71;116.767
KTE;Kertech;Kertech;Kertech;MY;KTE;0;4.53833;103.428
KTM;Tribuvan;Tribuvan;Tribuvan;NP;KTM;4;27.7006;85.3631
KTN;Ketchikan;Ketchikan;Ketchikan;US;KTN;0;55.35;-131.583
KTS;Brevig Mission;Brevig Mission;Brevig Mission;US;KTS;0;65.3294;-166.472
KTT;Kittila;Kittila;Kittila;FI;KTT;6;67.6667;24.9
KTW;Pyrzowice;Pyrzowice;Pyrzowice;PL;KTW;0;50.4833;19.0833
KUA;Kuantan;Kuantan;Kuantan;MY;KUA;0;3.77222;103.21
KUB;Kuala Belait;Kuala Belait;Kuala Belait;BN;KUB;0;0;0
KUF;Самара;Samara;Самара;RU;KUF;76;53.5;50.15
KUH;Kushiro;Kushiro;Kushiro;JP;KUH;0;43.0397;144.204
KUL;Куала-Лумпур;Kuala Lumpur;Куала-Лумпур;MY;KUL;17;2.74333;101.693
KUN;Каунас;Kaunas;Каунас;LT;KUN;2;54.9;23.9167
KUO;Куопио;Kuopio;Куопио;FI;KUO;0;63.0056;27.7983
KUS;Kulusuk;Kulusuk;Kulusuk;GL;KUS;0;65.5667;-37.1167
KUU;Бхунтар;Bhuntar;Бхунтар;IN;KUU;0;31.9833;77.1
KUV;Kunsan;Kunsan;Kunsan;KR;KUV;0;35.9833;126.75
KVA;Megas Alexandros;Megas Alexandros;Megas Alexandros;GR;KVA;0;40.9728;24.3419
KVB;Skovde;Skovde;Skovde;SE;KVB;0;58.45;13.9667
KVG;Kavieng;Kavieng;Kavieng;PG;KVG;0;-2.57778;150.816
KWA;Kwajalein;Kwajalein;Kwajalein;MH;KWA;0;8.71667;167.733
KWE;Гуйян;Guiyang;Гуйян;CN;KWE;0;26.5833;106.717
KWI;Кувейт;Kuwait;Кувейт;KW;KWI;2;29.2303;47.9753
KWJ;Kwangju;Kwangju;Kwangju;KR;KWJ;0;35.1233;126.811
KWL;Гуйлинь;Guilin;Гуйлінь;CN;KWL;0;25.1333;110.317
KXK;Комсомольск-на-Амуре;Komsomolsk Na Amure;Комсомольськ-на-Амурі;RU;KXK;5;50.4;136.95
KYA;Конья;Konya;Кон'я;TR;KYA;0;37.9792;32.5622
KZN;Казань;Kazan;Казань;RU;KZN;22;55.7833;49.2167
KZO;Кзыл-Орда;Kzyl Orda;Кзил-Орда;KZ;KZO;0;44.8333;65.8333
KZS;Kastelorizo;Kastelorizo;Kastelorizo;GR;KZS;0;36.0833;29.3333
LAD;Four De Fevereiro;Four De Fevereiro;Four De Fevereiro;AO;LAD;0;-8.85306;13.2361
LAE;Nadzab;Nadzab;Nadzab;PG;LAE;0;-6.73722;146.995
LAI;Servel;Servel;Servel;FR;LAI;0;48.7542;-3.48194
LAL;Lakeland;Lakeland;Lakeland;US;LAL;0;27.9889;-82.0147
LAN;Лансинг;Lansing;Лансінг;US;LAN;0;42.7792;-84.5883
LAO;Лаоаг;Laoag;Лаоаг;PH;LAO;0;18.1836;120.53
LAP;Aeropuerto Gen Marquez De Leon;Aeropuerto Gen Marquez De Leon;Aeropuerto Gen Marquez De Leon;MX;LAP;0;24.1256;-110.298
LAR;General Brees Fld;General Brees Fld;General Brees Fld;US;LAR;0;41.3136;-105.673
LAS;McCarran;McCarran;McCarran;US;LAS;22;36.0801;-115.152
LAU;Lamu;Lamu;Lamu;KE;LAU;0;-2.25;40.9117
LAW;Lawton;Lawton;Lawton;US;LAW;0;34.5697;-98.4161
LAX;Лос-Анжелес;Los Angeles;Лос-Анжелес;US;LAX;141;33.9422;-118.407
LBA;Лидс Бредфорт;Leeds Bradford;Лідс Бредфорт;GB;LBA;0;53.8653;-1.65472
LBB;Lubbock Preston Smith;Lubbock Preston Smith;Lubbock Preston Smith;US;LBB;0;33.6622;-101.823
LBC;Blankensee;Blankensee;Blankensee;DE;LBC;0;53.8061;10.7206
LBE;Westmorland окр.;Westmorland County;Westmorland окр.;US;LBE;0;40.2764;-79.4028
LBF;Lee Bird Field;Lee Bird Field;Lee Bird Field;US;LBF;0;41.1283;-100.697
LBG;Ле Бурже;Le Bourget;Лє Бурже;FR;PAR;0;48.9719;2.4425
LBL;Liberal;Liberal;Liberal;US;LBL;0;37.0444;-100.961
LBS;Labasa;Labasa;Labasa;FJ;LBS;0;-16.4647;179.341
LBU;Labuan;Labuan;Labuan;MY;LBU;0;5.30056;115.248
LBV;Libreville;Libreville;Libreville;GA;LBV;0;0.459167;9.41528
LCA;Ларнака;Larnaca;Ларнака;CY;LCA;143;34.8778;33.6306
LCE;Goloson;Goloson;Goloson;HN;LCE;0;15.7406;-86.8572
LCG;Ла Корунья;La Coruna;Ла Корун'я;ES;LCG;0;43.2994;-8.37917
LCH;Lake Charles;Lake Charles;Lake Charles;US;LCH;0;30.1311;-93.2256
LCJ;Лодзь-Люблинек;Lodz Lublinek;Лодзь-Люблінек;PL;LCJ;0;51.7219;19.3983
LCK;Rickenbacker;Rickenbacker;Rickenbacker;US;CMH;0;39.8167;-82.9333
LCY;London City;London City;London City;GB;LON;1186;51.5;0.05
LDB;Londrina;Londrina;Londrina;BR;LDB;0;-23.3319;-51.1319
LDE;Tarbes;Tarbes;Tarbes;FR;LDE;0;43.1819;-0.003611
LDH;Lord Howe Island;Lord Howe Island;Lord Howe Island;AU;LDH;0;-31.5375;159.08
LDY;Eglinton;Eglinton;Eglinton;GB;LDY;88;55.0433;-7.15333
LEA;Learmonth;Learmonth;Learmonth;AU;LEA;0;-22.235;114.082
LEB;Ливан региональный;Lebanon Regional;Ліван регіональний;US;LEB;0;43.6281;-72.3058
LED;Пулково;Pulkovo;Пулково;RU;LED;409;59.8;30.3
LEH;Octeville;Octeville;Octeville;FR;LEH;2;49.5389;0.088611
LEI;Almeria;Almeria;Almeria;ES;LEI;2;36.8444;-2.37222
LEJ;Лейпциг;Leipzig;Лейпциг;DE;LEJ;0;51.4167;12.2333
LEN;Леон;Leon;Лєон;ES;LEN;0;42.5844;-5.65083
LER;Leinster;Leinster;Leinster;AU;LER;0;-27.8333;120.617
LET;General A V Cobo;General A V Cobo;General A V Cobo;CO;LET;0;-4.19639;-69.9394
LEX;Blue Grass Field;Blue Grass Field;Blue Grass Field;US;LEX;0;38.0397;-84.6022
LFT;Лафайетт;Lafayette;Лафайєтт;US;LFT;0;30.2047;-91.9875
LFW;Lome;Lome;Lome;TG;LFW;0;6.1625;1.25417
LGA;Ла Гвардиа;La Guardia;Ла Гвардіа;US;NYC;0;40.7794;-73.8758
LGB;Long Beach;Long Beach;Long Beach;US;LGB;0;33.8175;-118.151
LGG;Bierset;Bierset;Bierset;BE;LGG;0;50.6361;5.44167
LGI;Deadmans Cay;Deadmans Cay;Deadmans Cay;BS;LGI;0;23.1794;-75.0905
LGK;Langkawi;Langkawi;Langkawi;MY;LGK;0;6.33333;99.7333
LGP;Legaspi;Legaspi;Legaspi;PH;LGP;0;13.1569;123.73
LGW;Гатвик;Gatwick;Гатвік;GB;LON;89;51.1481;-0.196667
LHE;Лахор;Lahore;Лахор;PK;LHE;2;31.5208;74.4028
LHR;Хитроу;Heathrow;Хітроу;GB;LON;229;51.4714;-0.452778
LHT;;;;HU;   ;0;0;0
LHW;Lanzhou;Lanzhou;Lanzhou;CN;LHW;0;36.0333;103.867
LIF;Lifou;Lifou;Lifou;NC;LIF;0;-20.7667;167.25
LIG;Bellegarde;Bellegarde;Bellegarde;FR;LIG;0;45.8619;1.18222
LIH;Lihue;Lihue;Lihue;US;LIH;0;21.9792;-159.346
LIL;Lesquin;Lesquin;Lesquin;FR;LIL;0;50.5644;3.08806
LIM;Jorge Chavez;Jorge Chavez;Jorge Chavez;PE;LIM;25;-12.0267;-77.1228
LIN;Linate;Linate;Linate;IT;MIL;0;45.4417;9.27778
LIO;Limon;Limon;Limon;CR;LIO;0;9.95583;-83.0211
LIR;Либерия;Liberia;Ліберія;CR;LIR;0;10.5897;-85.55
LIS;Лиссабон;Lisboa;Ліссабон;PT;LIS;191;38.7819;-9.13333
LIT;Литтл-Рок региональный;Little Rock Regional;Літтл-Рок регіональний;US;LIT;0;34.7292;-92.2344
LJG;Lijiang;Lijiang;Lijiang;CN;LJG;0;26.6833;100.25
LJU;Brnik;Brnik;Brnik;SI;LJU;115;46.2247;14.4608
LKE;Lake Union база гидросамолетов;Lake Union Seaplane Base;Lake Union база гидросамолетов;US;SEA;0;47.6275;-122.332
LKG;Lokichoggio;Lokichoggio;Lokichoggio;KE;LKG;0;4.23333;34.35
LKL;Banak;Banak;Banak;NO;LKL;0;70.0678;24.9736
LKN;Leknes;Leknes;Leknes;NO;LKN;0;68.1536;13.6089
LKO;Амауси;Amausi;Амаусі;IN;LKO;0;26.7603;80.8803
LLA;Kallax;Kallax;Kallax;SE;LLA;0;65.5447;22.1278
LLF;Ling Ling;Ling Ling;Ling Ling;CN;LLF;0;26.7008;111.958
LLU;Alluitsup Paa;Alluitsup Paa;Alluitsup Paa;GL;LLU;0;60.4642;-45.5689
LLW;Lilongwe;Lilongwe;Lilongwe;MW;LLW;0;-13.7833;33.7833
LMM;Federal Los Mochis;Federal Los Mochis;Federal Los Mochis;MX;LMM;0;25.8167;-108.983
LMP;Lampedusa;Lampedusa;Lampedusa;IT;LMP;0;35.5;12.6167
LMT;Kingsley Field;Kingsley Field;Kingsley Field;US;LMT;0;42.1631;-121.736
LNK;Линкольн;Lincoln;Лінкольн;US;LNK;0;40.8458;-96.7614
LNO;Leonora;Leonora;Leonora;AU;LNO;0;-28.8833;121.3
LNV;Lihir Island;Lihir Island;Lihir Island;PG;LNV;0;-3.06667;152.617
LNY;Lanai;Lanai;Lanai;US;LNY;0;20.7847;-156.949
LNZ;Hoersching;Hoersching;Hoersching;AT;LNZ;0;48.2344;14.1936
LOP;Lombok International;Lombok International;Lombok International;ID;LOP;0;8.77399;116.27668
LOS;Murtala Muhammed;Murtala Muhammed;Murtala Muhammed;NG;LOS;0;6.58889;3.32639
LPA;De Gran Canaria;Aeropuerto De Gran Canaria;De Gran Canaria;ES;LPA;2;27.9325;-15.3847
LPB;El Alto;El Alto;El Alto;BO;LPB;0;-16.5069;-68.2014
LPI;Saab;Saab;Saab;SE;LPI;0;58.4;15.5167
LPL;Ливерпуль;Liverpool;Ліверпуль;GB;LPL;0;53.3383;-2.86667
LPP;Лаппенранта;Lappeenranta;Лаппенранта;FI;LPP;0;61.0461;28.1567
LPQ;Louangphrabang;Louangphrabang;Louangphrabang;LA;LPQ;0;19.8958;102.164
LPS;Lopez Island;Lopez Island;Lopez Island;US;LPS;0;48.4828;-122.936
LPT;Lampang;Lampang;Lampang;TH;LPT;0;18.2742;99.5072
LPX;Лиепая;Liepaya;Лієпая;LV;LPX;0;56.5167;21.1
LPY;Loudes;Loudes;Loudes;FR;LPY;0;45.0833;3.76667
LRD;Ларедо;Laredo;Ларедо;US;LRD;0;27.5447;-99.4611
LRE;Longreach;Longreach;Longreach;AU;LRE;0;-23.4372;144.276
LRH;Laleu;Laleu;Laleu;FR;LRH;0;46.1806;-1.18583
LRM;La Romana;La Romana;La Romana;DO;LRM;0;18.4167;-68.9
LRS;Leros;Leros;Leros;GR;LRS;0;37.5167;26.7833
LRT;Lann Bihoue;Lann Bihoue;Lann Bihoue;FR;LRT;0;47.7611;-3.43917
LSC;La Florida;La Florida;La Florida;CL;LSC;0;-29.9133;-71.1978
LSE;La Crosse;La Crosse;La Crosse;US;LSE;0;43.8772;-91.2564
LSI;Sumburgh;Sumburgh;Sumburgh;GB;LSI;0;59.8811;-1.29306
LSP;Josefa Camejo;Josefa Camejo;Josefa Camejo;VE;LSP;0;11.7211;-70.1889
LST;Launceston;Launceston;Launceston;AU;LST;0;-41.5458;147.21
LSY;Lismore;Lismore;Lismore;AU;LSY;0;-28.8333;153.267
LTK;Hmelmin;Hmelmin;Hmelmin;SY;LTK;0;35.5167;35.7833
LTN;Luton;Luton;Luton;GB;LTN;0;51.8833;-0.351667
LTO;Loreto;Loreto;Loreto;MX;LTO;0;25.9833;-111.35
LTX;Cotapaxi;Cotapaxi;Cotapaxi;EC;LTX;0;-0.901111;-78.6025
LUD;Luderitz;Luderitz;Luderitz;NA;LUD;0;-26.6864;15.2439
LUG;Agno;Agno;Agno;CH;LUG;2;46.0167;8.96667
LUK;Цинциннати;Cincinnati;Цінціннаті;US;CVG;0;39.0333;-84.6667
LUN;Лусака;Lusaka;Лусака;ZM;LUN;0;-15.3292;28.4528
LUP;Kalaupapa;Kalaupapa;Kalaupapa;US;LUP;0;21.2111;-156.974
LUQ;Сан-Луис окр.;San Luis Cty;Сан-Луїс окр.;AR;LUQ;0;-33.2744;-66.3586
LUX;Люксембург;Luxembourg;Люксембург;LU;LUX;103;49.6278;6.20667
LVI;Ливингстон;Livingstone;Лівінгстон;ZM;LVI;0;-17.8206;25.8222
LVO;Laverton;Laverton;Laverton;AU;LVO;0;-28.6333;122.367
LWB;Greenbrier Valley;Greenbrier Valley;Greenbrier Valley;US;LWB;0;37.8597;-80.3986
LWO;Снилов;Snilow;Снілов;UA;LWO;13;49.8167;23.85
LWS;Lewiston Nez Pierce;Lewiston Nez Pierce;Lewiston Nez Pierce;US;LWS;0;46.3747;-117.014
LWT;Lewistown;Lewistown;Lewistown;US;LWT;0;47.0511;-109.471
LXA;Лхаса;Lhasa;Лхаса;CN;LXA;4;29.6667;91.15
LXR;Луксор;Luxor;Луксор;EG;LXR;2;25.6731;32.7075
LXS;Лимнос;Limnos;Лімнос;GR;LXS;0;39.9167;25.25
LYA;Люоянг;Luoyang;Люоянг;CN;LYA;0;34.6833;112.467
LYB;Little Cayman;Little Cayman;Little Cayman;KY;LYB;0;19.6667;-80.0833
LYC;Hedlunda;Hedlunda;Hedlunda;SE;LYC;0;64.5333;18.7167
LYG;Lianyungang;Lianyungang;Lianyungang;CN;LYG;0;34.6667;119.183
LYH;Lynchburg;Lynchburg;Lynchburg;US;LYH;0;37.3269;-79.2011
LYI;Линьи;Linyi;Ліньї;CN;LYI;0;35.0667;118.367
LYR;Svalbard;Svalbard;Svalbard;NO;LYR;0;78.2089;15.8
LYS;Лион Сент-Экзюпери;Lyon Saint Exupery;Ліон Сент-Екзюпері;FR;LYS;19;45.7256;5.08167
LZC;Lazaro Cardenas;Lazaro Cardenas;Lazaro Cardenas;MX;LZC;0;18;-102.217
LZH;Лючжоу;Liuzhou;Лючжоу;CN;LZH;0;24.3667;109.533
LZO;Лучжоу;Luzhou;Лучжоу;CN;LZO;0;28.8833;105.35
MAA;Chennai;Chennai;Chennai;IN;MAA;0;12.9933;80.1769
MAB;Maraba;Maraba;Maraba;BR;MAB;0;-5.36667;-49.1667
MAD;Барахас;Barajas;Барахас;ES;MAD;957;40.4722;-3.56333
MAF;Midland;Midland;Midland;US;MAF;0;31.9408;-102.201
MAG;Madang;Madang;Madang;PG;MAG;1;-5.20917;145.782
MAH;De Menorca;Aerop De Menorca;De Menorca;ES;MAH;0;39.8614;4.21528
MAJ;Amata Kabua;Amata Kabua;Amata Kabua;MH;MAJ;0;7.06361;171.27
MAM;Servando Canales;Servando Canales;Servando Canales;MX;MAM;0;25.7703;-97.5236
MAN;Манчестер;Manchester;Манчестер;GB;MAN;80;53.3533;-2.27667
MAO;Эдуардо Гомес;Intl Eduardo Gomes;Эдуардо Гомес;BR;MAO;0;-3.03333;-60.05
MAR;La Chinita;La Chinita;La Chinita;VE;MAR;0;10.5667;-71.7333
MAS;Momote;Momote;Momote;PG;MAS;0;-2.05667;147.424
MAZ;Eugenio M De Hostos;Eugenio M De Hostos;Eugenio M De Hostos;US;MAZ;0;18.2578;-67.1489
MBA;Moi;Moi;Moi;KE;MBA;2;-4.03139;39.5931
MBD;Mmabatho;Mmabatho;Mmabatho;ZA;MBD;0;-25.8167;25.5
MBJ;Sangster;Sangster;Sangster;JM;MBJ;16;18.5019;-77.9125
MBL;Manistee;Manistee;Manistee;US;MBL;0;44.2739;-86.2533
MBS;Saginaw;Saginaw;Saginaw;US;MBS;0;43.5333;-84.0833
MCE;Merced;Merced;Merced;US;MCE;0;37.2847;-120.513
MCI;Канзас-Сити;Kansas City;Канзас-Сіті;US;MKC;0;39.2928;-94.7267
MCK;McCook;McCook;McCook;US;MCK;0;40.2639;-100.668
MCM;Hel De Monte Carlo;Hel De Monte Carlo;Hel De Monte Carlo;MC;MCM;4;43.7333;7.41667
MCN;Lewis B Wilson;Lewis B Wilson;Lewis B Wilson;US;MCN;0;32.6956;-83.6478
MCO;Орландо;Orlando;Орландо;US;ORL;0;28.4319;-81.3247
MCP;Macapa;Macapa;Macapa;BR;MCP;0;0.05;-51.0667
MCT;Seeb;Seeb;Seeb;OM;MCT;2;23.5917;58.2792
MCW;Mason City;Mason City;Mason City;US;MCW;0;43.1569;-93.3294
MCY;Maroochydore;Maroochydore;Maroochydore;AU;MCY;0;-26.6042;153.09
MCZ;Palmeres;Palmeres;Palmeres;BR;MCZ;0;-9.51528;-35.7958
MDC;Samratulang;Samratulang;Samratulang;ID;MDC;0;1.48333;124.85
MDE;Jose Marie Cordova;Jose Marie Cordova;Jose Marie Cordova;CO;MDE;0;6.22083;-75.5931
MDG;Mudanjiang;Mudanjiang;Mudanjiang;CN;MDG;0;44.5833;129.6
MDL;Annisaton;Annisaton;Annisaton;MM;MDL;0;21.9392;96.0914
MDQ;Mar Del Plata;Mar Del Plata;Mar Del Plata;AR;MDQ;0;-37.9347;-57.5722
MDT;Harrisburg;Harrisburg;Harrisburg;US;HAR;0;40.1931;-76.7622
MDU;Mendi;Mendi;Mendi;PG;MDU;0;-6.15861;143.65
MDW;Мидуэй;Midway;Мідуей;US;CHI;16;41.785;-87.7519
MDZ;El Plumerillo;El Plumerillo;El Plumerillo;AR;MDZ;0;-32.8319;-68.7847
MEC;Манта;Manta;Манта;EC;MEC;0;-0.95;-80.6833
MED;Prince Mohammad Bin Abdulaziz;Prince Mohammad Bin Abdulaziz;Prince Mohammad Bin Abdulaziz;SA;MED;0;24.545;39.7211
MEH;Mehamn;Mehamn;Mehamn;NO;MEH;0;71.0333;27.8333
MEI;Key Field;Key Field;Key Field;US;MEI;0;32.3372;-88.7492
MEL;Tullamarine;Tullamarine;Tullamarine;AU;MEL;10;-37.6617;144.833
MEM;Мемфис;Memphis;Мемфіс;US;MEM;16;35.0497;-89.9789
MES;Полония;Polonia;Полонія;ID;MES;0;3.56111;98.6728
MEX;Juarez;Juarez;Juarez;MX;MEX;27;19.4353;-99.0728
MFE;Miller;Miller;Miller;US;MFE;0;26.2583;-98.2861
MFK;Matsu;Matsu;Matsu;TW;MFK;0;26.1667;119.917
MFM;Макао;Macau;Макао;MO;MFM;1;22.2333;113.583
MFR;Medford Jackson окр.;Medford Jackson Cty;Medford Jackson окр.;US;MFR;0;42.3736;-122.872
MGA;Augusto C Sandino;Augusto C Sandino;Augusto C Sandino;NI;MGA;2;12.1411;-86.1686
MGB;Mount Gambier;Mount Gambier;Mount Gambier;AU;MGB;0;-37.7542;140.781
MGF;Maringa;Regional De Maringa;Maringa;BR;MGF;0;-23.3836;-51.9333
MGH;Margate;Margate;Margate;ZA;MGH;0;-30.9167;30.25
MGM;Dannelly Field;Dannelly Field;Dannelly Field;US;MGM;0;32.3;-86.3911
MGW;Morgantown;Morgantown;Morgantown;US;MGW;0;39.6428;-79.9158
MHD;Mashad;Mashad;Mashad;IR;MHD;0;36.2367;59.6417
MHG;Mannheim Neuostheim;Mannheim Neuostheim;Mannheim Neuostheim;DE;MHG;0;49.5;8.46667
MHH;Marsh Harbour;Marsh Harbour;Marsh Harbour;BS;MHH;0;26.5111;-77.0847
MHK;Манхэттен;Manhattan;Манхеттен;US;MHK;0;39.1422;-96.6689
MHQ;Mariehamn;Mariehamn;Mariehamn;FI;MHQ;0;60.1233;19.8967
MHR;Mather база ВВС;Mather Air Force Base;Mather база ВВС;US;SAC;0;38.05;-121.933
MHT;Манчестер;Manchester;Манчестер;US;MHT;0;42.9383;-71.4389
MIA;Майами;Miami;Майамі;US;MIA;32;25.7925;-80.2861
MID;Мерида;Merida;Меріда;MX;MID;0;20.9333;-89.65
MIG;Mian Yang;Mian Yang;Mian Yang;CN;MIG;0;31.4311;104.738
MII;Dr Gastao Vidigal;Dr Gastao Vidigal;Dr Gastao Vidigal;BR;MII;0;-22.2;-49.9333
MIM;Merimbula;Merimbula;Merimbula;AU;MIM;0;-36.9083;149.92
MIR;Habib Bourguiba;Habib Bourguiba;Habib Bourguiba;TN;MIR;5;35.7569;10.7528
MJD;Mohenjodaro;Mohenjodaro;Mohenjodaro;PK;MJD;0;27.3364;68.1417
MJF;Kjaerstad;Kjaerstad;Kjaerstad;NO;MJF;7;65.8333;13.2
MJK;Шарк Бей;Shark Bay;Шарк Бей;AU;MJK;0;-25.8964;113.577
MJN;Amborovy;Amborovy;Amborovy;MG;MJN;0;-15.6658;46.3531
MJT;Mytilene;Mytilene;Mytilene;GR;MJT;0;39.0561;26.5994
MJV;San Javier;San Javier;San Javier;ES;MJV;34;37.7747;-0.811111
MKC;Канзас-Сити;Kansas City;Канзас-Сіті;US;MKC;3;39.1242;-94.5919
MKE;General Mitchell;General Mitchell;General Mitchell;US;MKE;16;42.9503;-87.8972
MKG;Muskegon окр.;Muskegon Cty;Muskegon окр.;US;MKG;0;43.1706;-86.2375
MKK;Molokai;Molokai;Molokai;US;MKK;0;21.1528;-157.1
MKR;Meekatharra;Meekatharra;Meekatharra;AU;MKR;0;-26.6;118.55
MKY;Mackay;Mackay;Mackay;AU;MKY;0;-21.1728;149.181
MLA;Луга;Luqa;Луга;MT;MLA;29;35.9;14.5167
MLB;Мельбурн региональный;Melbourne Regional;Мельбурн регіональний;US;MLB;0;28.1025;-80.6303
MLE;Male;Male;Male;MV;MLE;17;4.20139;73.5244
MLH;Евроа/п Мюлуз французская часть;Mulhouse EuroAirport French;Євроа/п Мюлуз французська частина;FR;MLH;0;47.65;7.64167
MLI;Quad City;Quad City;Quad City;US;MLI;0;41.4489;-90.505
MLM;Michoacan;Michoacan;Michoacan;MX;MLM;0;19.8508;-101.024
MLN;Melilla;Melilla;Melilla;ES;MLN;0;35.28;-2.95556
MLS;Miles City;Miles City;Miles City;US;MLS;0;46.4306;-105.881
MLU;Монро региональный;Monroe Regional;Монро регіональний;US;MLU;0;32.5111;-92.0389
MLX;Малатья;Malatya;Малатья;TR;MLX;0;38.3544;38.2536
MMA;Malmo Metropolitan Area;Malmo Metropolitan Area;Malmo Metropolitan Area;SE;MMA;1;0;0
MMB;Memanbetsu;Memanbetsu;Memanbetsu;JP;MMB;0;43.9;144.167
MME;Durham Tees Valley;Durham Tees Valley;Durham Tees Valley;GB;MME;0;54.5167;-1.41667
MMG;Mount Magnet;Mount Magnet;Mount Magnet;AU;MMG;0;-28.0833;117.85
MMH;Mammoth Lakes;Mammoth Lakes;Mammoth Lakes;US;MMH;0;37.6311;-118.851
MMK;Мурманск;Murmansk;Мурманськ;RU;MMK;1;68.9667;33.3667
MML;Marshall;Marshall;Marshall;US;MML;0;44.4472;-95.8175
MMM;Middlemount;Middlemount;Middlemount;AU;MMM;0;-22.8025;148.705
MMO;Vila Do Maio;Vila Do Maio;Vila Do Maio;CV;MMO;0;15.25;-23.1667
MMU;Morristown;Morristown;Morristown;US;MMU;0;40.7992;-74.4158
MMX;Sturup;Sturup;Sturup;SE;MMA;0;55.5278;13.3686
MMY;Hirara;Hirara;Hirara;JP;MMY;0;24.7808;125.297
MNL;Ninoy Aquino;Ninoy Aquino;Ninoy Aquino;PH;MNL;17;14.51;121.018
MOB;Мобайл;Mobile;Мобайл;US;MOB;0;30.6883;-88.2408
MOD;Harry Sham Fld;Harry Sham Fld;Harry Sham Fld;US;MOD;1;37.6269;-120.955
MOI;Mitiaro Island;Mitiaro Island;Mitiaro Island;CK;MOI;0;-19.5;-158
MOL;Aro;Aro;Aro;NO;MOL;0;62.7486;7.27111
MOQ;Морондава;Morondava;Морондава;MG;MOQ;0;-20.2836;44.3183
MOT;Minot;Minot;Minot;US;MOT;0;48.2597;-101.281
MOU;Mountain Village;Mountain Village;Mountain Village;US;MOU;0;62.0894;-163.717
MOV;Moranbah;Moranbah;Moranbah;AU;MOV;2;-22.1167;149.533
MOZ;Temae;Temae;Temae;PF;MOZ;0;-17.4833;-149.767
MPH;Malay;Malay;Malay;PH;MPH;0;11.9258;121.952
MPL;Frejorgues;Frejorgues;Frejorgues;FR;MPL;0;43.5808;3.9675
MPM;Мапуто;Maputo;Мапуто;MZ;MPM;0;-25.9167;32.5667
MPN;Mount Pleasant;Mount Pleasant;Mount Pleasant;FK;MPN;0;-51.8167;-58.45
MQF;Магнитогорск;Magnitogorsk;Магнітогорськ;RU;MQF;2;53.45;59.0667
MQL;Mildura;Mildura;Mildura;AU;MQL;0;-34.2275;142.085
MQM;Мардин;Mardin;Мардін;TR;MQM;0;40.6231;37.2153
MQN;Rossvoll;Rossvoll;Rossvoll;NO;MQN;0;66.3667;14.3
MQP;Kruger Mpumalanga;Kruger Mpumalanga;Kruger Mpumalanga;ZA;NLP;0;-25.3908;31.0994
MQT;Sawyer;Sawyer Intl;Sawyer;US;MQT;0;46.5342;-87.5583
MRD;Alberto Carnevalli;Alberto Carnevalli;Alberto Carnevalli;VE;MRD;0;8.58333;-71.1578
MRE;Mara Lodges;Mara Lodges;Mara Lodges;KE;MRE;0;-1.18333;35.0833
MRO;Masterton;Masterton;Masterton;NZ;MRO;0;-40.95;175.65
MRS;Марсель Прованс;Marseille Provence;Марсель Прованс;FR;MRS;44;43.4356;5.21639
MRU;Plaisance;Plaisancet;Plaisance;MU;MRU;8;-20.4275;57.6764
MRV;Минеральные воды;Mineralnye Vody;Мінеральні води;RU;MRV;8;44.2167;43.1
MRY;Monterey Peninsula;Monterey Peninsula;Monterey Peninsula;US;MRY;0;36.5881;-121.848
MRZ;Moree;Moree;Moree;AU;MRZ;0;-29.4983;149.846
MSE;Кент;Kent;Кент;GB;MSE;0;51.35;1.35
MSJ;Мисава;Misawa;Місава;JP;MSJ;0;40.7003;141.372
MSL;Muscle Shoals;Muscle Shoals;Muscle Shoals;US;MSL;0;34.7486;-87.6161
MSN;Dane окр. региональный;Dane County Regional;Дан окр. региональный;US;MSN;3;43.0833;-89.3667
MSO;Missoula;Missoula;Missoula;US;MSO;0;46.9156;-114.088
MSP;Миннеаполис Сент-Пол;Minneapolis St Paul;Міннеаполіс Сент-Пол;US;MSP;3;44.8861;-93.2178
MSR;Mus;Mus;Mus;TR;MSR;0;38.725;41.625
MSS;Richards Field;Richards Field;Richards Field;US;MSS;1;44.9378;-74.8467
MST;Маастрихт Аахен;Maastricht Aachen;Маастріхт Аахен;NL;MST;0;50.9111;5.77361
MSU;Moshoeshoe;Moshoeshoe;Moshoeshoe;LS;MSU;1;-29.3014;27.5056
MSY;Луис Армстронг;Louis Armstrong;Луїс Армстронг;US;MSY;12;29.9911;-90.2514
MTH;Marathon;Marathon;Marathon;US;MTH;0;24.7194;-81.0514
MTJ;Montrose окр.;Montrose County;Montrose окр.;US;MTJ;0;38.5006;-107.895
MTR;S Jeronimo;S Jeronimo;S Jeronimo;CO;MTR;0;8.74583;-75.8814
MTS;Matsapha;Matsapha;Matsapha;SZ;MTS;0;-26.5242;31.3114
MTT;Minatitlan;Minatitlan;Minatitlan;MX;MTT;0;17.9833;-94.5167
MTY;Escobedo;Escobedo;Escobedo;MX;MTY;9;25.7667;-100.1
MUB;Маун;Maun;Маун;BW;MUB;0;-19.9708;23.4306
MUC;Мюнхен;Munich;Мюнхен;DE;MUC;264;48.35;11.7833
MUE;Waimea;Waimea;Waimea;US;MUE;0;20.0125;-155.673
MUN;Quiriquire;Quiriquire;Quiriquire;VE;MUN;0;9.74583;-63.1542
MVB;Franceville Mvengue;Franceville Mvengue;Franceville Mvengue;GA;MVB;0;-1.65;13.4333
MVD;Carrasco;Carrasco;Carrasco;UY;MVD;0;-34.8333;-56.0333
MVY;Dukes окр.;Dukes County;Дюкс окр.;US;MVY;0;41.3928;-70.6167
MWA;Williamson окр.;Williamson County;Williamson окр.;US;MWA;0;37.7519;-89.0164
MWH;Grant окр.;Grant County;Грант окр.;US;MWH;0;47.205;-119.316
MWZ;Mwanza;Mwanza;Mwanza;TZ;MWZ;0;-2.44472;32.9281
MXL;Rodolfg Sachez Taboada;Rodolfg Sachez Taboada;Rodolfg Sachez Taboada;MX;MXL;0;32.6333;-115.233
MXN;Morlaix;Morlaix;Morlaix;FR;MXN;0;48.6;-3.81667
MXP;Malpensa;Malpensa;Malpensa;IT;MIL;0;45.6333;8.71667
MXX;Mora;Mora;Mora;SE;MXX;0;61;14.55
MXZ;Meixian;Meixian;Meixian;CN;MXZ;0;24.35;116.133
MYA;Moruya;Moruya;Moruya;AU;MYA;0;-35.9017;150.147
MYD;Malindi;Malindi;Malindi;KE;MYD;0;-3.22611;40.1006
MYJ;Matsuyama;Matsuyama;Matsuyama;JP;MYJ;0;33.8222;132.704
MYR;Myrtle Beach Jetway;Myrtle Beach Jetway;Myrtle Beach Jetway;US;MYR;0;33.6792;-78.9297
MYV;Yuba окр.;Yuba County;Юба окр.;US;MYV;0;39.0981;-121.57
MYW;Mtwara;Mtwara;Mtwara;TZ;MYW;0;-10.3389;40.1936
MYY;Miri;Miri;Miri;MY;MYY;0;4.45528;114.001
MZG;Makung;Makung;Makung;TW;MZG;0;23.5692;119.619
MZI;Mopti;Mopti;Mopti;ML;MZI;0;14.5083;-4.085
MZL;Santaguida;Santaguida;Santaguida;CO;MZL;0;5.09028;-75.6811
MZO;Sierra Maestra;Sierra Maestra;Sierra Maestra;CU;MZO;0;20.325;-77.1289
MZT;Buelina;Buelina;Buelina;MX;MZT;0;23.15;-106.25
NAA;Narrabri;Narrabri;Narrabri;AU;NAA;0;-30.3;149.833
NAG;Sonegaon ;Sonegaon;Sonegaon ;IN;NAG;0;21.0911;79.0497
NAL;Нальчик;Nalchik;Нальчик;RU;NAL;0;43.5333;43.7
NAN;Nadi;Nadi;Nadi;FJ;NAN;0;-17.7531;177.448
NAP;Capodichino;Capodichino;Capodichino;IT;NAP;2;40.8861;14.2917
NAS;Нассау;Nassau;Нассау;BS;NAS;16;25.0406;-77.472
NAT;Augusto Severo;Augusto Severo;Augusto Severo;BR;NAT;0;-5.91056;-35.2436
NAV;Nevsehir;Nevsehir;Nevsehir;TR;NAV;0;38.6333;34.7167
NAW;Narathiwat;Narathiwat;Narathiwat;TH;NAW;0;6.51667;101.75
NAY;Nanyuan;Nanyuan;Nanyuan;CN;BJS;0;40.0736;116.608
NBC;Нижнекамск;Nijnekamsk;Нижньокамськ;RU;NBC;0;55.5667;52.1
NBO;Jomo Kenyatta;Jomo Kenyatta;Jomo Kenyatta;KE;NBO;7;-1.31667;36.9308
NCA;North Caicos;North Caicos;North Caicos;TC;NCA;0;21.9333;-71.9833
NCE;Cote D Azur;Cote D Azur;Cote D Azur;FR;NCE;404;43.6639;7.2175
NCL;Ньюкасл;Newcastle;Ньюкасл;GB;NCL;15;55.0378;-1.68667
NCY;Annecy Meythet;Annecy Meythet;Annecy Meythet;FR;NCY;0;45.9306;6.10083
NDB;Nouadhibou;Nouadhibou;Nouadhibou;MR;NDB;0;20.9342;-17.0283
NDG;Qiqihar;Qiqihar;Qiqihar;CN;NDG;0;47.3167;123.917
NDJ;N Djamena;N Djamena;N Djamena;TD;NDJ;0;12.135;15.0361
NDR;Nador;Nador;Nador;MA;NDR;0;35.15;-2.91667
NDY;Sanday;Sanday;Sanday;GB;NDY;0;59.25;-2.58333
NEV;Nevis;Nevis;Nevis;KN;NEV;0;17.205;-62.5925
NEW;New Lakefront;New Lakefront;New Lakefront;US;MSY;0;30.0394;-90.0267
NGB;Ниньбо;Ningbo;Ніньбо;CN;NGB;0;29.8667;121.517
NGO;Nagoya Chubu Centrair;Nagoya Chubu Centrair;Nagoya Chubu Centrair;JP;NGO;1;35.3049;136.994
NGS;Нагасаки;Nagasaki;Нагасакі;JP;NGS;0;32.9119;129.917
NHA;Nha Trang;Nha Trang;Nha Trang;VN;NHA;0;12.2278;109.194
NIM;Niamey;Niamey;Niamey;NE;NIM;0;13.4833;2.17083
NJC;Нижневартовск;Nizhnevartovsk;Нижньовартівськ;RU;NJC;4;60.95;76.4833
NKC;Нуакшот;Nouakchott;Нуакшот;MR;NKC;0;18.0919;-15.9519
NKG;Наньцзинь;Nanjing;Наньцзінь;CN;NKG;0;31.9953;118.812
NKM;Nagoya Komaki;Nagoya Komaki;Nagoya Komaki;JP;NGO;0;35.255;136.924
NLA;Ндола;Ndola;Ндола;ZM;NLA;0;-12.9958;28.6631
NLD;Кетцалькоатль;Quetzalcoatl;Кетцалькоатль;MX;NLD;0;27.4347;-99.5667
NLK;Norfolk Island;Norfolk Island;Norfolk Island;NF;NLK;0;-29.0425;167.939
NNG;Наньнинь;Nanning;Наньнінь;CN;NNG;0;22.5833;108.133
NNM;Нарьян-Мар;Naryan-Mar;Нарьян-Мар;RU;NNM;0;67.6167;53.15
NNT;Нан;Nan;Нан;TH;NNT;0;18.8;100.783
NOC;Knock;Knock;Knock;IE;NOC;0;53.9167;-8.81667
NOJ;Ноябрьск;Nojabrxsk;Ноябрськ;RU;NOJ;0;63.5;75
NOS;Fascene;Fascene;Fascene;MG;NOS;0;-13.3111;48.3139
NOU;Тонтута;Tontouta;Тонтута;NC;NOU;0;-22.0169;166.211
NPE;Hawkes Bay;Hawkes Bay;Hawkes Bay;NZ;NPE;0;-39.4681;176.865
NPL;Нью-Плимут;New Plymouth;Нью-Плімут;NZ;NPL;0;-39.01;174.176
NQN;Neuquen;Neuquen;Neuquen;AR;NQN;0;-38.95;-68.1522
NQY;Newquay гражданский;Newquay Civil;Newquay цивільний;GB;NQY;0;50.4394;-4.99472
NRA;Narrandera;Narrandera;Narrandera;AU;NRA;0;-34.7017;146.525
NRK;Kungsangen;Kungsangen;Kungsangen;SE;NRK;0;58.5833;16.25
NRL;North Ronaldsay;North Ronaldsay;North Ronaldsay;GB;NRL;0;59.3703;-2.43333
NRN;Niederrhein;Niederrhein;Niederrhein;DE;DUS;0;51.6056;6.15
NRT;Narita;Narita;Narita;JP;TYO;4;35.7639;140.391
NSI;Nsimalen;Nsimalen;Nsimalen;CM;YAO;0;3.70222;11.5503
NSN;Нельсон;Nelson;Нельсон;NZ;NSN;0;-41.3;173.219
NST;Nakhon Si Thammarat;Nakhon Si Thammarat;Nakhon Si Thammarat;TH;NST;0;8.46667;99.95
NTE;Nantes Atlantique;Nantes Atlantique;Nantes Atlantique;FR;NTE;4;47.1583;-1.60972
NTG;Nantong Arpt;Nantong;Nantong Arpt;CN;NTG;0;32.0667;120.967
NTL;Williamtown;Williamtown;Williamtown;AU;NTL;0;-32.7958;151.833
NTN;Normanton;Normanton;Normanton;AU;NTN;0;-17.6883;141.07
NUE;Нюрнберг;Nuremberg;Нюрнберг;DE;NUE;117;49.5;11.0833
NUL;Nulato;Nulato;Nulato;US;NUL;0;64.7278;-158.077
NVK;Framnes;Framnes;Framnes;NO;NVK;0;68.425;17.425
NVT;Navegantes;Navegantes;Navegantes;BR;NVT;0;-26.8667;-48.6333
NWI;Norwich;Norwich;Norwich;GB;NWI;0;52.6833;1.28333
NYK;Nanyuki;Nanyuki;Nanyuki;KE;NYK;0;0.016667;37.0667
NYM;Надым;Nadym;Надым;RU;NYM;0;65.4833;72.7167
NYO;Skavsta;Skavsta;Skavsta;SE;STO;0;58.75;17
NYU;Nyaung U;Nyaung U;Nyaung U;MM;NYU;0;21.1814;94.9347
OAG;Springhill;Springhill;Springhill;AU;OAG;0;-33.3792;149.123
OAJ;Albert J Ellis;Albert J Ellis;Albert J Ellis;US;OAJ;0;34.8303;-77.6117
OAK;Metro Oakland;Metro Oakland;Metro Oakland;US;OAK;0;37.7236;-122.216
OAL;Cacoal;Cacoal;Cacoal;BR;OAL;0;-11.4339;-61.4825
OAM;Oamaru;Oamaru;Oamaru;NZ;OAM;0;-44.9694;171.083
OAX;Xoxocotlan;Xoxocotlan;Xoxocotlan;MX;OAX;0;17;-96.7333
OBO;Obihiro;Obihiro;Obihiro;JP;OBO;0;42.8906;143.164
ODS;Центральный;Central;Центральний;UA;ODS;120;46.4333;30.6833
ODW;Oak Harbour;Oak Harbour;Oak Harbour;US;ODW;0;48.2514;-122.686
OER;Ornskoldsvik;Ornskoldsvik;Ornskoldsvik;SE;OER;0;63.4083;18.9917
OGG;Кахулуи;Kahului;Кахулуи;US;OGG;0;20.9006;-156.434
OGS;Огденсбург;Ogdensburg;Огденсбург;US;OGS;0;44.6817;-75.4658
OIA;Ourilandia;Ourilandia;Ourilandia;BR;OIA;0;-6.77583;-51.06
OIM;Осима;Oshima;Осіма;JP;OIM;0;34.7792;139.365
OIT;Оита;Oita;Оіта;JP;OIT;0;33.4833;131.733
OKA;Naha Field;Naha Field;Naha Field;JP;OKA;0;26.2;127.65
OKC;Will Rogers World;Will Rogers World;Will Rogers World;US;OKC;0;35.3922;-97.6017
OKD;Okadama;Okadama;Okadama;JP;SPK;0;43.1156;141.385
OKJ;Okayama;Okayama;Okayama;JP;OKJ;0;34.5867;133.936
OKO;Yokota Afb;Yokota Afb;Yokota Afb;JP;TYO;0;35.75;139.35
OLB;Costa Smeralda;Costa Smeralda;Costa Smeralda;IT;OLB;6;40.8664;9.50028
OLM;Олимпия;Olympia;Олімпія;US;OLM;0;46.9736;-122.903
OLP;Olympic Dam;Olympic Dam;Olympic Dam;AU;OLP;0;-31;136
OLS;Международный;International;Міждународний;US;OLS;0;31.4167;-110.85
OMA;Eppley аэродром;Eppley Airfield;Епплей аеродром;US;OMA;0;41.3025;-95.8942
OMD;Oranjemund;Oranjemund;Oranjemund;NA;OMD;0;-28.5833;16.45
OME;Nome;Nome;Nome;US;OME;0;64.5114;-165.442
OMO;Mostar;Mostar;Mostar;BA;OMO;7;43.2856;17.8467
OMR;Oradea;Oradea;Oradea;RO;OMR;0;47.0275;21.9031
OMS;Омск;Omsk;Омськ;RU;OMS;33;54.9667;73.3
ONG;Морнингтон;Mornington;Морнінгтон;AU;ONG;0;-16.5833;139.3
ONJ;Odate Noshiro;Odate Noshiro;Odate Noshiro;JP;ONJ;0;40.1892;140.375
ONP;Newport;Newport;Newport;US;ONP;0;44.6333;-124.05
ONT;Онтарио;Ontario;Онтаріо;US;ONT;0;34.0572;-117.608
OOL;Gold Coast;Gold Coast;Gold Coast;AU;OOL;0;-28.1644;153.505
OPF;Opa Locka;Opa Locka;Opa Locka;US;MIA;0;25.9;-80.2833
OPO;Порто;Porto;Порто;PT;OPO;38;41.1678;-8.66667
ORB;Orebro Bofors;Orebro Bofors;Orebro Bofors;SE;ORB;0;59.2833;15.2167
ORD;O'Хара;O'Hare;O'Хара;US;CHI;19;41.9781;-87.9061
ORF;Норфолк;Norfolk;Норфолк;US;ORF;0;36.8958;-76.2014
ORK;Корк;Cork;Корк;IE;ORK;16;51.8433;-8.49028
ORL;Herndon;Herndon;Herndon;US;ORL;2;28.5442;-81.3356
ORN;Es Senia;Es Senia;Es Senia;DZ;ORN;38;35.6278;-0.610556
ORY;Орли;Orly;Орлі;FR;PAR;1131;48.7289;2.35722
OSD;Froesoe;Froesoe;Froesoe;SE;OSD;0;63.1986;14.4944
OSK;Оскарсхамн;Oskarshamn;Оскарсхамн;SE;OSK;0;57.2667;16.4333
OSL;Осло;Oslo;Осло;NO;OSL;152;60.2;11.0833
OSR;Mosnov;Mosnov;Mosnov;CZ;OSR;1;49.7;18.1333
OST;Ostend;Ostend;Ostend;BE;OST;0;51.1997;2.86361
OSU;Ohio State Univ;Ohio State Univ;Ohio State Univ;US;CMH;0;40.0781;-83.0733
OSY;Namsos;Namsos;Namsos;NO;OSY;0;64.4667;11.6
OTH;North Bend;North Bend;North Bend;US;OTH;0;43.4189;-124.24
OTP;Otopeni;Otopeni;Otopeni;RO;BUH;140;44.5667;26.1
OTZ;Ralph Wien Memorial;Ralph Wien Memorial;Ralph Wien Memorial;US;OTZ;0;66.8881;-162.606
OUA;Угадугу;Ouagadougou;Угадугу;BF;OUA;0;12.3528;-1.51278
OUD;Les Angades;Les Angades;Les Angades;MA;OUD;0;34.7833;-1.93333
OUL;Оулу;Oulu;Оулу;FI;OUL;0;64.9292;25.3583
OUZ;Zouerate;Zouerate;Zouerate;MR;OUZ;0;22.7333;-12.35
OVB;Толмачево;Tolmachevo;Толмачьово;RU;OVB;36;55.0167;82.6167
OVD;Asturias;Asturias;Asturias;ES;OVD;0;43.5667;-6.03333
OWD;Norwood Ma;Norwood Ma;Norwood Ma;US;OWD;0;42;-71
OXB;Osvaldo Viera;Airport Osvaldo Viera;Osvaldo Viera;GW;OXB;0;11.8889;-15.6572
OXR;Oxnard Ventura;Oxnard Ventura;Oxnard Ventura;US;OXR;0;34.2011;-119.206
OZH;Запорожье;Zaporozhye;Запоріжжя;UA;OZH;0;47.8675;35.3158
OZZ;Ourzazate;Ourzazate;Ourzazate;MA;OZZ;0;30.9167;-6.91667
PAD;Paderborn;Paderborn;Paderborn;DE;PAD;0;51.615;8.62111
PAE;Snohomish окр.;Snohomish Cty;Snohomish окр.;US;PAE;0;47.9097;-122.284
PAH;Barkley региональный;Barkley Regional;Barkley региональный;US;PAH;0;37.0611;-88.7725
PAP;Mais Gate;Mais Gate;Mais Gate;HT;PAP;0;18.5606;-72.3289
PAS;Paros Community;Paros Community;Paros Community;GR;PAS;0;37.0667;25.1
PAT;Патна;Patna;Патна;IN;PAT;0;25.5906;85.09
PAZ;Tajin;Tajin;Tajin;MX;PAZ;0;20.5167;-97.4672
PBC;Huejostingo;Huejostingo;Huejostingo;MX;PBC;0;19.135;-98.3675
PBD;Porbandar;Porbandar;Porbandar;IN;PBD;0;21.6472;69.6569
PBH;Paro;Paro;Paro;BT;PBH;0;27.4333;89.4167
PBI;Палм-Бич;Palm Beach;Палм-Біч;US;PBI;0;26.6822;-80.0942
PBM;Zanderij;Zanderij;Zanderij;SR;PBM;0;5.45139;-55.1911
PBO;Paraburdoo;Paraburdoo;Paraburdoo;AU;PBO;0;-23.1667;117.75
PCL;Capitan Rolden;Capitan Rolden;Capitan Rolden;PE;PCL;0;-8.33333;-74.6333
PDG;Tabing;Tabing;Tabing;ID;PDG;0;-0.875556;100.35
PDK;Dekalb Peachtree;Dekalb Peachtree;Dekalb Peachtree;US;ATL;0;33.8833;-84.25
PDL;Nordela;Nordela;Nordela;PT;PDL;0;37.7472;-25.6819
PDP;Cap Curbelo;Cap Curbelo;Cap Curbelo;UY;PDP;0;-34.9144;-54.9192
PDT;Pendleton;Pendleton;Pendleton;US;PDT;0;45.6983;-118.836
PDV;Пловдив;Plovdiv;Пловдів;BG;PDV;0;42.3;24.7167
PDX;Портленд;Portland;Портленд;US;PDX;1;45.5892;-122.595
PEE;Пермь;Perm;Пермь;RU;PEE;21;58;56.25
PEG;Sant Egidio;Sant Egidio;Sant Egidio;IT;PEG;0;43.1333;12.3667
PEI;Matecana;Matecana;Matecana;CO;PEI;0;4.81528;-75.7422
PEK;Пекин столичный;Beijing Capital;Пекін столічний;CN;BJS;5;40.0667;116.6
PEM;Puerto Maldonado;Puerto Maldonado;Puerto Maldonado;PE;PEM;0;-12.5833;-69.2333
PEN;Penang;Penang;Penang;MY;PEN;0;5.28972;100.272
PER;Перт;Perth;Перт;AU;PER;0;-31.9317;115.968
PEV;Pecs;Pecs;Pecs;HU;PEV;0;0;0
PEW;Пешавар;Peshawar;Пешавар;PK;PEW;0;34;71.5
PEZ;Пенза;Penza;Пєнза;RU;PEZ;1;53.2167;45
PFB;Passo Fundo;Passo Fundo;Passo Fundo;BR;PFB;0;-28.25;-52.3333
PFN;Bay окр.;Bay County;Bay окр.;US;PFN;0;30.2125;-85.6819
PFO;Пафос;Paphos Intl;Пафос;CY;PFO;15;34.7167;32.4833
PGA;Page;Page;Page;US;PGA;0;36.9264;-111.447
PGF;Llabanere;Llabanere;Llabanere;FR;PGF;0;42.7408;2.87167
PGV;Pitt Greenville;Pitt Greenville;Pitt Greenville;US;PGV;0;35.6333;-77.3853
PGX;Perigueux;Perigueux;Perigueux;FR;PGX;0;45.1833;0.716667
PHC;Port Harcourt;Port Harcourt;Port Harcourt;NG;PHC;0;5.01667;6.95
PHE;Port Hedland ;Port Hedland ;Port Hedland ;AU;PHE;0;-20.3833;118.633
PHF;Williamsburg;Williamsburg;Williamsburg;US;PHF;0;37.1308;-76.4939
PHG;Port Harcourt City;Port Harcourt City;Port Harcourt City;NG;PHC;0;5.03333;6.83333
PHL;Филадельфия;Philadelphia;Філадельфія;US;PHL;20;39.8717;-75.2422
PHS;Phitsanulok;Phitsanulok;Phitsanulok;TH;PHS;0;16.7883;100.279
PHW;Phalaborwa;Phalaborwa;Phalaborwa;ZA;PHW;0;-23.9336;31.1561
PHX;Sky Harbor;Sky Harbor;Sky Harbor;US;PHX;0;33.4353;-112.012
PIA;Greater Peoria;Greater Peoria;Greater Peoria;US;PIA;0;40.6614;-89.6872
PIB;Hattiesburg Laurel региональный;Hattiesburg Laurel Regional;Hattiesburg Laurel региональный;US;LUL;0;31.4675;-89.3367
PIE;St Petersburg Clearwater;St Petersburg Clearwater;St Petersburg Clearwater;US;TPA;0;27.9167;-82.6833
PIH;Pocatello;Pocatello;Pocatello;US;PIH;0;42.9133;-112.594
PIK;Prestwick;Prestwick;Prestwick;GB;GLA;0;55.5031;-4.57556
PIR;Pierre;Pierre;Pierre;US;PIR;0;44.3836;-100.284
PIS;Biard;Biard;Biard;FR;PIS;0;46.5861;0.306389
PIT;Питтсбург;Pittsburgh;Піттсбург;US;PIT;2;40.4967;-80.2358
PIU;Piura;Piura;Piura;PE;PIU;0;-5.20167;-80.6133
PIX;Pico;Pico;Pico;PT;PIX;0;38.4667;-28.3
PIZ;Dew Station;Dew Station;Dew Station;US;PIZ;64;69.75;-163.167
PJA;Pajala Arpt;Pajala;Pajala Arpt;SE;PJA;0;67.2467;23.075
PJB;Payson;Payson;Payson;US;PJB;0;34.2611;-111.342
PKB;Wood окр.;Wood County;Вууд окр.;US;PKB;0;39.3456;-81.4389
PKC;Петропавловск-Камчатский;Petropavlovsk Kamchatskiy;Петропавловськ-Камчатский;RU;PKC;233;53.1692;158.427
PKE;Parkes;Parkes;Parkes;AU;PKE;0;-33.1308;148.243
PKG;Pangkor;Pangkor;Pangkor;MY;PKG;0;4.21667;100.7
PKR;Pokhara;Pokhara;Pokhara;NP;PKR;0;28.1972;83.9861
PKU;Simpang Tiga;Simpang Tiga;Simpang Tiga;ID;PKU;0;0.466667;101.45
PKV;Псков;Pskov;Псков;RU;PKV;1;57.8167;28.3
PLH;Roborough;Roborough;Roborough;GB;PLH;0;50.4167;-4.11667
PLJ;Placencia;Placencia;Placencia;BZ;PLJ;0;16.5333;-88.3528
PLM;Mahmud Badaruddin Li;Mahmud Badaruddin Li;Mahmud Badaruddin Li;ID;PLM;0;-2.9;104.699
PLN;Эммет окр.;Emmet Cty;Еммет окр.;US;PLN;0;45.5708;-84.7928
PLO;Port Lincoln;Port Lincoln;Port Lincoln;AU;PLO;0;-34.6061;135.881
PLQ;Паланга;Palanga;Паланга;LT;PLQ;0;55.95;21.0833
PLS;Providenciales;Providenciales;Providenciales;TC;PLS;0;21.7692;-72.2683
PLZ;Порт-Элизабет;Port Elizabeth;Порт-Элізабет;ZA;PLZ;0;-33.9861;25.6139
PMC;Tepual;Tepual;Tepual;CL;PMC;0;-41.4333;-73.1
PMF;Парма;Parma;Парма;IT;PMF;0;44.8;10.3333
PMI;Пальма-Майорка;Palma Mallorca;Пальма-Майорка;ES;PMI;143;39.5536;2.72778
PMO;Punta Raisi;Punta Raisi;Punta Raisi;IT;PMO;0;38.1667;13.1
PMR;Palmerston North;Palmerston North;Palmerston North;NZ;PMR;0;-40.3222;175.617
PMV;Delcaribe Gen S Marino;Delcaribe Gen S Marino;Delcaribe Gen S Marino;VE;PMV;0;11.0583;-64.1
PMW;Palmas;Palmas;Palmas;BR;PMW;0;-10.2417;-48.3528
PMY;El Tehuelche;El Tehuelche;El Tehuelche;AR;PMY;0;-42.7333;-65.0667
PNA;Pamplona Noain;Pamplona Noain;Pamplona Noain;ES;PNA;0;42.7694;-1.64444
PNE;С Филадельфия;N Philadelphia;С Філадельфія;US;PHL;0;40.0803;-75.0125
PNH;Pochentong;Pochentong;Pochentong;KH;PNH;1;11.5461;104.848
PNI;Pohnpei;Pohnpei;Pohnpei;FM;PNI;0;7.01667;158.236
PNQ;Lohegaon;Lohegaon;Lohegaon;IN;PNQ;1;18.5814;73.9206
PNR;Pointe Noire;Pointe Noire;Pointe Noire;CG;PNR;0;-4.81056;11.8858
PNS;Пенсакола региональный;Pensacola Regional;Пенсакола регіональний;US;PNS;0;30.4725;-87.1883
PNT;Teniente Julio Gallardo;Teniente Julio Gallardo;Teniente Julio Gallardo;CL;PNT;0;-51.6833;-72.5167
PNZ;Петролина;Petrolina Internacional;Петроліна;BR;PNZ;0;-9.39333;-40.4906
POA;Porto Alegre;Porto Alegre;Porto Alegre;BR;POA;0;-29.9933;-51.1708
POG;Port Gentil;Port Gentil;Port Gentil;GA;POG;0;-0.7125;8.75583
POM;Jackson Field;Jackson Field;Jackson Field;PG;POM;0;-9.445;147.21
POP;La Union;La Union;La Union;DO;POP;0;19.8;-70.6667
POR;Пори;Pori;Порі;FI;POR;0;61.4631;21.7972
POS;Piarco;Piarco;Piarco;TT;POS;0;10.6;-61.35
POZ;Lawica;Lawica;Lawica;PL;POZ;0;52.4169;16.8833
PPB;A De Barros;A De Barros;A De Barros;BR;PPB;0;-22.1;-51.45
PPG;Паго-Паго;Pago Pago;Паго-Паго;AS;PPG;1;-14.3264;-170.696
PPK;Петропавловск;Petropavlovsk;Петропавловськ;KZ;PPK;0;54.7833;69.1833
PPL;Phaplu;Phaplu;Phaplu;NP;PPL;1;27.5167;86.6
PPN;Machangara;Machangara;Machangara;CO;PPN;0;2.45;-76.6089
PPP;Whitsunday Coast;Whitsunday Coast;Whitsunday Coast;AU;PPP;0;-20.4961;148.557
PPS;Puerto Princesa;Puerto Princesa;Puerto Princesa;PH;PPS;0;9.74222;118.754
PPT;Таити Фа;Intl Tahiti Faaa;Таїті Фа;PF;PPT;0;-17.5472;-149.614
PPW;Papa Westray;Papa Westray;Papa Westray;GB;PPW;0;59.4167;-2.9
PQC;Duong Dang;Duong Dang;Duong Dang;VN;PQC;0;10.2333;103.967
PQI;Northern Maine Regional;Northern Maine Regional;Northern Maine Regional;US;PQI;0;46.685;-68.0475
PQQ;Port Macquarie;Port Macquarie;Port Macquarie;AU;PQQ;0;-31.4333;152.867
PRB;Пасо-Роблес окр.;Paso Robles Cty;Пасо-Роблес окр.;US;PRB;0;35.6706;-120.626
PRC;Прескотт;Prescott;Прескотт;US;PRC;0;34.65;-112.424
PRG;Ruzyne;Ruzyne;Ruzyne;CZ;PRG;327;50.1;14.2667
PRI;Praslin Island;Praslin Island;Praslin Island;SC;PRI;2;-4.31917;55.6928
PRN;Приштина;Pristina;Пріштіна;RS;PRN;4;42.5736;21.0356
PSA;Галилео Галилей;Gal Galilei;Галілео Галілей;IT;PSA;2;43.6806;10.3928
PSC;Tri Cities;Tri Cities;Tri Cities;US;PSC;0;46.2639;-119.115
PSE;Мерседита;Mercedita;Мерседіта;US;PSE;0;18.0108;-66.5636
PSG;Petersburg;Petersburg;Petersburg;US;PSG;6;56.8042;-132.943
PSM;Portsmouth Pease;Portsmouth Pease;Portsmouth Pease;US;PSM;0;43.1796;-70.8827
PSO;Cano;Cano;Cano;CO;PSO;0;1.46667;-77.25
PSP;Палм-Спрингс;Palm Springs;Палм-Спрінгс;US;PSP;0;33.8267;-116.505
PSR;Либери;Liberi;Лібері;IT;PSR;0;42.4339;14.1844
PSS;Посадас;Posadas;Посадас;AR;PSS;0;-27.3839;-55.9675
PTG;Pietersburg;Pietersburg;Pietersburg;ZA;PTG;2;-23.9167;29.9667
PTK;Окленд Понтиак;Oakland Pontiac;Окленд Понтіак;US;PTK;0;42.6647;-83.4114
PTP;Le Raizet;Le Raizet;Le Raizet;GP;PTP;0;16.2675;-61.5264
PTW;Pottstown Limerick;Pottstown Limerick;Pottstown Limerick;US;PTW;0;40.25;-75.6333
PTY;Токумен;Tocumen;Токумен;PA;PTY;1;9.08333;-79.3833
PUB;Пуэбло;Pueblo;Пуебло;US;PUB;0;38.2928;-104.496
PUF;Uzein;Uzein;Uzein;FR;PUF;0;43.38;-0.417778
PUJ;Пунта-Кана;Punta Cana;Пунта-Кана;DO;PUJ;4;18.5667;-68.3833
PUQ;Presidente Ibanez;Presidente Ibanez;Presidente Ibanez;CL;PUQ;0;-53.1264;-70.8775
PUS;Kimhae;Kimhae;Kimhae;KR;PUS;0;35.1708;129.131
PUW;Pullman Moscow;Pullman Moscow;Pullman Moscow;US;PUW;1;46.7447;-117.105
PUY;Пула;Pula;Пула;HR;PUY;3;44.8917;13.9236
PVC;Provincetown;Provincetown;Provincetown;US;PVC;0;42.0719;-70.2217
PVD;T F Green St;T F Green St;T F Green St;US;PVD;0;41.7283;-71.4261
PVG;Pu Dong;Pu Dong;Pu Dong;CN;SHA;0;31.15;121.783
PVH;Belmonte;Belmonte;Belmonte;BR;PVH;0;-8.73333;-63.9
PVK;Актион;Aktion;Актіон;GR;PVK;0;38.9264;20.7658
PVR;Ordaz;Ordaz;Ordaz;MX;PVR;0;20.6867;-105.265
PWK;Pal Waukee;Pal Waukee;Pal Waukee;US;CHI;0;41.9808;-87.9089
PWM;Портленд;Portland Jetport;Портленд;US;PWM;1;43.6444;-70.3036
PWQ;Павлодар;Pavlodar;Павлодар;KZ;PWQ;6;52.1833;77.0667
PXM;Пуэрто Эскондидо;Puerto Escondido;Пуерто Ескондідо;MX;PXM;0;15.85;-97.0833
PXO;Порто-Санто;Porto Santo;Порто-Санто;PT;PXO;0;33.0669;-16.3456
PXU;Pleiku;Pleiku;Pleiku;VN;PXU;0;14.0031;108.021
PZB;Pietermaritzburg;Pietermaritzburg;Pietermaritzburg;ZA;PZB;1;-29.6461;30.3994
PZE;Penzance;Penzance;Penzance;GB;PZE;1;50.1119;-5.51611
PZO;Puerto Ordaz;Puerto Ordaz;Puerto Ordaz;VE;PZO;0;8.305;-62.7344
QBC;Bella Colla;Bella Colla;Bella Colla;CA;QBC;0;52.3333;-126.667
QBF;Vail микроавтобусный вокзал;Vail Van Service;Ваїл мікроавтобусний вокзал;US;EGE;0;0;0
QCE;Коппер-Маунтин микроавтобусный вокзал;Copper Mountain Van Service;Коппер-Маунтін мікроавтобусний вокзал;US;QCE;0;49.3;-1.5
QDH;Ashford ж/д вокзал;Ashford Rail Station;Ashford ж/д вокзал;GB;QDH;0;0;0
QDU;Дюссельдорф ж/д вокзал;Dusseldorf Rail Station;Дюссельдорф ж/д вокзал;DE;DUS;0;51.2075;6.77333
QFZ;Саарбрюккен ж/д вокзал;Saarbruecken Rail Station;Саарбрюккен ж/д вокзал;DE;SCN;0;0;0
QJX;Нонг Хай;Nong Khai;Нонг Хай;TH;BKK;0;102.7472;17.8503
QJZ;Нант ж/д вокзал;Nantes Rail Station;Нант ж/д вокзал;FR;NTE;0;0;0
QKB;Breckenridge микроавтобусный вокзал;Breckenridge Van Service;Брекенбрідж мікроавтобусний вокзал;US;QKB;0;-28.8333;22.6167
QKL;Кельн ж/д вокзал;Cologne Railroad Station;Кельн зал. вокзал;DE;CGN;0;0;0
QKS;Keystone микроавтобусный вокзал;Keystone Van Service;Кейстоун мікроавтобусний вокзал;US;QKS;0;0;0
QLE;Leeton;Leeton;Leeton;AU;QLE;0;0;0
QNT;Niteroi;Niteroi;Niteroi;BR;QNT;0;0;0
QQH;Harwich ж/д вокзал;Harwich Rail Station;Harwich ж/д вокзал;GB;LON;0;0;0
QQK;Лондон - Кингс Кросс ж/д вокзал;London - Kings Cross Rail Service;Лондон - Кингс Кросс ж/д вокзал;GB;LON;0;0;0
QQN;Бирмингем - Нью Стрит ж/д вокзал;Birmingham - New Street Rail Service;Бирмингем - Нью Стрит ж/д вокзал;GB;BHX;0;0;0
QQU;Лондон - Эустон ж/д вокзал;London - Euston Rail Service;Лондон - Эустон ж/д вокзал;GB;LON;0;0;0
QQW;Лондон - Ватерлоо ж/д вокзал;London - Waterloo Rail Service;Лондон - Ватерлоо ж/д вокзал;GB;LON;0;51.5167;0.1
QQX;Bath ж/д вокзал;Bath Rail Service;Bath ж/д вокзал;GB;QQX;0;0;0
QQY;Йорк ж/д вокзал;York Rail Station;Йорк ж/д вокзал;GB;QQY;0;0;0
QRO;Queretaro;Queretaro;Queretaro;MX;QRO;0;20.6;-100.383
QRV;Аррас;Arras;Аррас;FR;QRV;0;0;0
QWF;Форт-Коллинс автобусный вокзал;Fort Collins Bus Service;Форт-Коллінс автобусний вокзал;US;FNL;0;19.8333;-72.5
QWH;Loveland автобусный вокзал;Loveland Bus Service;Ловленд автобусний вокзал;US;FNL;0;0;0
QWM;Longmont автобусный вокзал;Longmont Bus Service;Лонгмонт автобусний вокзал;US;DEN;0;0;0
QWY;Олбани автобусный вокзал;Albany Bus Service;Олбані автобусний вокзал;US;CVO;0;0;0
QXB;Aix en Provence ж/д вокзал;Aix en Provence Rail Station;Aix en Provence ж/д вокзал;FR;QXB;0;0;0
QYH;Hengelo ж/д вокзал;Hengelo Railway Service;Hengelo ж/д вокзал;NL;QYH;0;0;0
QYM;Амерсфорт ж/д вокзал;Amersfoort Railway Service;Амерсфорт ж/д вокзал;NL;QYM;0;0;0
QYO;Ольштын;Olsztyn;Ольштин;PL;QYO;0;0;0
QYU;Gavle ж/д вокзал;Gavle Rail Station;Gavle ж/д вокзал;SE;GVX;0;0;0
QYX;Уппсала ж/д вокзал;Uppsala Railway Service;Уппсала ж/д вокзал;SE;QYX;0;0;0
RAB;Lakunai;Lakunai;Lakunai;PG;RAB;0;-4.33333;152.367
RAI;Francisco Mendes;Francisco Mendes;Francisco Mendes;CV;RAI;0;14.9253;-23.5031
RAJ;Rajkot гражданский;Rajkot Civil;Райкот цивільний;IN;RAJ;0;22.3058;70.7808
RAK;Менара;Menara;Менара;MA;RAK;3;31.6083;-8.03833
RAO;Leite Lopes;Leite Lopes;Leite Lopes;BR;RAO;0;-21.1358;-47.7733
RAP;Rapid City региональный;Rapid City Regional;Рапід Сіті регіональний;US;RAP;0;44.0433;-103.057
RAR;Раротонга;Rarotonga;Раротонга;CK;RAR;0;-21.2003;-159.8
RBA;Sale;Sale;Sale;MA;RBA;0;34.05;-6.75694
RBG;Roseburg;Roseburg;Roseburg;US;RBG;0;43.2389;-123.36
RBL;Сервисная станция обеспечения полетов;Flight Service Station;Сервісна станція забезпечення польотів;US;RDD;0;40.1566;-122.273
RBR;Pres Medici;Pres Medici;Pres Medici;BR;RBR;0;-9.96667;-67.8
RCE;Roche Harbor;Roche Harbor;Roche Harbor;US;RCE;0;48.5833;-123.167
RDD;Реддинг;Redding;Реддінг;US;RDD;0;40.5083;-122.292
RDG;Ридинг;Reading;Рідінг;US;RDG;0;40.3786;-75.9639
RDM;Roberts Field;Roberts Field;Roberts Field;US;RDM;0;44.2544;-121.151
RDN;Lts Pulau Redang;Lts Pulau Redang;Lts Pulau Redang;MY;RDN;0;5.76528;103.007
RDU;Raleigh Durham;Raleigh Durham;Raleigh Durham;US;RDU;16;35.8753;-78.7819
RDZ;Marcillac;Marcillac;Marcillac;FR;RDZ;0;44.3667;2.51667
REC;Ресифе;Recife;Ресіфе;BR;REC;0;-8.12583;-34.9239
REG;Tito Menniti;Tito Menniti;Tito Menniti;IT;REG;0;38.0753;15.6508
REL;Трелев;Trelew;Трелев;AR;REL;0;-43.2333;-65.3233
REP;Siem Reap;Siem Reap;Siem Reap;KH;REP;1;13.4;103.817
RES;Resistencia;Resistencia;Resistencia;AR;RES;0;-27.4514;-59.0508
REU;Reus;Reus;Reus;ES;REU;0;41.15;1.16944
REX;General Lucio Blanco;General Lucio Blanco;General Lucio Blanco;MX;REX;0;26.0125;-98.23
RFD;Чикаго Rockford;Chicago Rockford;Чікаго Рокфорд;US;CHI;0;42.3036;-89.2221
RFP;Raiatea;Raiatea;Raiatea;PF;RFP;0;-16.7167;-151.467
RGA;Рио-Гранде;Rio Grande;Ріо-Гранде;AR;RGA;0;-53.7792;-67.75
RGI;Rangiroa;Rangiroa;Rangiroa;PF;RGI;0;-14.9667;-147.667
RGL;Rio Gallegos;Rio Gallegos Internacional;Rio Gallegos;AR;RGL;0;-51.6167;-69.2833
RGN;Мингаладон;Mingaladon;Мінгаладон;MM;RGN;0;16.9064;96.1389
RHI;Онейда окр.;Oneida County;Онейда окр.;US;RHI;0;45.6314;-89.4575
RHO;Diagoras;Diagoras;Diagoras;GR;RHO;0;36.3847;28.1183
RIC;Ричмонд;Richmond;Річмонд;US;RIC;0;37.5061;-77.3225
RIL;Garfield окр.;Garfield Cty;Garfield окр.;US;RIL;0;39.5333;-107.783
RIW;Riverton;Riverton;Riverton;US;RIW;0;43.0644;-108.457
RIX;Рига;Riga;Рига;LV;RIX;132;56.925;23.9722
RIY;Riyan Mukalla;Riyan Mukalla;Riyan Mukalla;YE;RIY;0;14.6472;49.3222
RJL;Agoncillo;Agoncillo;Agoncillo;ES;RJL;0;42.4569;-2.32361
RKD;Rockland;Rockland;Rockland;US;RKD;0;44.0592;-69.0981
RKS;Rock Springs;Rock Springs;Rock Springs;US;RKS;0;41.5964;-109.066
RKT;Ras Al Khaimah;Ras Al Khaimah;Ras Al Khaimah;AE;RKT;0;25.75;56
RKV;Рейкъявик внутренний;Reykjavik Domestic;Рейк'явік внутрішній;IS;REK;0;64.1333;-21.95
RLG;Laage;Laage;Laage;DE;RLG;0;53.92;12.2667
RMA;Рим;Roma;Рим;AU;RMA;0;-26.5472;148.773
RMF;Marsa Alam;Marsa Alam;Marsa Alam;EG;RMF;7;25.6333;34.5694
RMI;Мирамаре;Miramare;Мірамаре;IT;RMI;3;44.0208;12.6122
RMQ;Ching Chuan Kang;Ching Chuan Kang;Ching Chuan Kang;TW;TXG;0;24.265;120.621
RMS;Ramsteim;Ramsteim;Ramsteim;DE;RMS;0;49.45;7.55
RNB;Kallinge;Kallinge;Kallinge;SE;RNB;0;56.2583;15.2611
RNN;Борнхольм;Bornholm;Борнхольм;DK;RNN;0;55.0656;14.7578
RNO;Рено Тахо;Reno Tahoe;Рено Тахо;US;RNO;0;39.4978;-119.768
RNS;Saint Jacques;Saint Jacques;Saint Jacques;FR;RNS;4;48.0686;-1.73139
ROA;Roanoke региональный;Roanoke Regional;Roanoke региональный;US;ROA;0;37.3247;-79.9764
ROB;Roberts;Roberts;Roberts;LR;MLW;0;6.23972;-10.3589
ROC;Monroe New York окр.;Monroe Cty New York;Monroe New York окр.;US;ROC;0;43.1214;-77.6708
ROI;Roi Et;Roi Et;Roi Et;TH;ROI;0;16.1153;103.777
ROK;Rockhampton;Rockhampton;Rockhampton;AU;ROK;0;-23.3772;150.475
ROP;Рота;Rota;Рота;MP;ROP;0;14.1683;145.249
ROR;Airai;Airai;Airai;PW;ROR;0;7.36444;134.553
ROS;Фишертон;Fisherton;Фішертон;AR;ROS;0;-32.9333;-60.7833
ROT;Роторуа;Rotorua;Роторуа;NZ;ROT;0;-38.1111;176.317
ROV;Ростов;Rostov;Ростов;RU;ROV;244;47.2552;39.8038
ROW;Industrial Aircenter;Industrial Aircenter;Industrial Aircenter;US;ROW;0;33.2997;-104.53
RPR;Райпур;Raipur;Райпур;IN;RPR;0;21.1667;82.0083
RRG;Rodrigues Island;Rodrigues Island;Rodrigues Island;MU;RRG;0;-19.75;63.35
RRS;Ророс;Roros;Ророс;NO;RRS;0;62.5792;11.3456
RSD;S Eleuthera;S Eleuthera;S Eleuthera;BS;RSD;0;24.8917;-76.1781
RSH;Российская база гидросамолетов;Russian Seaplane Base;Російська база гідролітаків;US;RSH;0;61.7831;-161.319
RST;Рочестер;Rochester;Рочестер;US;RST;0;43.9103;-92.4964
RSU;Yeosu;Yeosu;Yeosu;KR;RSU;0;34.7411;127.73
RSW;Regional Southwest;Regional Southwest;Regional Southwest;US;FMY;0;26.5362;-81.7552
RTB;Роатан;Roatan;Роатан;HN;RTB;0;16.3167;-86.5167
RTM;Роттердам;Rotterdam;Роттердам;NL;RTM;5;51.9583;4.44444
RTW;Саратов;Saratov;Саратів;RU;RTW;6;51.5667;46.0667
RUH;King Khaled;King Khaled;King Khaled;SA;RUH;2;24.9667;46.7
RUN;Gillot;Gillot;Gillot;RE;RUN;0;-20.8772;55.5214
RUT;Rutland;Rutland;Rutland;US;RUT;0;43.5294;-72.9483
RVK;Ryumsjoen;Ryumsjoen;Ryumsjoen;NO;RVK;0;64.8833;11.2333
RVN;Рованиеми;Rovaniemi;Рованіємі;FI;RVN;0;66.5631;25.8267
RVT;Равенсторп;Ravensthorpe;Равенсторп;AU;RVT;0;-33.7856;120.201
RXS;Роксас сити п/п;Roxas City;Роксас сіті п/п;PH;RXS;0;11.6;122.751
RZE;Jasionka;Jasionka;Jasionka;PL;RZE;0;50.1167;22.0167
SAB;Juancho Yraus Quinl;Juancho Yraus Quinl;Juancho Yraus Quinl;AN;SAB;0;17.65;-63.2167
SAC;Sacramento Executive;Sacramento Executive;Sacramento Executive;US;SAC;0;38.05;-121.933
SAH;Сана;Sanaa Intl;Сана;YE;SAH;0;15.4786;44.2192
SAL;Comalapa;Comalapa;Comalapa;SV;SAL;0;13.6936;-89.1181
SAN;Линдберг;Lindbergh;Ліндберг;US;SAN;0;32.7328;-117.187
SAP;Ramon Villeda Morales;Ramon Villeda Morales;Ramon Villeda Morales;HN;SAP;0;15.4;-86.9333
SAT;Сан-Антонио;San Antonio;Сан-Антоніо;US;SAT;0;29.5383;-98.472
SAV;Саванна;Savannah;Саванна;US;SAV;0;32.1272;-81.1994
SAW;Sabiha Gokcen;Sabiha Gokcen;Sabiha Gokcen;TR;IST;0;40.8994;29.3092
SBA;Санта-Барбара;Santa Barbara;Санта-Барбара;US;SBA;0;34.4278;-119.839
SBH;St Jean;St Jean;St Jean;GP;SBH;2;17.9;-62.85
SBN;Michiana региональный;Michiana Regional;Michiana региональный;US;SBN;0;41.7044;-86.3125
SBP;San Luis Obispo окр.;San Luis Obispo County;San Luis Obispo окр.;US;CSL;0;35.2367;-120.639
SBW;Сибу;Sibu;Сібу;MY;SBW;0;2.34167;111.838
SBY;Викомико региональный;Wicomico Regional;Вікоміко регіональний;US;SBY;0;38.3386;-75.51
SBZ;Sibiu;Sibiu;Sibiu;RO;SBZ;0;45.7833;24.0833
SCC;Prudhoe Bay Deadhorse;Prudhoe Bay Deadhorse;Prudhoe Bay Deadhorse;US;SCC;0;70.2;-148.467
SCE;University Park;University Park;University Park;US;SCE;0;40.7708;-77.8814
SCF;Scottsdale;Scottsdale;Scottsdale;US;SCF;0;33.6167;-111.917
SCL;Arturo Merino Benitez;Arturo Merino Benitez;Arturo Merino Benitez;CL;SCL;64;-33.3833;-70.7833
SCN;Ensheim;Ensheim;Ensheim;DE;SCN;0;49.2333;6.98333
SCO;Актау;Aktau;Актау;KZ;SCO;0;43.8667;51.1
SCQ;Сантьяго;Santiago;Сантьяго;ES;SCQ;0;42.9;-8.41667
SCS;Scatsta;Scatsta;Scatsta;GB;SDZ;0;60.1333;-1.13333
SCU;Antonio Maceo;Antonio Maceo;Antonio Maceo;CU;SCU;6;19.9692;-75.8358
SCV;Salcea;Salcea;Salcea;RO;SCV;0;47.6894;26.3561
SCW;Сыктывкар;Syktyvkar;Сиктивкар;RU;SCW;0;61.6667;50.7667
SCX;Салина-Крус;Salina Cruz;Саліна-Крус;MX;SCX;0;16.1667;-95.2
SCY;Сан-Кристобаль;San Cristobal;Сан-Крістобаль;EC;SCY;0;-0.833333;-89.4333
SDA;Багдад;Baghdad;Багдад;IQ;BGW;0;33.2667;44.5
SDE;Santiago Des Estero;Santiago Des Estero;Santiago Des Estero;AR;SDE;0;-27.7653;-64.3222
SDF;Луисвилль;Louisville;Луїсвілль;US;SDF;1;38.1797;-85.7386
SDJ;Sendai;Sendai;Sendai;JP;SDJ;0;38.1356;140.924
SDK;Сандакан;Sandakan;Сандакан;MY;SDK;0;5.9;118.06
SDL;Сундсваль;Sundsvall;Сундсваль;SE;SDL;0;62.5333;17.45
SDN;Анда;Anda;Анда;NO;SDN;0;61.7667;6.21667
SDP;Sand Point;Sand Point;Sand Point;US;SDP;0;55.3167;-160.514
SDQ;Las Americas;Las Americas;Las Americas;DO;SDQ;8;18.4292;-69.6692
SDR;Сантандер;Santander;Сантандер;ES;SDR;0;43.4292;-3.82639
SDU;Santos Dumont;Santos Dumont;Santos Dumont;BR;RIO;0;-22.9;-43.1667
SDV;Dov;Dov;Dov;IL;TLV;0;32.1108;34.7794
SDY;Sindey Richland;Sindey Richland;Sindey Richland;US;SDY;1;47.7069;-104.192
SEA;Сиэтл Такома;Seattle Tacoma;Сіетл Такома;US;SEA;4;47.4472;-122.306
SEZ;Seychelles;Seychelles;Seychelles;SC;SEZ;8;-4.67222;55.5225
SFA;El Maou;El Maou;El Maou;TN;SFA;0;34.7167;10.6833
SFB;Orlando Sanford;Orlando Sanford;Orlando Sanford;US;SFB;0;28.8;-81.2667
SFF;Felts Field;Felts Field;Felts Field;US;GEG;0;47.6667;-117.4
SFJ;Сондре Стромфьорд;Sondre Stromfjord;Сондре Стромфйорд;GL;SFJ;0;67.0122;-50.7197
SFL;Sao Filipe;Sao Filipe;Sao Filipe;CV;SFL;0;14.9;-24.5167
SFN;Санта-Фе;Santa Fe;Санта-Фе;AR;SFN;0;-31.7167;-60.8167
SFO;Сан-Франциско;San Francisco;Сан-Франциско;US;SFO;99;37.619;-122.375
SFT;Скеллефтеа;Skelleftea;Скеллефтеа;SE;SFT;2;64.625;21.0783
SGC;Сургут;Surgut;Сургут;RU;SGC;1;61.2333;73.3333
SGD;Sonderborg;Sonderborg;Sonderborg;DK;SGD;0;54.9303;9.79472
SGF;Springfield Branson региональный;Springfield Branson Regional;Springfield Branson региональный;US;SGF;0;37.24;-93.385
SGN;Tan Son Nhut;Tan Son Nhut;Tan Son Nhut;VN;SGN;1;10.8172;106.658
SGO;St George;St George;St George;AU;SGO;0;-28.0533;148.594
SGR;Hull Field;Hull Field;Hull Field;US;SGR;0;29.6989;-95.4078
SGU;Saint George;Saint George;Saint George;US;SGU;0;37.0931;-113.592
SGY;Skagway;Skagway Minicipal;Skagway;US;SGY;0;59.4606;-135.316
SHA;Hongqiao;Hongqiao;Hongqiao;CN;SHA;5;31.2;121.333
SHB;Накасибецу;Nakashibetsu;Накасібецу;JP;SHB;0;43.5667;144.967
SHD;Shenandoah Valley;Shenandoah Valley;Shenandoah Valley;US;SHD;0;38.2639;-78.8967
SHE;Шеньян;Shenyang;Шеньян;CN;SHE;0;41.8167;123.5
SHJ;Sharjah;Sharjah;Sharjah;AE;SHJ;0;25.3458;55.3958
SHP;Qinhuangdao;Qinhuangdao;Qinhuangdao;CN;SHP;0;39.9333;119.5
SHR;Шеридан окр.;Sheridan Cty;Шерідан окр.;US;SHR;0;44.7742;-106.977
SHV;Shreveport региональный;Shreveport Regional;Shreveport региональный;US;SHV;0;32.4469;-93.75
SHW;Шарура;Sharurah;Шарура;SA;SHW;0;17.4167;47.1
SID;Amilcar Cabral;Amilcar Cabral;Amilcar Cabral;CV;SID;4;16.745;-22.9517
SIG;SIG Isla Grande;SIG Isla Grande;SIG Isla Grande;US;SIG;0;18.4589;-66.1028
SIN;Changi;Changi;Changi;SG;SIN;33;1.35806;103.911
SIP;Симферополь;Simferopol;Сімферопіль;UA;SIP;69;45.0167;34
SIT;Ситка;Sitka;Сітка;US;SIT;0;57.0486;-135.233
SJC;Сан-Хосе;San Jose;Сан-Хосе;US;SJC;0;37.3611;-121.926
SJD;Лос-Кабос;Los Cabos;Лос-Кабос;MX;SJD;0;23.1667;-109.7
SJJ;Бутмир;Butmir;Бутмір;BA;SJJ;0;43.8189;18.3381
SJO;Juan Santa Maria;Juan Santa Maria;Juan Santa Maria;CR;SJO;1;10;-84.2
SJP;Sao Jose Do Rio Preto;Sao Jose Do Rio Preto;Sao Jose Do Rio Preto;BR;SJP;0;-20.8167;-49.4167
SJT;Mathis Field;Mathis Field;Mathis Field;US;SJT;0;31.3597;-100.494
SJU;Luiz Munoz Marin;Luiz Munoz Marin;Luiz Munoz Marin;US;SJU;0;18.44;-66.0022
SJW;Daguocun;Daguocun;Daguocun;CN;SJW;0;38.05;114.467
SJY;Ilmajoki;Ilmajoki;Ilmajoki;FI;SJY;0;62.6933;22.8317
SJZ;Sao Jorge;Sao Jorge;Sao Jorge;PT;SJZ;0;38.65;-28.2333
SKB;Robert L Bradshaw;Robert L Bradshaw;Robert L Bradshaw;KN;SKB;0;17.3081;-62.7214
SKD;Самарканд;Samarkand;Самарканд;UZ;SKD;0;39.7;67
SKE;Skien;Skien;Skien;NO;SKE;0;59.1828;9.5625
SKG;Македония;Makedonia;Македонія;GR;SKG;24;40.5208;22.9722
SKN;Skagen;Skagen;Skagen;NO;SKN;0;68.5811;15.0272
SKP;Скопье;Skopje;Скопьє;MK;SKP;7;41.9667;21.6333
SKT;Sialkot;Sialkot;Sialkot;PK;SKT;0;32.5333;74.5
SLA;General Belgrano;General Belgrano;General Belgrano;AR;SLA;0;-24.855;-65.4722
SLC;Солт-Лейк-Сити;Salt Lake City;Солт-Лейк-Сіті;US;SLC;0;40.7842;-111.967
SLE;McNary Field;McNary Field;McNary Field;US;SLE;0;44.9953;-123.025
SLK;Adirondack;Adirondack;Adirondack;US;SLK;0;44.3828;-74.2067
SLL;Салалах;Salalah;Салалах;OM;SLL;0;17.0364;54.1017
SLM;Матакан;Matacan;Матакан;ES;SLM;0;40.9667;-5.65
SLN;Салина;Salina;Саліна;US;SLN;0;38.7908;-97.6525
SLP;San Luis Potosi;San Luis Potosi;San Luis Potosi;MX;SLP;0;22.1772;-100.988
SLU;Vigie Field;Vigie Field;Vigie Field;LC;SLU;0;14.0192;-60.9928
SLV;Симла;Simla;Сімла;IN;SLV;0;31.1167;77.15
SLW;Saltillo;Saltillo;Saltillo;MX;SLW;0;25.55;-100.917
SLZ;Mal Cunha Machado;Mal Cunha Machado;Mal Cunha Machado;BR;SLZ;0;-2.58333;-44.2333
SMA;Vilo Do Porto;Vilo Do Porto;Vilo Do Porto;PT;SMA;0;36.9667;-25.1
SME;Пуласки окр.;Pulaski County;Пуласкі окр.;US;SME;0;37.0833;-84.6
SMF;Сакраменто;Sacramento;Сакраменто;US;SAC;0;38.6956;-121.598
SMI;Самос;Samos;Самос;GR;SMI;1;37.6889;26.9139
SML;Stella Maris;Stella Maris;Stella Maris;BS;SML;0;23.5833;-75.2681
SMO;Санта-Моника;Santa Monica;Санта-Моніка;US;LAX;0;34.0167;-118.5
SMR;Симон Боливар;Simon Bolivar;Сімон Болівар;CO;SMR;0;11.1222;-74.2286
SMS;St Marie;St Marie;St Marie;MG;SMS;0;-17.0833;49.8167
SMX;Santa Maria Public;Santa Maria Public;Santa Maria Public;US;SMX;0;34.905;-120.458
SNA;Джон Уэйн;John Wayne;Джон Уейн;US;SNA;0;33.6756;-117.867
SNE;Preguica;Preguica;Preguica;CV;SNE;0;16.5869;-24.2886
SNN;Шэннон;Shannon;Шеннон;IE;SNN;0;52.7006;-8.91861
SNO;Sakon Nakhon;Sakon Nakhon;Sakon Nakhon;TH;SNO;0;17.2833;104.1
SNR;Montoir;Montoir;Montoir;FR;SNR;0;47.2911;-2.18222
SNS;Салинас;Salinas;Салінас;US;SNS;0;36.6667;-121.65
SNU;Санта-Клара;Santa Clara;Санта-Клара;CU;SNU;0;22.4919;-79.9419
SOC;Adi Sumarno;Adi Sumarno;Adi Sumarno;ID;SOC;0;-7.5;110
SOF;София Враждебна;Sofia Vrazhdebna;Софія Враждєбна;BG;SOF;11;42.7;23.4
SOG;Haukasen;Haukasen;Haukasen;NO;SOG;0;61.1578;7.13694
SOM;El Tigre;El Tigre;El Tigre;VE;SOM;0;8.94917;-64.1458
SON;Пекоа;Pekoa;Пекоа;VU;SON;0;-15.5167;167.217
SOQ;Jefman;Jefman;Jefman;ID;SOQ;0;-0.933333;131.117
SOU;Саутгемптон;Southampton;Саутгемптон;GB;SOU;0;50.9517;-1.35194
SOV;Seldovia;Seldovia;Seldovia;US;SOV;0;59.45;-151.717
SOW;Show Low;Show Low;Show Low;US;SOW;0;34.2644;-110.004
SOY;Stronsay;Stronsay;Stronsay;GB;SOY;0;59.1333;-2.63333
SPC;Ла-Пальма;La Palma;Ла-Пальма;ES;SPC;0;28.6208;-17.7542
SPI;Capital;Capital;Capital;US;SPI;0;39.8442;-89.6789
SPN;Saipan;Saipan;Saipan;MP;SPN;0;15.1228;145.712
SPR;Сан-Педро;San Pedro;Сан-Педро;BZ;SPR;0;17.9111;-87.9686
SPS;Вичита-Фоллс;Wichita Falls;Вічіта-Фоллс;US;SPS;0;33.9883;-98.4919
SPU;Сплит;Split;Спліт;HR;SPU;4;43.525;16.2922
SQO;Гуннарн;Gunnarn;Гуннарн;SE;SQO;1;64.9622;17.8
SRE;Сукре;Sucre;Сукре;BO;SRE;0;-19.0078;-65.3017
SRG;Achmad Uani;Achmad Uani;Achmad Uani;ID;SRG;0;-6.97583;110.38
SRP;Stord;Stord;Stord;NO;SRP;0;59.8333;5.41667
SRQ;Sarasota Bradenton;Sarasota Bradenton;Sarasota Bradenton;US;SRQ;0;27.3939;-82.5542
SRZ;El Trompillo;El Trompillo;El Trompillo;BO;SRZ;0;-17.8042;-63.1725
SSA;Luis E Magalhaes;Luis E Magalhaes;Luis E Magalhaes;BR;SSA;0;-12.9167;-38.3333
SSG;Santa Isabel;Santa Isabel;Santa Isabel;GQ;SSG;0;3.75278;8.70556
SSH;Ophira;Ophira;Ophira;EG;SSH;39;27.85;34.2667
SSJ;Стокка;Stokka;Стокка;NO;SSJ;0;65.9583;12.4714
STC;Saint Cloud;Saint Cloud;Saint Cloud;US;STC;0;45.55;-94.1667
STD;Mayor Humberto Vivas Guerrero;Mayor Humberto Vivas Guerrero;Mayor Humberto Vivas Guerrero;VE;STD;0;7.58333;-72.0667
STI;Сантьяго;Santiago;Сантьяго;DO;STI;2;19.4692;-70.7003
STL;Lambert St Louis;Lambert St Louis;Lambert St Louis;US;STL;16;38.7472;-90.3644
STM;Eduardo Gomes;Eduardo Gomes;Eduardo Gomes;BR;STM;0;-2.43333;-54.7
STN;Стенстед;Stansted;Стенстед;GB;LON;0;51.8833;0.233333
STP;Downtown St Paul;Downtown St Paul;Downtown St Paul;US;STP;0;44.9333;-93.0667
STR;Echterdingen;Echterdingen;Echterdingen;DE;STR;3;48.6883;9.21
STS;Сонома окр.;Sonoma Cty;Сонома окр.;US;STS;0;38.5089;-122.812
STT;Cyril E King;Cyril E King;Cyril E King;US;STT;0;18.3375;-64.9694
STW;Ставрополь;Stavropol;Ставропіль;RU;STW;0;45.3333;42.0083
STX;Alexander Hamilton;Alexander Hamilton;Alexander Hamilton;US;STX;0;17.7019;-64.7986
SUA;Witham Field;Witham Field;Witham Field;US;SUA;0;27.2;-80.25
SUB;Juanda;Juanda;Juanda;ID;SUB;0;-7.21806;112.721
SUF;S Eufemia;S Eufemia;S Eufemia;IT;SUF;0;38.9;16.25
SUN;Friedman Memorial;Friedman Memorial;Friedman Memorial;US;SUN;0;43.5042;-114.308
SUS;Spirit Of St Louis;Spirit Of St Louis;Spirit Of St Louis;US;STL;0;38.75;-90.3667
SUU;Travis база ВВС;Travis AFB;Travis база ВВС;US;SUU;0;38.2625;-121.927
SUV;Nausori;Nausori;Nausori;FJ;SUV;1;-18.0333;178.55
SUX;Sioux Gateway;Sioux Gateway;Sioux Gateway;US;SUX;0;42.4019;-96.3842
SVB;Самбава;Sambava;Самбава;MG;SVB;0;-14.2769;50.175
SVC;Грант окр.;Grant County;Грант окр.;US;SVC;0;32.6319;-108.154
SVD;Arnos Vale;Arnos Vale;Arnos Vale;VC;SVD;0;13.1333;-61.2
SVG;Sola;Sola;Sola;NO;SVG;0;58.8797;5.63472
SVJ;Helle;Helle;Helle;NO;SVJ;0;68.2417;14.6722
SVL;Савонлинна;Savonlinna;Савонлінна;FI;SVL;0;61.95;28.95
SVO;Шереметьево;Sheremetyevo;Шереметьєво;RU;MOW;1142;55.9662;37.416
SVQ;Сан-Пабло;San Pablo;Сан-Пабло;ES;SVQ;4;37.415;-5.8975
SVU;Савусаву;Savusavu;Савусаву;FJ;SVU;0;-16.8028;179.344
SVX;Свердловск;Koltsovo;Свердловськ;RU;SVX;68;56.85;60.6
SWA;Shantou;Shantou;Shantou;CN;SWA;0;23.3833;116.683
SWF;Стюарт;Stewart;Стюарт;US;SWF;0;41.5058;-74.0972
SXB;Enzheim;Enzheim;Enzheim;FR;SXB;0;48.5333;7.63333
SXF;Шенефельд;Schoenefeld;Шенефельд;DE;BER;0;52.3667;13.5
SXL;Collooney;Collooney;Collooney;IE;SXL;0;54.2833;-8.46667
SXM;Princ Juliana;Princ Juliana;Princ Juliana;AN;SXM;0;18.0436;-63.1119
SXR;Шринагар;Srinagar;Шрінагар;IN;SXR;0;33.9881;74.7753
SYD;Sydney Kingsford Smith;Sydney Kingsford Smith;Sydney Kingsford Smith;AU;SYD;62;-33.9442;151.176
SYO;Shonai;Shonai;Shonai;JP;SYO;0;38.8094;139.791
SYR;Ханкок;Hancock;Ханкок;US;SYR;0;43.1106;-76.1025
SYX;Sanya;Sanya;Sanya;CN;SYX;0;18.3;109.4
SYY;Stornoway;Stornoway;Stornoway;GB;SYY;0;58.2161;-6.32917
SYZ;Шираз;Shiraz;Шираз;IR;SYZ;0;29.5403;52.5908
SZB;Sultan Abdul Aziz Shah;Sultan Abdul Aziz Shah;Sultan Abdul Aziz Shah;MY;KUL;0;3.13333;101.55
SZF;Карсамба;Carsamba;Карсамба;TR;SSX;0;41.25;36.55
SZG;В А Моцарт;W A Mozart;В А Моцарт;AT;SZG;4;47.7931;13.0056
SZX;Shenzhen;Shenzhen;Shenzhen;CN;SZX;0;22.5667;113.933
SZZ;Goleniow;Goleniow;Goleniow;PL;SZZ;0;53.5833;14.9
TAB;Crown Point;Crown Point;Crown Point;TT;TAB;0;11.1464;-60.8367
TAC;D Z Romualdez;D Z Romualdez;D Z Romualdez;PH;TAC;0;11.2344;125.019
TAE;Даегу;Daegu;Даєгу;KR;TAE;0;35.8833;128.667
TAH;Танна;Tanna;Танна;VU;TAH;0;-19.3333;169.25
TAK;Такамацу;Takamatsu;Такамацу;JP;TAK;0;34.2903;134.073
TAL;Ralph Calhoun;Ralph Calhoun;Ralph Calhoun;US;TAL;1;65.175;-152.108
TAM;General F Javier Mina;General F Javier Mina;General F Javier Mina;MX;TAM;0;22.2744;-97.8017
TAO;Liuting;Liuting;Liuting;CN;TAO;0;36.1;120.317
TAP;Tapachula;Tapachula;Tapachula;MX;TAP;0;14.9097;-92.2531
TAR;M A Grottag;M A Grottag;M A Grottag;IT;TAR;0;40.5178;17.4019
TAS;Восточный;Vostochny;Восточний;UZ;TAS;15;41.25;69.2833
TAT;Татры Попрад;Poprad Tatry;Татри Попрад;SK;TAT;0;49.0719;20.2403
TBB;Tuy Hoa;Tuy Hoa;Tuy Hoa;VN;TBB;0;13.0442;109.34
TBG;Tabubil;Tabubil;Tabubil;PG;TBG;0;-5.38333;141.317
TBN;Forney Field;Forney Field;Forney Field;US;TBN;0;37.7414;-92.1406
TBP;Tumbes;Tumbes;Tumbes;PE;TBP;0;-3.56667;-80.4167
TBS;Новоалексеевка;Novo Alexeyevka;Новоалексіївка;GE;TBS;7;41.6667;44.95
TBU;Тонгатапу;Tongatapu;Тонгатапу;TO;TBU;0;-21.25;-175.15
TCB;Treasure Cay;Treasure Cay;Treasure Cay;BS;TCB;0;26.735;-77.3722
TCP;Ras An Naqb;Ras An Naqb;Ras An Naqb;EG;TCP;0;29.55;34.9167
TDD;Тринидад;Trinidad;Трінідад;BO;TDD;0;-14.6833;-64.8333
TDX;Trat;Trat;Trat;TH;TDX;0;12.2681;102.317
TEB;Teterboro;Teterboro;Teterboro;US;TEB;0;40.8497;-74.0622
TEN;Tongren;Tongren;Tongren;CN;TEN;0;27.6333;109.05
TER;Lajes;Lajes;Lajes;PT;TER;0;38.7567;-27.0942
TET;Матунда;Matunda;Матунда;MZ;TET;0;-16.1033;33.6389
TEX;Telluride;Telluride;Telluride;US;TEX;0;37.9333;-107.817
TFN;Tenerife Norte Los Rodeos;Tenerife Norte Los Rodeos;Tenerife Norte Los Rodeos;ES;TCI;4;28.4731;-16.3328
TFS;Reina Sofia;Reina Sofia;Reina Sofia;ES;TCI;0;28.05;-16.5667
TGD;Голубовцы;Golubovci;Голубівці;ME;TGD;32;42.3583;19.2519
TGG;Султан Махмуд;Sultan Mahmood;Султан Махмуд;MY;TGG;0;5.38111;103.11
TGM;Tirgu Mures;Tirgu Mures;Tirgu Mures;RO;TGM;0;46.5333;24.5333
TGU;Тонконтин;Toncontin;Тонконтін;HN;TGU;0;14.0597;-87.2175
TGZ;Llano San Juan;Llano San Juan;Llano San Juan;MX;TGZ;0;16.7333;-93.1833
THE;Teresina;Teresina;Teresina;BR;THE;0;-5.06528;-42.8178
THN;Trollhattan;Trollhattan;Trollhattan;SE;THN;0;58.2667;12.3
THR;Mehrabad;Mehrabad;Mehrabad;IR;THR;0;35.6897;51.3158
THS;Sukhothai;Sukhothai;Sukhothai;TH;THS;0;17.2231;99.8222
TIA;Ринас;Rinas;Рінас;AL;TIA;4;41.4169;19.7167
TIF;Таиф;Taif;Таїф;SA;TIF;0;21.4883;40.5433
TIH;Tikehau;Tikehau;Tikehau;PF;TIH;0;-15;-147.75
TIJ;Gen Abelardo Rodriguez;Gen Abelardo Rodriguez;Gen Abelardo Rodriguez;MX;TIJ;0;32.5414;-116.97
TIM;Тимка;Timika;Тімка;ID;TIM;0;-4.53333;136.917
TIP;Триполи;Tripoli;Тріполі;LY;TIP;37;32.9056;13.2773
TIQ;Tinian;Tinian;Tinian;MP;TIQ;0;15.0019;145.625
TIR;Тирупати;Tirupati;Тірупаті;IN;TIR;0;13.6333;79.55
TIU;Тимару;Timaru;Тімару;NZ;TIU;0;-44.3028;171.225
TIV;Тиват;Tivat;Тіват;ME;TIV;33;42.4036;18.7256
TIW;Tacoma Industrial;Tacoma Industrial;Tacoma Industrial;US;TIW;0;47.2706;-122.573
TIZ;Тари;Tari;Тарі;PG;TIZ;0;-5.86056;142.941
TJA;Tarija;Tarija;Tarija;BO;TJA;0;-21.5542;-64.7458
TJM;Тюмень;Tyumen;Тюмень;RU;TJM;10;57.1833;65.4833
TJQ;Bulutumbang;Bulutumbang;Bulutumbang;ID;TJQ;0;-2.75;107.65
TKG;Bandar Lampung;Bandar Lampung;Bandar Lampung;ID;TKG;0;-5.53333;105.117
TKJ;Tok;Tok;Tok;US;TKJ;0;63.3;-143
TKK;Truk;Truk;Truk;FM;TKK;0;7.46667;151.85
TKN;Токуносима;Tokunoshima;Токуносіма;JP;TKN;0;27.8333;128.883
TKS;Токусима;Tokushima;Токусима;JP;TKS;0;34.1297;134.602
TKU;Турку;Turku;Турку;FI;TKU;0;60.5142;22.2706
TLC;Morelos;Morelos;Morelos;MX;TLC;0;19.2833;-99.6667
TLE;Tulear;Tulear;Tulear;MG;TLE;0;-23.3897;43.7242
TLH;Талахасси;Tallahassee;Талахассі;US;TLH;0;30.3997;-84.3519
TLL;Улемисте;Ulemiste;Улемісте;EE;TLL;5;59.4167;24.75
TLN;Le Palyvestre;Le Palyvestre;Le Palyvestre;FR;TLN;6;43.1;6.15
TLS;Бланьяк;Blagnac;Бланьяк;FR;TLS;0;43.6303;1.365
TLV;Бен-Гурион;Ben Gurion;Бен-Гуріон;IL;TLV;220;32.0122;34.8825
TMM;Таматаве;Tamatave;Таматаве;MG;TMM;0;-18.11;49.3922
TMP;Тампере Пирккала;Tampere Pirkkala;Тампере Пірккала;FI;TMP;0;61.4639;23.7389
TMU;Тамбор;Tambor;Тамбор;CR;TMU;0;9.73333;-85.0167
TMW;Тамуорт;Tamworth;Тамуорт;AU;TMW;0;-31.0819;150.846
TNA;Jinan;Jinan;Jinan;CN;TNA;0;36.75;116.967
TNG;Boukhalef;Boukhalef;Boukhalef;MA;TNG;0;35.7167;-5.91667
TNN;Tainan;Tainan;Tainan;TW;TNN;0;22.9519;120.2
TNO;Тамариндо;Tamarindo;Тамаріндо;CR;TNO;0;10.9167;-85.45
TNR;Ivato;Ivato;Івато;MG;TNR;0;-18.8;47.4833
TOD;Тиоман;Tioman;Тіоман;MY;TOD;0;2.75;104.167
TOE;Tozeur;Tozeur;Tozeur;TN;TOE;0;33.9167;8.13333
TOF;Томск;Tomsk;Томськ;RU;TOF;5;56.5;84.9667
TOG;Togiak Village;Togiak Village;Togiak Village;US;TOG;0;59.0567;-160.382
TOL;Toledo Express;Toledo Express;Toledo Express;US;TOL;0;41.5908;-83.8008
TOS;Тромсе Лангнес;Tromso Langnes;Тромсе Лангнес;NO;TOS;0;69.6814;18.9217
TOY;Тояма;Toyama;Тояма;JP;TOY;0;36.6442;137.189
TPA;Тампа;Tampa;Тампа;US;TPA;0;27.9731;-82.5353
TPE;Чан Кай-Ши;Chiang Kai Shek;Чан Кай-Ші;TW;TPE;1;25.0771;121.232
TPQ;Tepic;Tepic;Tepic;MX;TPQ;0;21.5;-104.9
TPS;Birgi;Birgi;Birgi;IT;TPS;0;37.9117;12.4864
TQR;San Domino Island;San Domino Island;San Domino Island;IT;TQR;0;42.1167;15.4833
TRC;Francisco Sarabia;Francisco Sarabia;Francisco Sarabia;MX;TRC;0;25.5683;-103.411
TRD;Trondheim Vaernes;Trondheim Vaernes;Trondheim Vaernes;NO;TRD;0;63.45;10.9333
TRE;Tiree;Tiree;Tiree;GB;TRE;0;56.5006;-6.87139
TRF;Сандефьорд;Sandefjord;Сандефьорд;NO;OSL;0;59.1833;10.2667
TRG;Тауранга;Tauranga;Тауранга;NZ;TRG;0;-37.6708;176.194
TRI;Tri City региональный;Tri City Regional;Tri City региональный;US;TRI;0;36.5521;-82.4742
TRK;Tarakan Arpt;Tarakan;Tarakan Arpt;ID;TRK;0;3.32722;117.565
TRN;Citta Di Torino;Citta Di Torino;Citta Di Torino;IT;TRN;8;45.2011;7.64806
TRO;Taree;Taree;Taree;AU;TRO;0;-31.8167;152.65
TRS;Ronchi Dei Legionari;Ronchi Dei Legionari;Ronchi Dei Legionari;IT;TRS;0;45.8333;13.4667
TRU;Трухильо;Trujillo;Трухільо;PE;TRU;0;-8.09;-79.115
TRV;Thiruvananthapuram;Thiruvananthapuram;Thiruvananthapuram;IN;TRV;2;8.47972;76.9197
TRW;Бонрики;Bonriki;Бонрікі;KI;TRW;0;1.35833;172.942
TRZ;Tiruchirapally гражданский;Tiruchirapally Civil;Tiruchirapally гражданский;IN;TRZ;0;10.765;78.7133
TSA;Sung Shan;Sung Shan;Sung Shan;TW;TPE;0;25.0623;121.551
TSE;Астана;Astana;Астана;KZ;TSE;30;51.1667;71.5
TSF;Тревизо;Treviso;Тревізо;IT;TSF;0;45.6667;12.25
TSJ;Цусима;Tsushima;Цусіма;JP;TSJ;0;34.2833;129.317
TSN;Tianjin;Tianjin;Tianjin;CN;TSN;0;39.1189;117.347
TSO;Треско;Tresco;Треско;GB;ISC;0;48.95;-6.25
TSR;Тимисоара;Timisoara;Тімісоара;RO;TSR;0;45.8167;21.3333
TSS;East 34th St г/п;East 34th St Hlpt;East 34th St г/п;US;NYC;0;40.7667;-74.1667
TST;Транг;Trang;Транг;TH;TST;0;7.5;99.6167
TSV;Таунсвилль;Townsville;Таунсвілль;AU;TSV;0;-19.25;146.767
TTJ;Тоттори;Tottori;Тотторі;JP;TTJ;0;35.5267;134.17
TTN;Trenton Mercer;Trenton Mercer;Trenton Mercer;US;TTN;0;40.2781;-74.8125
TTQ;Тортукеро;Tortuquero;Тортукеро;CR;TTQ;0;10.5667;-83.5167
TTT;Taitung;Taitung;Taitung;TW;TTT;0;22.75;121.1
TUC;Benjamin Matienzo;Benjamin Matienzo;Benjamin Matienzo;AR;TUC;0;-26.8333;-65.2
TUF;Saint Symphorien;Saint Symphorien;Saint Symphorien;FR;TUF;0;47.4283;0.7275
TUI;Turaif;Turaif;Turaif;SA;TUI;0;31.695;38.6317
TUK;Турбат;Turbat;Турбат;PK;TUK;0;25.9833;63.0667
TUL;Талса;Tulsa;Талса;US;TUL;0;36.1978;-95.8897
TUN;Carthage;Carthage;Carthage;TN;TUN;0;36.8525;10.2294
TUO;Таупо;Taupo;Таупо;NZ;TUO;0;-38.7422;176.084
TUP;C D Lemons;C D Lemons;C D Lemons;US;TUP;0;34.2589;-88.7672
TUS;Туксон;Tucson;Туксон;US;TUS;0;32.125;-110.949
TUU;Табук;Tabuk;Табук;SA;TUU;0;28.3722;36.6253
TVC;Cherry Capital;Cherry Capital;Cherry Capital;US;TVC;0;44.74;-85.5858
TVF;Thief River Falls;Thief River Falls;Thief River Falls;US;TVF;0;48.0661;-96.185
TVU;Matei;Matei;Matei;FJ;TVU;0;-16.6931;179.874
TWA;Twin Hills;Twin Hills;Twin Hills;US;TWA;0;59.1667;-159.992
TWF;Twin Falls City окр.;Twin Falls City County;Twin Falls City окр.;US;TWF;0;42.4819;-114.487
TWU;Тавау;Tawau;Тавау;MY;TWU;0;4.26417;117.885
TXK;Тексаркана;Texarkana;Тексаркана;US;TXK;0;33.4564;-93.9892
TXL;Тегель;Tegel;Тегель;DE;BER;212;52.5606;13.2956
TXN;Tunxi;Tunxi;Tunxi;CN;TXN;0;29.7333;118.3
TYN;Taiyuan;Taiyuan;Taiyuan;CN;TYN;0;37.75;112.617
TYR;Pounds Field;Pounds Field;Pounds Field;US;TYR;0;32.3547;-95.3989
TYS;McGhee Tyson;McGhee Tyson;McGhee Tyson;US;TYS;0;35.8122;-83.9925
TZA;Белиз-сити;Belize City;Беліз-сіті;BZ;BZE;0;17.5333;-88.3
TZN;South Andros;South Andros;South Andros;BS;TZN;0;24.165;-77.5853
TZX;Трабзон;Trabzon;Трабзон;TR;TZX;0;40.9986;39.7764
UAK;Нарсарсуак;Narsarsuaq;Нарсарсуак;GL;UAK;0;61.1667;-45.3167
UAM;Anderson база ВВС;Anderson Air Force Base;Anderson база ВВС;GU;GUM;0;13.4667;144.767
UAQ;Сан-Хуан;San Juan;Сан-Хуан;AR;UAQ;0;-31.55;-68.5167
UAS;Самбуру аэродром;Samburu Airstrip;Самбуру аеродром;KE;UAS;0;0.466667;37.55
UBA;Убераба;Uberaba;Убераба;BR;UBA;0;-19.7764;-47.9583
UBJ;Убе;Ube;Убе;JP;UBJ;0;33.9258;131.274
UBP;Muang Ubon;Muang Ubon;Muang Ubon;TH;UBP;0;15.2489;104.874
UDI;Эдуардо Гомес;Eduardo Gomes Airprt;Едуардо Гомес;BR;UDI;0;-18.9;-48.2333
UDR;Дабок;Dabok;Дабок;IN;UDR;0;24.615;73.8961
UEO;Kumejima;Kumejima;Kumejima;JP;UEO;0;26.3653;126.719
UFA;Уфа;Ufa;Уфа;RU;UFA;25;54.7333;55.9333
UGC;Ургенч;Urgench;Ургенч;UZ;UGC;0;41.65;60.5333
UGN;Memorial;Memorial;Memorial;US;UGN;0;42.3667;-87.8333
UIH;Qui Nhon;Qui Nhon;Qui Nhon;VN;UIH;0;13.7661;109.226
UIN;Baldwin Field;Baldwin Field;Baldwin Field;US;UIN;0;39.9442;-91.1972
UIO;Mariscal;Mariscal;Mariscal;EC;UIO;24;-0.137778;-78.4861
UIP;Pluguffan;Pluguffan;Pluguffan;FR;UIP;0;47.9744;-4.17083
UKB;Кобе;Kobe;Кобе;JP;UKB;0;34.75;135.167
UKI;Ukiah;Ukiah;Ukiah;US;UKI;0;39.1267;-123.2
UKK;Усть-Каменогорск;Ust Kamenogorsk;Усть-Кам'яногорськ;KZ;UKK;0;50.0333;82.5
ULN;Buyant Uhaa;Buyant Uhaa;Buyant Uhaa;MN;ULN;7;47.9;106.867
ULP;Quilpie;Quilpie;Quilpie;AU;ULP;0;-26.6333;144.3
ULV;Баратаевка;Baratayevka;Баратаевка;RU;ULY;0;54.2705;48.2236
ULY;Восточный;Vostochny;Восточний;RU;ULY;0;54.4;48.8
UME;Умеа;Umea;Умеа;SE;UME;0;63.7936;20.2844
UNK;Уналаклит;Unalakleet;Уналакліт;US;UNK;0;63.8847;-160.794
UNN;Ranong;Ranong;Ranong;TH;UNN;0;9.85278;98.6292
UPG;Hasanudin;Hasanudin;Hasanudin;ID;UPG;0;-5.06667;119.55
UPN;Уруапан;Uruapan;Уруапан;MX;UPN;0;19.4111;-102.047
URA;Уральск;Uralsk;Уральськ;KZ;URA;0;51.15;51.55
URC;Urumqi;Urumqi;Urumqi;CN;URC;0;43.9;87.4833
URE;Курессаре;Kuressaare;Курессаре;EE;URE;0;58.2167;22.5
URO;Boos;Boos;Boos;FR;URO;0;49.3886;1.1875
URS;Курск;Kursk;Курськ;RU;URS;0;51.75;36.2667
URT;Surat Thani;Surat Thani;Surat Thani;TH;URT;0;9.13333;99.3167
URY;Гураят;Gurayat;Гураят;SA;URY;0;31.3333;37.3333
USH;Мальвинские острова;Islas Malvinas;Мальвінскі острови;AR;USH;1;-54.8028;-68.3278
USK;Усинск;Usinsk;Усінськ;RU;USK;0;65.95;57.4
USM;Koh Samui;Koh Samui;Koh Samui;TH;USM;4;9.55;100.067
USN;Ulsan;Ulsan;Ulsan;KR;USN;0;32.5833;129.35
UST;St Augustine;St Augustine;St Augustine;US;UST;0;29.95;-81.3333
UTH;Udon Thani;Udon Thani;Udon Thani;TH;UTH;0;17.385;102.793
UTN;Upington;Upington;Upington;ZA;UTN;0;-28.4006;21.2533
UTP;U Tapao;U Tapao;U Tapao;TH;UTP;0;12.6833;101.017
UTT;K D Matanzima;K D Matanzima;K D Matanzima;ZA;UTT;0;-31.5833;28.7833
UUD;Байкал;Baikal;Улан-Уде;RU;UUD;4;51.8333;107.5
UUS;Южно-Сахалинск;Yuzhno Sakhalinsk;Южно-Сахалінськ;RU;UUS;1;46.9667;142.75
UVF;Hewanorra;Hewanorra;Hewanorra;LC;UVF;0;13.7356;-60.9522
VAA;Vaasa;Vaasa;Vaasa;FI;VAA;0;63.045;21.7614
VAI;Ванимо;Vanimo;Ванімо;PG;VAI;0;-2.69472;141.302
VAN;Van Arpt;Van;Van Arpt;TR;VAN;0;38.4586;43.3322
VAR;Варна;Varna;Варна;BG;VAR;5;43.2325;27.8256
VAS;Сивас;Sivas;Сівас;TR;VAS;0;39.8139;36.9042
VAV;Lupepau U;Lupepau U;Lupepau U;TO;VAV;0;-18.5833;-173.967
VAW;Vardoe Luftan;Vardoe Luftan;Vardoe Luftan;NO;VAW;0;70.3547;31.0456
VBS;Montichiari;Montichiari;Montichiari;IT;VRN;0;45.4286;10.3314
VBY;Висбю;Visby;Вісбю;SE;VBY;0;57.6631;18.3494
VCA;Can Tho;Can Tho;Can Tho;VN;VCA;0;10.0472;105.766
VCE;Марко Поло;Marco Polo;Марко Поло;IT;VCE;43;45.5;12.35
VCL;Chulai;Chulai;Chulai;VN;VCL;0;15.4222;108.704
VCP;Viracopos;Viracopos;Viracopos;BR;SAO;0;-23;-47.1333
VCT;Виктория региональный;Victoria Regional;Віктория регіональний;US;VCT;0;28.8511;-96.9144
VCV;George база ВВС;George AFB;George база ВВС;US;VCV;0;34.5333;-117.3
VDA;Овда;Ovda;Овда;IL;VDA;0;29.9333;34.9472
VDB;Valdres;Valdres;Valdres;NO;VDB;0;61.0833;9.33333
VDE;Hierro;Hierro;Hierro;ES;VDE;0;27.8128;-17.8853
VDM;Viedma;Viedma;Viedma;AR;VDM;0;-40.85;-63.0167
VDS;Vadso;Vadso;Vadso;NO;VDS;0;70.065;29.8453
VDZ;Valdez;Valdez;Valdez;US;VDZ;0;61.1325;-146.239
VEL;Vernal;Vernal;Vernal;US;VEL;0;40.4389;-109.51
VER;Las Bajadas General Heriberto Jara;Las Bajadas General Heriberto Jara;Las Bajadas General Heriberto Jara;MX;VER;0;19.15;-96.1833
VEY;Vestmannaeyjar;Vestmannaeyjar;Vestmannaeyjar;IS;VEY;0;63.4264;-20.2778
VFA;Victoria Falls;Victoria Falls;Victoria Falls;ZW;VFA;0;-18.0931;25.8403
VGO;Виго;Vigo;Віго;ES;VGO;0;42.2264;-8.62778
VGT;Las Vegas North Air Terminal;Las Vegas North Air Terminal;Las Vegas North Air Terminal;US;LAS;0;36.0967;-115.169
VHM;Вильгельмина;Vilhelmina;Вільгельміна;SE;VHM;0;64.6167;16.65
VIE;Вена;Vienna;Вена;AT;VIE;210;48.1111;16.5583
VIG;El Vigia;El Vigia;El Vigia;VE;VIG;0;8.63333;-71.65
VII;Vinh City;Vinh City;Vinh City;VN;VII;0;18.7;105.633
VIJ;Virgin Gorda;Virgin Gorda;Virgin Gorda;VG;VIJ;0;18.5;-64.5
VIL;Dakhla;Dakhla;Dakhla;MA;VIL;0;23.7133;-15.935
VIS;Visalia;Visalia;Visalia;US;VIS;0;36.3194;-119.394
VIT;Vitoria;Vitoria;Vitoria;ES;VIT;0;42.8333;-2.5
VIX;Eurico Sales;Eurico Sales;Eurico Sales;BR;VIX;0;-20.2644;-40.2875
VKG;Rach Gia;Rach Gia;Rach Gia;VN;VKG;0;10.0833;105.083
VKO;Внуково;Vnukovo;Внуково;RU;MOW;10;55.6048;37.2897
VLC;Валенсия;Valencia;Валенсія;ES;VLC;43;39.4903;-0.478611
VLD;Valdosta региональный;Valdosta Regional;Valdosta региональный;US;VLD;0;30.7839;-83.2772
VLI;Bauerfield;Bauerfield;Bauerfield;VU;VLI;0;-17.6667;168.237
VLL;Вальядолид;Valladolid;Вальядолід;ES;VLL;0;41.7;-4.85
VLN;Валенсия;Valenica;Валенсія;VE;VLN;0;10.1833;-68
VLV;Carvajal;Carvajal;Carvajal;VE;VLV;0;9.33917;-70.5858
VLY;Anglesey Arpt;Anglesey;Anglesey Arpt;GB;VLY;0;0;0
VNO;Вильнюс;Vilnius;Вильнюс;LT;VNO;32;54.6333;25.2833
VNS;Бабатпур;Babatpur;Бабатпур;IN;VNS;0;25.4519;82.8631
VNX;Vilanculos;Vilanculos;Vilanculos;MZ;VNX;0;-22.0167;35.2833
VNY;Van Nuys;Van Nuys;Van Nuys;US;LAX;0;34.2;-118.5
VOG;Волгоград;Volgograd;Волгоград;RU;VOG;19;48.75;44.5
VOZ;Воронеж;Voronezh;Вороніж;RU;VOZ;0;51.6667;39.2167
VPS;Ft Walton Beach;Ft Walton Beach;Ft Walton Beach;US;VPS;0;30.4894;-86.5272
VQS;Vieques;Vieques;Vieques;US;VQS;0;18.1142;-65.4225
VRA;Juan Gualberto Gomez;Juan Gualberto Gomez;Juan Gualberto Gomez;CU;VRA;5;23.1667;-81.2667
VRB;Vero Beach;Vero Beach;Vero Beach;US;VRB;0;27.6525;-80.4136
VRK;Varkaus;Varkaus;Varkaus;FI;VRK;0;62.3;27.9333
VRN;Верона;Verona;Вєрона;IT;VRN;11;45.4667;10.9333
VSA;Capt Carlos Rovirosa Perez;Capt Carlos Rovirosa Perez;Capt Carlos Rovirosa Perez;MX;VSA;0;17.9667;-92.9333
VSG;Луганск;Lugansk;Луганськ;UA;VSG;4;48.5667;39.3333
VST;Hasslo;Hasslo;Hasslo;SE;STO;0;59.5892;16.6306
VTE;Wattay;Wattay;Wattay;LA;VTE;0;17.9847;102.567
VTZ;Vishakhapatnam;Vishakhapatnam;Vishakhapatnam;IN;VTZ;0;17.7211;83.2247
VVI;Viru Viru;Viru Viru;Viru Viru;BO;SRZ;0;-17.6333;-63.1333
VVO;Владивосток;Vladivostok;Владівосток;RU;VVO;32;43.3986;132.152
VXE;Сан-Педро;San Pedro;Сан-Педро;CV;VXE;1;16.85;-24.9667
VXO;Vaxjo;Vaxjo;Vaxjo;SE;VXO;0;56.9333;14.7333
WAG;Wanganui;Wanganui;Wanganui;NZ;WAG;0;-39.9667;175.024
WAT;Waterford;Waterford;Waterford;IE;WAT;0;52.1972;-7.08889
WAW;Варшава;Warsaw;Варшава;PL;WAW;128;52.1667;20.9667
WDH;Hosea Kutako;Hosea Kutako;Hosea Kutako;NA;WDH;0;-22.4833;17.4667
WEF;Вэйфан;Weifang;Вейфан;CN;WEF;0;36.75;119.217
WEH;Weihai;Weihai Arpu;Weihai;CN;WEH;0;37.5;122.083
WEI;Weipa;Weipa;Weipa;AU;WEI;0;-12.6836;141.883
WGA;Forrest Hill;Forrest Hill;Forrest Hill;AU;WGA;0;-35.1667;147.464
WHK;Whakatane;Whakatane;Whakatane;NZ;WHK;0;-37.9222;176.914
WIC;Wick;Wick;Wick;GB;WIC;0;58.4569;-3.08667
WIL;Wilson;Wilson;Wilson;KE;NBO;0;-1.31667;36.8167
WKA;Ванака;Wanaka;Ванака;NZ;WKA;0;-44.7333;169.25
WKJ;Хоккайдо;Hokkaido;Хоккайдо;JP;WKJ;0;45.4167;141.667
WLG;Веллингтон;Wellington;Веллінгтон;NZ;WLG;9;-41.3239;174.801
WLK;Селавик;Selawik;Селавік;US;WLK;0;66.6028;-159.983
WNR;Windorah;Windorah;Windorah;AU;WNR;0;-25.4167;142.667
WNS;Nawabshah;Nawabshah;Nawabshah;PK;WNS;0;26.2194;68.3922
WNZ;Венчжоу;Wenzhou;Венчжоу;CN;WNZ;0;27.95;120.633
WRE;Whangarei;Whangarei;Whangarei;NZ;WRE;0;-35.7722;174.361
WRG;Wrangell база гидросамолетов;Wrangell Seaplane Base;Врангелл база гідролітаків;US;WRG;0;56.4844;-132.367
WRL;Worland;Worland;Worland;US;WRL;0;43.9675;-107.953
WRO;Страховице;Strachowice;Страховіце;PL;WRO;0;51.1;16.8833
WRY;Westray;Westray;Westray;GB;WRY;0;59.35;-2.95
WST;Westerly;Westerly;Westerly;US;WST;0;41.3494;-71.8039
WSZ;Вестпорт;Westport;Вестпорт;NZ;WSZ;0;-41.7397;171.582
WUH;Вухан;Wuhan;Вухан;CN;WUH;0;30.5;114.317
WUN;Wiluna Arpt;Wiluna;Wiluna Arpt;AU;WUN;0;-26.6333;120.217
WUS;Wuyishan;Wuyishan;Wuyishan;CN;WUS;0;27.7167;117.967
WUX;Wuxi;Wuxi;Wuxi;CN;WUX;0;31.5833;120.317
WVB;Rooikop;Rooikop;Rooikop;NA;WVB;0;-22.9786;14.5172
WVL;Robert La Fleur;Robert La Fleur;Robert La Fleur;US;WVL;0;44.5339;-69.6758
WWK;Борам;Boram;Борам;PG;WWK;0;-3.58583;143.673
WXN;Wanxian;Wanxian;Wanxian;CN;WXN;0;30.9;103.467
WYA;Whyalla;Whyalla;Whyalla;AU;WYA;0;-33.0606;137.511
XAD;Черчилль ж/д вокзал;Churchill Rail Station;Черчилль ж/д вокзал;CA;YYQ;0;0;0
XAP;Chapeco;Chapeco;Chapeco;BR;XAP;0;-27.0886;-52.6297
XAW;Capreo ж/д вокзал;Capreol Rail Station;Capreo ж/д вокзал;CA;XAW;0;0;0
XAX;Dorval ж/д вокзал;Dorval Rail Station;Dorval ж/д вокзал;CA;YMQ;0;0;0
XAZ;Campbellton ж/д вокзал;Campbellton Rail Station;Campbellton ж/д вокзал;CA;XAZ;0;0;0
XBW;Killineq;Killineq;Killineq;CA;XBW;0;42.65;-80.8167
XCH;Рождества о-в;Christmas Island;Різдва о-в;CX;XCH;0;-10.5;105.667
XCI;Шамбор ж/д вокзал;Chambord Rail Station;Шамбор ж/д вокзал;CA;XCI;0;0;0
XCM;Chatham;Chatham;Chatham;CA;XCM;0;42.4;-82.1833
XDD;Gaspe ж/д вокзал;Gaspe Rail Station;Gaspe ж/д вокзал;CA;YGP;0;0;0
XDG;Галифакс ж/д вокзал;Halifax Rail Station;Галифакс ж/д вокзал;CA;YHZ;0;0;0
XDH;Джаспер ж/д вокзал;Jasper Rail Station;Джаспер ж/д вокзал;CA;YJA;0;0;0
XDK;Дюнкерк;Dunkerque;Дюнкерк;FR;XDK;0;0;0
XDL;Chandler ж/д вокзал;Chandler Rail Station;Chandler ж/д вокзал;CA;XDL;0;0;0
XDM;Драммондвилль ж/д вокзал;Drummondville Rail Station;Драммондвилль ж/д вокзал;CA;XDM;0;0;0
XDO;Grande-Riviere ж/д вокзал;Grande-Riviere Rail Station;Grande-Riviere ж/д вокзал;CA;XDO;0;0;0
XDP;Монктон ж/д вокзал;Moncton Rail Station;Монктон ж/д вокзал;CA;YQM;0;0;0
XDQ;Лондон ж/д вокзал;London Rail Station;Лондон ж/д вокзал;CA;YXU;0;0;0
XDS;Оттава ж/д вокзал;Ottawa Rail Station;Оттава ж/д вокзал;CA;YOW;0;0;0
XDU;Hervey ж/д вокзал;Hervey Rail Station;Hervey ж/д вокзал;CA;XDU;0;0;0
XDV;Prince George ж/д вокзал;Prince George Rail Station;Prince George ж/д вокзал;CA;YXS;0;53.9167;-1.76667
XDW;Prince Rupert ж/д вокзал;Prince Rupert Rail Station;Prince Rupert ж/д вокзал;CA;YPR;0;54.3167;-1.33333
XDX;Сарина ж/д вокзал;Sarina Rail Station;Сарина ж/д вокзал;CA;YZR;0;0;0
XDY;Sudbury Junction ж/д вокзал;Sudbury Junction Rail Station;Sudbury Junction ж/д вокзал;CA;YSB;0;46.5;-80.9667
XDZ;The Pas ж/д вокзал;The Pas Rail Station;The Pas ж/д вокзал;CA;YQD;0;0;0
XEA;Ванкувер ж/д вокзал;Vancouver Rail Station;Ванкувер ж/д вокзал;CA;YVR;0;49.25;-1.13333
XEC;Виндзор ж/д вокзал;Windsor Rail Station;Виндзор ж/д вокзал;CA;YQG;0;0;0
XEE;Lac Edouard ж/д вокзал;Lac Edouard Rail Station;Lac Edouard ж/д вокзал;CA;XEE;0;0;0
XEF;Виннипег ж/д вокзал;Winnipeg Rail Station;Виннипег ж/д вокзал;CA;YWG;0;0;0
XEG;Кингстон ж/д вокзал;Kingston Rail Station;Кингстон ж/д вокзал;CA;YGK;0;0;0
XEH;Ladysmith ж/д вокзал;Ladysmith Rail Station;Ladysmith ж/д вокзал;CA;XEH;0;0;0
XEJ;Лангфорд ж/д вокзал;Langford Rail Station;Лангфорд ж/д вокзал;CA;XEJ;0;0;0
XEK;Мелвилль ж/д вокзал;Melville Rail Station;Мелвилль ж/д вокзал;CA;XEK;0;0;0
XEL;New Carlisle ж/д вокзал;New Carlisle Rail Station;New Carlisle ж/д вокзал;CA;XEL;0;0;0
XEM;Нью-Ричмонд ж/д вокзал;New Richmond Rail Station;Нью-Ричмонд ж/д вокзал;CA;XEM;0;0;0
XER;Страсбург автобусный вокзал;Strasbourg Bus Service;Страсбург автобусний вокзал;FR;SXB;0;0;0
XEV;Стокгольм ж/д вокзал;Stockholm Rail Station;Стокгольм ж/д вокзал;SE;STO;0;0;0
XEW;Flemingsberg ж/д вокзал;Flemingsberg Rail Station;Flemingsberg ж/д вокзал;SE;STO;0;0;0
XEY;Ньюкасл ж/д вокзал;Newcastle Rail Station;Ньюкасл ж/д вокзал;CA;YCH;0;0;0
XEZ;Sodertalje S ж/д вокзал;Sodertalje S Rail Station;Sodertalje S ж/д вокзал;SE;JSO;0;59.2;17.6167
XFA;Lille Flanders ж/д вокзал;Lille Flanders Rail Service;Lille Flanders ж/д вокзал;FR;LIL;0;50.6333;3.06667
XFD;Стратфорд ж/д вокзал;Stratford Rail Station;Стратфорд ж/д вокзал;CA;XFD;0;0;0
XFE;Parent ж/д вокзал;Parent Rail Station;Parent ж/д вокзал;CA;XFE;0;0;0
XFG;Perce ж/д вокзал;Perce Rail Station;Perce ж/д вокзал;CA;XFG;0;0;0
XFI;Port-Daniel ж/д вокзал;Port-Daniel Rail Station;Port-Daniel ж/д вокзал;CA;XFI;0;0;0
XFJ;Eskilstuna ж/д вокзал;Eskilstuna Rail Station;Eskilstuna ж/д вокзал;SE;EKT;0;0;0
XFK;Senneterre ж/д вокзал;Senneterre Rail Station;Senneterre ж/д вокзал;CA;XFK;0;0;0
XFL;Shawinigan ж/д вокзал;Shawinigan Rail Station;Shawinigan ж/д вокзал;CA;XFL;0;0;0
XFM;Shawnigan ж/д вокзал;Shawnigan Rail Station;Shawnigan ж/д вокзал;CA;XFM;0;0;0
XFN;Xiangfan;Xiangfan;Xiangfan;CN;XFN;0;32.05;112
XFO;Taschereau ж/д вокзал;Taschereau Rail Station;Taschereau ж/д вокзал;CA;XFO;0;0;0
XFP;Мальме ж/д вокзал;Malmo Railway Service;Мальме ж/д вокзал;SE;MMA;0;0;0
XFQ;Weymont ж/д вокзал;Weymont Rail Station;Weymont ж/д вокзал;CA;XFQ;0;0;0
XFR;Мальме Юг ж/д вокзал;Malmo South Railway Service;Мальме Юг ж/д вокзал;SE;MMA;0;11.3833;8.28333
XFS;Александрия ж/д вокзал;Alexandria Rail Station;Александрия ж/д вокзал;CA;XFS;0;0;0
XFU;Tierp ж/д вокзал;Tierp Rail Station;Tierp ж/д вокзал;SE;GVX;0;0;0
XFV;Brantford ж/д вокзал;Brantford Rail Station;Brantford ж/д вокзал;CA;XFV;0;0;0
XFY;Sainte-Foy ж/д вокзал;Sainte-Foy Rail Station;Sainte-Foy ж/д вокзал;CA;YQB;0;46.8;-71.25
XGC;Лунд Центр ж/д вокзал;Lund C Rail Station;Лунд Центр ж/д вокзал;SE;XGC;0;0;0
XGD;Arendal ж/д вокзал;Arendal Rail Station;Arendal ж/д вокзал;NO;KRS;0;0;0
XGI;Andalsnes ж/д вокзал;Andalsnes Rail Station;Andalsnes ж/д вокзал;NO;KSU;0;0;0
XGJ;Кобург ж/д вокзал;Cobourg Rail Station;Кобург ж/д вокзал;CA;XGJ;0;0;0
XGK;Coteau ж/д вокзал;Coteau Rail Station;Coteau ж/д вокзал;CA;XGK;0;0;0
XGM;Grantham ж/д вокзал;Grantham Rail Station;Grantham ж/д вокзал;GB;QEW;0;0;0
XGP;Dombas ж/д вокзал;Dombas Rail Station;Dombas ж/д вокзал;NO;GLL;0;0;0
XGR;Kangiqsualujjuaq;Kangiqsualujjuaq;Kangiqsualujjuaq;CA;XGR;0;58.5;-65.9833
XGU;Asker ж/д вокзал;Asker Rail Station;Asker ж/д вокзал;NO;OSL;0;0;0
XGW;Gananoque ж/д вокзал;Gananoque Rail Station;Gananoque ж/д вокзал;CA;XGW;0;0;0
XGY;Гримсби ж/д вокзал;Grimsby Rail Station;Гримсби ж/д вокзал;CA;XGY;0;0;0
XHF;Honefoss ж/д вокзал;Honefoss Rail Station;Honefoss ж/д вокзал;NO;XHF;0;0;0
XHM;Джорджтаун ж/д вокзал;Georgetown Rail Station;Джорджтаун ж/д вокзал;CA;XHM;0;0;0
XHS;Chemainus ж/д вокзал;Chemainus Rail Station;Chemainus ж/д вокзал;CA;XHS;0;0;0
XIA;Guelph ж/д вокзал;Guelph Rail Station;Guelph ж/д вокзал;CA;XIA;0;0;0
XIB;Ingersoll ж/д вокзал;Ingersoll Rail Station;Ingersoll ж/д вокзал;CA;XIB;0;0;0
XID;Maxville ж/д вокзал;Maxville Rail Station;Maxville ж/д вокзал;CA;XID;0;0;0
XIF;Напани ж/д вокзал;Napanee Rail Station;Напани ж/д вокзал;CA;XIF;0;0;0
XII;Прескотт ж/д вокзал;Prescott Rail Station;Прескотт ж/д вокзал;CA;XII;0;0;0
XIK;Милан центральный ж/д вокзал;Milan Central Station Railway;Милан центральный ж/д вокзал;IT;MIL;0;45.5;9.5
XIM;Сен-Гиацинт ж/д вокзал;Saint Hyacinthe Rail Station;Сен-Гиацинт ж/д вокзал;CA;XIM;0;0;0
XIO;St Marys ж/д вокзал;St Marys Rail Station;St Marys ж/д вокзал;CA;XIO;0;0;0
XIP;Вудсток ж/д вокзал;Woodstock Rail Station;Вудсток ж/д вокзал;CA;XIP;0;0;0
XIY;Xianyang;Xianyang;Xianyang;CN;SIA;0;34.4333;108.75
XJF;Фалун автобусный вокзал;Falun Bus Service;Фалун автобусний вокзал;SE;XWF;0;0;0
XJL;Joliette ж/д вокзал;Joliette Rail Station;Joliette ж/д вокзал;CA;XJL;0;0;0
XJQ;Jonquiere ж/д вокзал;Jonquiere Rail Station;Jonquiere ж/д вокзал;CA;XJQ;0;0;0
XKB;Kongsberg ж/д вокзал;Kongsberg Rail Station;Kongsberg ж/д вокзал;NO;OSL;0;0;0
XKC;Sandnes ж/д вокзал;Sandnes Rail Station;Sandnes ж/д вокзал;NO;SVG;0;66;12.5833
XKD;Halden ж/д вокзал;Halden Rail Station;Halden ж/д вокзал;NO;OSL;0;0;0
XKE;Рена ж/д вокзал;Rena Rail Station;Рена ж/д вокзал;NO;OSL;0;0;0
XKF;Fredrikstad ж/д вокзал;Fredrikstad Rail Station;Fredrikstad ж/д вокзал;NO;OSL;0;0;0
XKG;Grong ж/д вокзал;Grong Rail Station;Grong ж/д вокзал;NO;XKJ;0;0;0
XKH;Сиангкхуанг;Xieng Khouang;Сіангкхуанг;LA;XKH;0;19.3;103.367
XKI;Lillestrom ж/д вокзал;Lillestrom Rail Station;Lillestrom ж/д вокзал;NO;OSL;0;0;0
XKJ;Steinkjer ж/д вокзал;Steinkjer Rail Station;Steinkjer ж/д вокзал;NO;XKJ;0;0;0
XKK;Ларвик ж/д вокзал;Larvik Rail Station;Ларвик ж/д вокзал;NO;SKE;0;0;0
XKM;Мосс ж/д вокзал;Moss Rail Station;Мосс ж/д вокзал;NO;OSL;0;0;0
XKN;Finse ж/д вокзал;Finse Rail Station;Finse ж/д вокзал;NO;BGO;0;0;0
XKP;Porsgrunn ж/д вокзал;Porsgrunn Rail Station;Porsgrunn ж/д вокзал;NO;SKE;0;0;0
XKQ;Sarpsborg ж/д вокзал;Sarpsborg Rail Station;Sarpsborg ж/д вокзал;NO;OSL;0;0;0
XKR;Kristiansand ж/д вокзал;Kristiansand Rail Station;Kristiansand ж/д вокзал;NO;KRS;0;0;0
XKV;Sackville  ж/д вокзал;Sackville Rail Station;Sackville  ж/д вокзал;CA;XKV;0;0;0
XKZ;Vinstra ж/д вокзал;Vinstra Rail Station;Vinstra ж/д вокзал;NO;GLL;0;0;0
XLJ;Квебек-сити ж/д вокзал;Quebec City Rail Station;Квебек-сити ж/д вокзал;CA;YQB;0;46.8;-71.25
XLK;Levis ж/д вокзал;Levis Rail Station;Levis ж/д вокзал;CA;YQB;0;0;0
XLM;Saint Lambert ж/д вокзал;Saint Lambert Rail Station;Saint Lambert ж/д вокзал;CA;YMQ;0;45.5;-73.5833
XLP;Матапедиа ж/д вокзал;Matapedia Rail Station;Матапедиа ж/д вокзал;CA;XLP;0;0;0
XLQ;Guildwood ж/д вокзал;Guildwood Rail Station;Guildwood ж/д вокзал;CA;YTO;0;0;0
XLV;Ниагара-Фоллс ж/д вокзал;Niagara Falls Rail Station;Ниагара-Фоллс ж/д вокзал;CA;XLV;0;0;0
XLY;Aldershot ж/д вокзал;Aldershot Rail Station;Aldershot ж/д вокзал;CA;XLY;0;0;0
XLZ;Труро ж/д вокзал;Truro Rail Station;Труро ж/д вокзал;CA;XLZ;0;0;0
XMN;Сямен;Xiamen Intl;Сямен;CN;XMN;0;24.4667;118.117
XMY;Yam Island;Yam Island;Yam Island;AU;XMY;0;-10.4833;142.45
XNA;Northwest Arkansas региональный;Northwest Arkansas Regional;Northwest Arkansas региональный;US;FYV;0;36.2817;-94.3067
XNB;Дубаи автобусный вокзал,;Dubai Bus Station;Дубаї автобусний вокзал,;AE;DXB;0;0;0
XND;Драммен ж/д вокзал;Drammen Rail Station;Драммен ж/д вокзал;NO;OSL;0;0;0
XNM;Ноттингем ж/д вокзал;Nottingham Rail Station;Ноттингем ж/д вокзал;GB;XNM;0;0;0
XNN;Xining;Xining;Xining;CN;XNN;0;36.55;101.75
XNO;Northallerton ж/д вокзал;Northallerton Rail Station;Northallerton ж/д вокзал;GB;MME;0;0;0
XNV;Nuneaton ж/д вокзал;Nuneaton Rail Station;Nuneaton ж/д вокзал;GB;BHX;0;0;0
XOD;Oppdal ж/д вокзал;Oppdal Rail Station;Oppdal ж/д вокзал;NO;TRD;0;0;0
XOK;Oakville ж/д вокзал;Oakville Rail Station;Oakville ж/д вокзал;CA;XOK;0;0;0
XON;Carleton ж/д вокзал;Carleton Rail Station;Carleton ж/д вокзал;CA;XON;0;0;0
XOP;Пуатье ж/д вокзал;Poitiers Rail Station;Пуатье ж/д вокзал;FR;PIS;0;0;0
XOQ;Сира ж/д вокзал;Sira Rail Station;Сира ж/д вокзал;NO;SVG;0;0;0
XOR;Отта ж/д вокзал;Otta Rail Station;Отта ж/д вокзал;NO;XOR;0;0;0
XPB;Парксвилль ж/д вокзал;Parksville Rail Station;Парксвилль ж/д вокзал;CA;XPB;0;0;0
XPF;Penrith ж/д вокзал;Penrith Rail Station;Penrith ж/д вокзал;GB;CAX;0;0;0
XPG;Gare du Nord ж/д вокзал;Gare du Nord Railway Station;Gare du Nord ж/д вокзал;FR;PAR;0;0;0
XPH;Port Hope ж/д вокзал;Port Hope Rail Station;Port Hope ж/д вокзал;CA;XPH;0;0;0
XPN;Brampton ж/д вокзал;Brampton Rail Station;Brampton ж/д вокзал;CA;XPN;0;0;0
XPT;Престон ж/д вокзал;Preston Rail Station;Престон ж/д вокзал;GB;XPT;0;0;0
XPX;Pointe-aux-Trembles ж/д вокзал;Pointe-aux-Trembles Rail Station;Pointe-aux-Trembles ж/д вокзал;CA;XPX;0;0;0
XQG;Berwick ж/д вокзал;Berwick Rail Station;Berwick ж/д вокзал;GB;XQG;0;0;0
XQL;Ланкастер ж/д вокзал;Lancaster Rail Station;Ланкастер ж/д вокзал;GB;BLK;0;0;0
XQP;Quepos;Quepos;Quepos;CR;XQP;0;9.45;-84.15
XQU;Qualicum;Qualicum;Qualicum;CA;XQU;0;49.35;-124.45
XRC;Runcorn ж/д вокзал;Runcorn Rail Station;Runcorn ж/д вокзал;GB;CEG;0;0;0
XRD;Egersund ж/д вокзал;Egersund Rail Station;Egersund ж/д вокзал;NO;SVG;0;0;0
XRF;Марсель ж/д вокзал;Marseille Rail Station;Марсель ж/д вокзал;FR;MRS;0;47.0667;3
XRG;Rugeley ж/д вокзал;Rugeley Rail Station;Rugeley ж/д вокзал;GB;XRG;0;0;0
XRP;Pine Ridge ж/д вокзал;Pine Ridge Rail Station;Pine Ridge ж/д вокзал;CA;XRP;0;0;0
XRU;Rugby ж/д вокзал;Rugby Rail Station;Rugby ж/д вокзал;GB;XRU;0;0;0
XRY;La Parra;La Parra;La Parra;ES;XRY;0;36.7453;-6.05889
XSH;Тур ж/д вокзал;Tours Rail Station;Тур ж/д вокзал;FR;TUF;0;0;0
XSR;Salisbury ж/д вокзал;Salisbury Rail Station;Salisbury ж/д вокзал;GB;XSR;0;0;0
XSS;Soissons ж/д вокзал;Soissons Railway Station;Soissons ж/д вокзал;FR;XSS;0;0;0
XTG;Thargomindah;Thargomindah;Thargomindah;AU;XTG;0;-27.9667;143.767
XTK;Thirsk ж/д вокзал;Thirsk Rail Station;Thirsk ж/д вокзал;GB;HRT;0;0;0
XTY;Strathroy ж/д вокзал;Strathroy Rail Station;Strathroy ж/д вокзал;CA;XTY;0;0;0
XUZ;Xuzhou;Xuzhou;Xuzhou;CN;XUZ;0;34.2667;117.183
XVA;Стокпорт ж/д вокзал;Stockport Rail Station;Стокпорт ж/д вокзал;GB;XVA;0;0;0
XVB;Стаффорд ж/д вокзал;Stafford Rail Station;Стаффорд ж/д вокзал;GB;BHX;0;0;0
XVC;Crewe ж/д вокзал;Crewe Rail Station;Crewe ж/д вокзал;GB;MAN;0;0;0
XVH;Петерборо ж/д вокзал;Peterborough Rail Station;Петерборо ж/д вокзал;GB;XVH;0;0;0
XVJ;Stevenage ж/д вокзал;Stevenage Rail Station;Stevenage ж/д вокзал;GB;XVJ;0;0;0
XVK;Voss ж/д вокзал;Voss Rail Station;Voss ж/д вокзал;NO;BGO;0;0;0
XVU;Durham ж/д вокзал;Durham Rail Station;Durham ж/д вокзал;GB;NCL;0;0;0
XVV;Belleville ж/д вокзал;Belleville Rail Station;Belleville ж/д вокзал;CA;XVV;0;0;0
XVW;Belleville ж/д вокзал;Belleville Rail Station;Belleville ж/д вокзал;GB;XVW;0;0;0
XWA;Watford ж/д вокзал;Watford Rail Station;Watford ж/д вокзал;CA;XWA;0;0;0
XWD;Wakefield Westgate ж/д вокзал;Wakefield Westgate Rail Station;Wakefield Westgate ж/д вокзал;GB;XWD;0;0;0
XWF;Фалун ж/д вокзал;Falun Railway Service;Фалун ж/д вокзал;SE;XWF;0;0;0
XWH;Строук-он-Трент ж/д вокзал;Stroke on Trent Rail Station;Строук-он-Трент ж/д вокзал;GB;XWH;0;0;0
XWL;Готенбург ж/д вокзал;Gothenburg Rail;Готенбург зал. вокзал;SE;GOT;0;57.7167;11.9667
XWM;Hallsberg ж/д вокзал;Hallsberg Rail Station;Hallsberg ж/д вокзал;SE;ORB;0;0;0
XWN;Warrington B Q ж/д вокзал;Warrington B Q Rail Station;Warrington B Q ж/д вокзал;GB;LPL;0;0;0
XWP;Hassleholm ж/д вокзал;Hassleholm Rail Station;Hassleholm ж/д вокзал;SE;JHE;0;56.2167;13.7333
XWR;Orebro Bofors ж/д вокзал;Orebro Bofors Railway Service;Orebro Bofors ж/д вокзал;SE;ORB;0;0;0
XWS;Swindon ж/д вокзал;Swindon Rail Station;Swindon ж/д вокзал;GB;SWI;0;51.9333;-2.1
XWV;Варберг ж/д вокзал;Varberg Rail Station;Варберг ж/д вокзал;SE;XWV;0;0;0
XWY;Вайоминг ж/д вокзал;Wyoming Rail Station;Вайоминг ж/д вокзал;CA;XWY;0;0;0
XXA;Alvesta ж/д вокзал;Alvesta Railway Service;Alvesta ж/д вокзал;SE;XXA;0;0;0
XXD;Дегерфорс ж/д вокзал;Degerfors Rail Station;Дегерфорс ж/д вокзал;SE;XXD;0;0;0
XXL;Лиллехаммер ж/д вокзал;Lillehammer Rail Station;Лиллехаммер ж/д вокзал;NO;XXL;0;0;0
XXM;Мьельбю ж/д вокзал;Mjolby Rail Station;Мьельбю ж/д вокзал;SE;XXM;0;0;0
XXO;Leksand ж/д вокзал;Leksand Rail Station;Leksand ж/д вокзал;SE;BLE;0;0;0
XXU;Hedemora ж/д вокзал;Hedemora Rail Station;Hedemora ж/д вокзал;SE;BLE;0;60.2833;15.9833
XXY;Роннебю ж/д вокзал;Ronneby Railway Service;Роннебю ж/д вокзал;SE;RNB;0;0;0
XXZ;Сундсвалль ж/д вокзал;Sundsvall Rail Service;Сундсвалль ж/д вокзал;SE;SDL;0;0;0
XYB;Borlangeж/д вокзал;Borlange Railway Service;Borlangeж/д вокзал;SE;BLE;0;57.0333;14.85
XYC;Herrljunga ж/д вокзал;Herrljunga Rail Station;Herrljunga ж/д вокзал;SE;JKG;0;58.0186;13.1014
XYD;Лион ж/д вокзал;Lyon Rail Station;Лион ж/д вокзал;FR;LYS;0;46.2353;5.15167
XYF;Фальчепинг ж/д вокзал;Falkoping Rail Station;Фальчепинг ж/д вокзал;SE;JKG;0;0;0
XYH;Хельсингборг ж/д вокзал;Helsingborg Railway service;Хельсингборг ж/д вокзал;SE;JHE;0;59.6833;15.8167
XYK;Норрчепинг ж/д вокзал;Norrkoping Railway Service;Норрчепинг ж/д вокзал;SE;NRK;0;0;0
XYM;Фалькенберг ж/д вокзал;Falkenberg Rail Station;Фалькенберг ж/д вокзал;SE;HAD;0;49.65;22.75
XYN;Кристинхамн ж/д вокзал;Kristinehamn Rail Station;Кристинхамн ж/д вокзал;SE;XYN;0;56;14.15
XYO;Карлсхамн ж/д вокзал;Karlshamn Rail Station;Карлсхамн ж/д вокзал;SE;RNB;0;49;8.66667
XYP;Авеста Крильбо ж/д вокзал;Avesta Krylbo Rail Station;Авеста Крильбо ж/д вокзал;SE;BLE;0;0;0
XYU;Сольвесборг ж/д вокзал;Solvesborg Rail Station;Сольвесборг ж/д вокзал;SE;KID;0;56.0667;14.6167
XYX;Сала ж/д вокзал;Sala Rail Station;Сала ж/д вокзал;SE;VST;0;45.4706;19.7058
XYY;Арвика ж/д вокзал;Arvika Rail Station;Арвика ж/д вокзал;SE;XYY;0;0;0
XYZ;Harnosand ж/д вокзал;Harnosand Rail Station;Harnosand ж/д вокзал;SE;XYZ;0;0;0
XZB;Casselman ж/д вокзал;Casselman Rail Station;Casselman ж/д вокзал;CA;XZB;0;0;0
XZC;Гленко ж/д вокзал;Glencoe Rail Station;Гленко ж/д вокзал;CA;XZC;0;0;0
XZF;Dammam Port;Dammam Port;Dammam Port;SA;DMM;0;21.5169;39.2192
XZK;Амхерст ж/д вокзал;Amherst Rail Station;Амхерст ж/д вокзал;CA;XZK;0;0;0
XZL;Эдмонтон ж/д вокзал;Edmonton Rail Station;Эдмонтон ж/д вокзал;CA;YEA;0;0;0
XZN;Авиньон ж/д вокзал;Avignon Railway Station;Авиньон ж/д вокзал;FR;AVN;0;46.4;5.83333
XZO;Осло ж/д вокзал;Oslo Central Station;Осло зал. вокзал;NO;OSL;0;0;0
XZT;Трондхайм ж/д вокзал;Trondheim Rail Station;Трондхайм ж/д вокзал;NO;TRD;0;0;0
YAG;Fort Frances;Fort Frances;Fort Frances;CA;YAG;0;48.6528;-93.4472
YAK;Якутат;Yakutat;Якутат;US;YAK;0;59.5092;-139.66
YAM;Sault Ste Marie;Sault Ste Marie;Sault Ste Marie;CA;YAM;0;46.4836;-84.5078
YAP;Yap;Yap;Yap;FM;YAP;0;9.48222;138.076
YAT;Attawapiskat Arpt;Attawapiskat;Attawapiskat Arpt;CA;YAT;0;52.9417;-82.4
YAY;St Anthony;St Anthony;St Anthony;CA;YAY;0;51.3667;-55.5833
YBB;Таунсайт;Townsite;Таунсайт;CA;YBB;0;68.8833;-89.85
YBC;Baie Comeau;Baie Comeau;Baie Comeau;CA;YBC;0;49.2;-68.2667
YBG;Баготвилль;Bagotville;Баготвілль;CA;YBG;0;48.3222;-70.9886
YBK;Baker Lake;Baker Lake;Baker Lake;CA;YBK;0;64.3;-96.0833
YBL;Campbell River;Campbell River;Campbell River;CA;YBL;0;49.9464;-125.266
YBP;Ибинь;Yibin;Ібінь;CN;YBP;0;28.8167;104.533
YBR;Brandon;Brandon;Brandon;CA;YBR;0;49.9;-99.95
YBW;Bedwell Harbor;Bedwell Harbor;Bedwell Harbor;CA;YBW;0;48.75;-123.233
YBX;Blanc Sablon;Blanc Sablon;Blanc Sablon;CA;YBX;0;51.4333;-57.2167
YBZ;Торонто Даунтаун ж/д вокзал;Toronto Downtown Rail Station;Торонто Даунтаун ж/д вокзал;CA;YTO;0;0;0
YCB;Cambridge Bay;Cambridge Bay;Cambridge Bay;CA;YCB;0;69.1;-105.133
YCC;Корнуолл региональный;Cornwall Regional;Корнуолл региональный;CA;YCC;0;45.1;-74.5667
YCD;Нанаймо;Nanaimo;Нанаймо;CA;YCD;0;49.05;-123.867
YCG;Ralph West;Ralph West;Ralph West;CA;YCG;0;49.2956;-117.632
YCH;Мирамичи;Miramichi;Мірамічі;CA;YCH;0;47.25;-65
YCK;Colville;Colville;Colville;CA;YCK;0;67.1667;-126
YCO;Куглуктук;Kugluktuk;Куглуктук;CA;YCO;0;67.8333;-115.083
YCS;Chesterfield Inlet;Chesterfield Inlet;Chesterfield Inlet;CA;YCS;0;63.3333;-90.7167
YCY;Clyde River;Clyde River;Clyde River;CA;YCY;0;70.4167;-68.5
YDA;Доусон-сити;Dawson City;Доусон-сіті;CA;YDA;0;64.0417;-139.121
YDF;Deer Lake;Deer Lake;Deer Lake;CA;YDF;0;49.2167;-57.4
YDN;Dauphin ж/д вокзал;Dauphin Rail Station;Dauphin ж/д вокзал;CA;YDN;0;51.1;-100.05
YDP;Nain;Nain;Nain;CA;YDP;0;56.5333;-61.6667
YDQ;Dawson Creek;Dawson Creek;Dawson Creek;CA;YDQ;0;55.7333;-120.183
YEB;Bar River Arpt;Bar River;Bar River Arpt;CA;YEB;0;0;0
YEG;Эдмонтон;Edmonton;Эдмонтон;CA;YEA;0;53.3042;-113.592
YEH;Асалойе;Asaloyeh;Асалойє;IR;YEH;0;27.4811;52.6
YEI;Yenisehir;Yenisehir;Yenisehir;TR;BTZ;0;40.2333;29.55
YEK;Arviat;Arviat;Arviat;CA;YEK;1;61.1167;-94.05
YEL;Elliot Lake;Elliot Lake;Elliot Lake;CA;YEL;0;46.3522;-82.5631
YET;Edson;Edson;Edson;CA;YET;0;53.5833;-116.467
YEV;Inuvik Mike Zubko;Inuvik Mike Zubko;Inuvik Mike Zubko;CA;YEV;0;68.3;-133.483
YFB;Икалуит;Iqaluit;Ікалуїт;CA;YFB;0;63.7522;-68.5639
YFC;Fredericton;Fredericton;Fredericton;CA;YFC;0;45.8667;-66.5333
YFO;Флин-Флон;Flin Flon;Флін-Флон;CA;YFO;0;54.6833;-101.683
YGJ;Miho;Miho;Miho;JP;YGJ;0;35.4914;133.242
YGK;Norman Rodgers;Norman Rodgers;Norman Rodgers;CA;YGK;0;44.2236;-76.6069
YGL;Ла-Гранде;La Grande;Ла-Гранде;CA;YGL;0;53.6297;-77.7064
YGP;Gaspe;Gaspe;Gaspe;CA;YGP;0;48.7667;-64.4833
YGR;House Harbour;House Harbour;House Harbour;CA;YGR;0;47.3667;-61.9
YGT;Иглулик;Igloolik;Іглулік;CA;YGT;0;69.4;-81.8167
YGV;Гавр Сен-Пьер;Havre St Pierre;Гавр Сен-П'єр;CA;YGV;0;50.25;-63.5833
YGW;Kuujjuaraapik;Kuujjuaraapik;Kuujjuaraapik;CA;YGW;0;55.2792;-77.7667
YGX;Gillam ж/д вокзал;Gillam Rail Station;Gillam ж/д вокзал;CA;YGX;0;56.35;-94.7
YHA;Port Hope Simpson Arpt;Port Hope Simpson;Port Hope Simpson Arpt;CA;YHA;0;52.5333;-56.3
YHD;Dryden;Dryden;Dryden;CA;YHD;0;49.7833;-92.8333
YHG;Charlottetown;Charlottetown;Charlottetown;CA;YHG;0;52.7667;-56.1
YHK;Gjoa Haven;Gjoa Haven;Gjoa Haven;CA;YHK;0;68.6333;-95.95
YHM;Civic;Civic;Civic;CA;YHM;0;43.1669;-79.9306
YHO;Хоупдейл;Hopedale;Хоупдейл;CA;YHO;0;55.4483;-60.2294
YHR;Chevery;Chevery;Chevery;CA;YHR;0;50.5;-59.5
YHS;Sechelt;Sechelt;Sechelt;CA;YHS;0;49.4667;-123.75
YHU;St Hubert;St Hubert;St Hubert;CA;YMQ;0;45.5;-73.6
YHY;Hay River;Hay River;Hay River;CA;YHY;0;60.8456;-115.778
YHZ;Галифакс;Halifax;Галіфакс;CA;YHZ;0;44.8833;-63.5167
YIF;Pakuashipi;Pakuashipi;Pakuashipi;CA;YIF;0;51.2167;-58.6667
YIH;Yichang;Yichang;Yichang;CN;YIH;0;30.7;111.183
YIK;Ivujivik;Ivujivik;Ivujivik;CA;YIK;0;62.4167;-76.0833
YIP;Willow Run;Willow Run;Willow Run;US;DTT;0;42.2333;-83.5333
YIW;Yiwu;Yiwu;Yiwu;CN;YIW;0;29.2667;120.05
YJT;Stephenville;Stephenville;Stephenville;CA;YJT;0;48.5333;-58.55
YKA;Davie Fulton;Davie Fulton;Davie Fulton;CA;YKA;0;50.6992;-120.438
YKF;Китченер Ватерлоо региональный;Kitchener Waterloo Regional;Кітченер Ватерлоо регіональний;CA;YKF;0;43.45;-80.4833
YKG;Kangirsuk;Kangirsuk;Kangirsuk;CA;YKG;0;60;-70
YKL;Schefferville;Schefferville;Schefferville;CA;YKL;0;54.7833;-64.8167
YKM;Yakima Terminal;Yakima Terminal;Yakima Terminal;US;YKM;0;46.5669;-120.538
YKQ;Васкаганиш;Waskaganish;Васкаганіш;CA;YKQ;0;51.4875;-78.75
YKS;Якутск;Yakutsk;Якутськ;RU;YKS;0;62.0833;129.767
YKU;Чисасиби;Chisasibi;Чісасібі;CA;YKU;0;53.8333;-79
YLC;Kimmirut Lake Harbour Arpt;Kimmirut Lake Harbour;Kimmirut Lake Harbour Arpt;CA;YLC;0;62.85;-69.8833
YLL;Ллойдминстер;Lloydminster;Ллойдмінстер;CA;YLL;0;53.3;-110
YLW;Ellison Field;Ellison Field;Ellison Field;CA;YLW;0;49.8833;-119.483
YMM;Ft McMurray;Ft McMurray;Ft McMurray;CA;YMM;0;56.6778;-111.267
YMN;Макковик;Makkovik;Макковік;CA;YMN;0;55.1667;-59.1667
YMO;Moosonee;Moosonee;Moosonee;CA;YMO;0;51.2911;-80.6042
YMT;Чибугамау;Chibougamau;Чібугамау;CA;YMT;0;49.9167;-74.3667
YMX;Mirabel;Mirabel;Mirabel;CA;YMQ;0;45.6667;-74.03
YMY;Монреаль Даунтаун ж/д вокзал;Montreal Downtown Rail Station;Монреаль Даунтаун ж/д вокзал;CA;YMQ;0;0;0
YNA;Наташкуан;Natashquan;Наташкуан;CA;YNA;0;50.1833;-61.8
YNB;Янбо;Yanbo;Янбо;SA;YNB;0;24.1167;38.0667
YND;Gatineau Hull;Gatineau Hull;Gatineau Hull;CA;YND;0;45.4833;-75.6333
YNJ;Яньцзи;Yanji;Яньцзи;CN;YNJ;0;42.65;129.5
YNP;Натуашиш;Natuashish;Натуашіш;CA;YNP;0;55.9139;-61.1844
YNT;Лайшань;Laishan;Лайшань;CN;YNT;0;37.55;121.333
YOD;Cold Lake;Cold Lake;Cold Lake;CA;YOD;0;54.4667;-110.25
YOJ;Footner Lake;Footner Lake;Footner Lake;CA;YOJ;0;58.6183;-117.168
YOP;Rainbow Lake;Rainbow Lake;Rainbow Lake;CA;YOP;0;58.5;-119.4
YOW;Оттава;Ottawa;Оттава;CA;YOW;1;45.3208;-75.6728
YPB;Port Alberni;Port Alberni;Port Alberni;CA;YPB;0;49.2333;-124.8
YPE;Peace River;Municipal Peace River;Peace River;CA;YPE;0;56.2278;-117.44
YPH;Inukjuak;Inukjuak;Inukjuak;CA;YPH;0;58.4333;-78.1667
YPJ;Aupaluk;Aupaluk;Aupaluk;CA;YPJ;0;59.3;-69.6667
YPL;Provincial;Provincial;Provincial;CA;YPL;0;51.2083;-90.2083
YPM;Пикангикум;Pikangikum;Пікангікум;CA;YPM;0;51.8167;-94
YPR;Digby Island;Digby Island;Digby Island;CA;YPR;0;54.2872;-130.441
YPW;Westview;Westview;Westview;CA;YPW;0;49.8167;-124.5
YPX;Povungnituk;Povungnituk;Povungnituk;CA;YPX;0;60.0333;-77.1667
YQB;Квебек;Quebec;Квебек;CA;YQB;1;46.7892;-71.3981
YQC;Quaqtaq;Quaqtaq;Quaqtaq;CA;YQC;0;61.3333;-69.6333
YQD;The Pas;The Pas;The Pas;CA;YQD;0;53.9667;-101.1
YQF;Red Deer;Red Deer;Red Deer;CA;YYC;0;52.1769;-113.893
YQG;Виндзор;Windsor;Віндзор;CA;YQG;0;42.2742;-82.9639
YQI;Ярмут;Municipal Yarmouth;Ярмут;CA;YQI;0;43.8333;-66.0833
YQK;Кенора;Kenora;Кенора;CA;YQK;0;49.7875;-94.3583
YQL;Летбридж;Lethbridge;Летбрідж;CA;YQL;0;49.6319;-112.792
YQM;Moncton;Moncton;Moncton;CA;YQM;0;46.1167;-64.6833
YQN;Накина ж/д вокзал;Nakina Rail Station;Накина ж/д вокзал;CA;YQN;0;50.1667;-86.7
YQQ;Станция канадских королевских ВВС;Royal Canadian Air Force Station;Станція канадських королівських ВПС;CA;YQQ;0;49.7167;-124.893
YQR;Regina;Regina;Regina;CA;YQR;0;50.4333;-104.653
YQT;Тандер-Бей;Thunder Bay;Тандер-Бей;CA;YQT;0;48.3833;-89.25
YQU;Grande Prairie;Grande Prairie;Grande Prairie;CA;YQU;0;55.1842;-118.894
YQX;Гандер;Gander;Гандер;CA;YQX;0;48.9467;-54.5633
YQY;Сидней;Sydney;Сідней;CA;YQY;0;46.1667;-60.05
YQZ;Quesnel;Quesnel;Quesnel;CA;YQZ;0;53.0267;-122.51
YRF;Cartwright Arpt;Cartwright;Cartwright Arpt;CA;YRF;0;53.7167;-57
YRJ;Roberval;Roberval;Roberval;CA;YRJ;0;48.5167;-72.2167
YRL;Red Lake федеральный;Federal Red Lake;Red Lake федеральный;CA;YRL;0;51.05;-93.8167
YRT;Rankin Inlet;Rankin Inlet;Rankin Inlet;CA;YRT;0;62.8114;-92.1158
YSB;Sudbury;Sudbury;Sudbury;CA;YSB;0;46.6333;-80.8
YSC;Шербрук;Sherbrooke;Шербрук;CA;YSC;0;45.4167;-71.9
YSJ;Сент-Джон;St John;Сент-Джон;CA;YSJ;0;45.3167;-65.8833
YSK;Sanikiluaq;Sanikiluaq;Sanikiluaq;CA;YSK;0;56.55;-79.2167
YSL;Edmunston;Edmunston;Edmunston;CA;YSL;0;47.1833;-67.9
YSM;Форт-Смит;Ft Smith;Форт-Сміт;CA;YSM;0;60.0167;-111.967
YSO;Postville Arpt;Postville;Postville Arpt;CA;YSO;0;54.9167;-59.9667
YST;St Therese Pt;St Therese Pt;St Therese Pt;CA;YST;0;53.85;-94.65
YTE;Cape Dorset;Cape Dorset;Cape Dorset;CA;YTE;0;64.2333;-76.5333
YTH;Thompson;Thompson;Thompson;CA;YTH;0;55.8;-97.8667
YTM;La Macaza;International;La Macaza;CA;YTM;0;46.5156;-74.7553
YTQ;Tasiujaq;Tasiujaq;Tasiujaq;CA;YTQ;0;53.6667;-69.9167
YTS;Timmins;Timmins;Timmins;CA;YTS;0;48.5667;-81.3667
YTZ;Торонто центральный;Toronto City Centre;Торонто центральный;CA;YTO;0;43.65;-79.3833
YUD;Umiujaq;Umiujaq;Umiujaq;CA;YUD;0;56.55;-76.55
YUL;Pierre Elliott Trudeau;Pierre Elliott Trudeau;Pierre Elliott Trudeau;CA;YMQ;16;45.4639;-73.75
YUM;Юма;Yuma;Юма;US;YUM;0;32.6542;-114.607
YUX;Hall Beach;Hall Beach;Hall Beach;CA;YUX;0;68.7833;-81.25
YUY;Rouyn Noranda;Rouyn Noranda;Rouyn Noranda;CA;YUY;0;48.2056;-78.8306
YVA;Iconi;Iconi;Iconi;KM;YVA;0;-11.5319;43.2611
YVB;Bonaventure;Municipal Bonaventure;Bonaventure;CA;YVB;0;48.05;-65.4833
YVG;Vermilion;Vermilion;Vermilion;CA;YVG;0;53.35;-110.817
YVO;Валь д'Ор;Val d Or;Валь д'Ор;CA;YVO;0;48.0528;-77.7828
YVP;Kuujjuaq;Kuujjuaq;Kuujjuaq;CA;YVP;0;58.1019;-68.4067
YVQ;Norman Wells;Norman Wells;Norman Wells;CA;YVQ;0;65.2833;-126.8
YVR;Ванкувер;Vancouver;Ванкувер;CA;YVR;6;49.1872;-123.185
YVZ;Deer Lake;Deer Lake;Deer Lake;CA;YVZ;0;52.6667;-94.5
YWB;Kangiqsujuaq;Kangiqsujuaq;Kangiqsujuaq;CA;YWB;0;61.6;-71.95
YWG;Виннипег;Winnipeg;Вінніпег;CA;YWG;0;49.9;-97.2333
YWH;Inner Harbor Sea Plane Arpt;Inner Harbor Sea Plane;Inner Harbor Sea Plane Arpt;CA;YYJ;0;48.4167;-123.367
YWK;Wabush;Wabush;Wabush;CA;YWK;0;52.95;-66.9
YWL;Williams Lake;Williams Lake;Williams Lake;CA;YWL;0;52.1847;-122.044
YXC;Cranbrook;Cranbrook;Cranbrook;CA;YXC;0;49.6122;-115.782
YXD;Эдмонтон;Edmonton;Едмонтон;CA;YEA;0;53.5667;-113.517
YXE;Саскатун;Saskatoon;Саскатун;CA;YXE;0;52.1667;-106.683
YXH;Medicine;Medicine Hat;Medicine;CA;YXH;0;50.0158;-110.721
YXJ;Форт-Сент-Джон;Ft St John;Форт-Сент-Джон;CA;YXJ;0;56.2333;-120.733
YXL;Sioux Lookout;Sioux Lookout;Sioux Lookout;CA;YXL;0;50.1167;-91.9028
YXN;Whale Cove;Whale Cove;Whale Cove;CA;YXN;0;62.2333;-92.6
YXP;Пангниртунг;Pangnirtung;Пангніртунг;CA;YXP;0;66.1333;-65.7333
YXS;Prince George;Prince George;Prince George;CA;YXS;0;53.8917;-122.675
YXT;Terrace;Terrace;Terrace;CA;YXT;0;54.4656;-128.574
YXU;Лондон;London;Лондон;CA;YXU;5;43.0333;-81.15
YXX;Абботсфорд;Abbotsford;Абботсфорд;CA;YXX;0;49.0256;-122.362
YXY;Whitehorse;Whitehorse;Whitehorse;CA;YXY;0;60.7167;-135.067
YYB;Норт-Бей;North Bay;Норт-Бей;CA;YYB;0;46.3658;-79.4214
YYC;Калгари;Calgary;Калгари;CA;YYC;0;51.1128;-114.02
YYD;Smithers;Smithers;Smithers;CA;YYD;0;54.8256;-127.18
YYE;Форт-Нельсон;Ft Nelson;Форт-Нельсон;CA;YYE;0;58.8333;-122.583
YYF;Penticton;Penticton;Penticton;CA;YYF;0;49.4647;-119.6
YYG;Charlottetown;Charlottetown;Charlottetown;CA;YYG;0;46.2861;-63.1306
YYH;Taloyoak;Taloyoak;Taloyoak;CA;YYH;0;69.5333;-93.5167
YYJ;Виктория;Victoria;Вікторія;CA;YYJ;0;48.6486;-123.424
YYL;Lynn Lake ж/д вокзал;Lynn Lake Rail Station;Lynn Lake ж/д вокзал;CA;YYL;0;56.8667;-101.067
YYQ;Черчилль;Churchill;Черчілль;CA;YYQ;0;58.7667;-94.1667
YYR;Goose Bay;Municipal Goose Bay;Goose Bay;CA;YYR;0;53.3167;-60.4
YYT;St Johns;St Johns;St Johns;CA;YYT;0;47.6169;-52.75
YYU;Japuskasing;Japuskasing;Japuskasing;CA;YYU;0;49.4125;-82.4708
YYY;Mont Joli;Mont Joli;Mont Joli;CA;YYY;0;48.6;-68.2
YYZ;Лестер Б. Пирсон;Lester B Pearson;Лестер Б. Пірсон;CA;YTO;16;43.6833;-79.6333
YZF;Yellowknife;Yellowknife;Yellowknife;CA;YZF;0;62.4689;-114.444
YZG;Salluit;Salluit;Salluit;CA;YZG;0;62.2;-75.6333
YZP;Federal;Federal;Federal;CA;YZP;0;53.2544;-131.813
YZR;Sarnia;Sarnia;Sarnia;CA;YZR;0;42.9972;-82.3111
YZS;Coral Harbour;Coral Harbour;Coral Harbour;CA;YZS;0;64.2;-83.3667
YZT;Port Hardy;Port Hardy;Port Hardy;CA;YZT;0;50.6806;-127.364
YZV;Sept Iles;Sept Iles;Sept Iles;CA;YZV;0;50.2;-66.3833
YZZ;Trail Arpt;Trail;Trail Arpt;CA;YZZ;0;0;0
ZAD;Zadar;Zadar;Zadar;HR;ZAD;1;44.0978;15.3567
ZAG;Загреб;Zagreb;Загреб;HR;ZAG;130;45.7431;16.0703
ZAQ;Нюремберг ж/д вокзал;Nuremberg Rail Station;Нюремберг ж/д вокзал;DE;NUE;0;0;0
ZAZ;Сарагоса;Zaragoza;Сарагоса;ES;ZAZ;0;41.6667;-1.03889
ZBF;Bathurst;Bathurst;Bathurst;CA;ZBF;0;47.6292;-65.7394
ZBL;Biloela;Biloela;Biloela;AU;ZBL;0;-24.4;150.517
ZBQ;Оденсе ж/д вокзал;Odense Railroad Station;Оденсе зал. вокзал;DK;ODE;0;0;0
ZBV;Beaver Creek микроавтобусный вокзал;Beaver Creek Van Service;Beaver Creek микроавтобусный вокзал;US;EGE;0;0;0
ZBW;Atibaia;Atibaia;Atibaia;BR;ZBW;0;0;0
ZCL;Закатекас;Zacatecas;Закатекас;MX;ZCL;0;22.8;-102.55
ZCO;Manquehue;Manquehue;Manquehue;CL;ZCO;0;-38.7639;-72.6369
ZDJ;Берн ж/д вокзал;Berne Railroad Station;Берн зал. вокзал;CH;BRN;0;0;0
ZDU;Данди ScotRail;Dundee ScotRail;Данді Скотрейл;GB;DND;0;56.5;-2.96667
ZEP;Лондон - Виктория ж/д вокзал;London - Victoria Railway Station;Лондон - Виктория ж/д вокзал;GB;LON;2;51.5167;0.1
ZFI;Честерфильд автобусный вокзал;Chesterfield Bus Station;Честерфілд автобусний вокзал;GB;ZFI;0;0;0
ZFJ;Gare de Rennes;Gare de Rennes;Gare de Rennes;FR;RNS;0;48.15;4.85
ZFQ;Gare de Bordeaux;Gare de Bordeaux;Gare de Bordeaux;FR;BOD;0;48.6833;1.1
ZGG;Глазго ScotRail;Glasgow ScotRail;Глазго Скотрейл;GB;GLA;0;0;0
ZGH;Копенгаген ж/д вокзал;Copenhagen Rail Station;Копенгаген ж/д вокзал;DK;CPH;0;0;0
ZGS;Gethsemanie;Gethsemanie;Gethsemanie;CA;ZGS;0;50.3333;-60.6667
ZHA;Zhanjiang;Zhanjiang;Zhanjiang;CN;ZHA;0;21.2667;110.467
ZHO;Хьюстон автобусный вокзал;Houston Bus Station;Хьюстон автобусний вокзал;CA;ZHO;0;0;0
ZID;Орхус автобусный вокзал;Aarhus Bus Service;Орхус автобусний вокзал;DK;AAR;0;0;0
ZIG;Зигиншор;Ziguinchor;Зігіншор;SN;ZIG;0;12.5561;-16.2758
ZIH;Zihuatanejo;Zihuatanejo;Zihuatanejo;MX;ZIH;0;17.6433;-101.555
ZIM;Оденсе автобусный вокзал;Odense Bus Service;Оденсе автобусний вокзал;DK;ODE;0;0;0
ZIV;Inverness ScotRail вокзал;Inverness ScotRail Station;Inverness ScotRail вокзал;GB;INV;0;57.0833;-4.66667
ZJO;Сан-Хосе автобусный вокзал;San Jose Bus Service;Сан-Хосе автобусний вокзал;US;SJC;0;0;0
ZKG;Кегаска;Kegaska;Кегаска;CA;ZKG;0;50.1889;-61.2917
ZLO;Manzanillo;Manzanillo;Manzanillo;MX;ZLO;0;19.1133;-104.351
ZLS;Liverpool Street вокзал;Liverpool Street Station;Liverpool Street вокзал;GB;LPL;0;0;0
ZLT;La Tabatiere;La Tabatiere;La Tabatiere;CA;ZLT;0;51;-59
ZMB;Гамбург ж/д вокзал;Hamburg Railway Service;Гамбург ж/д вокзал;DE;HAM;0;0;0
ZMU;Мюнхен - Центральный ж/д вокзал;Munich HBF Railway Service;Мюнхен - Центральный ж/д вокзал;DE;MUC;0;0;0
ZNA;Харбор база гидросамолетов;Harbour Seaplane Base;Харбор база гідролітаків;CA;YCD;0;49.1667;-123.933
ZNE;Newman;Newman;Newman;AU;ZNE;1;-23.4167;119.8
ZNZ;Kisauni;Kisauni;Kisauni;TZ;ZNZ;0;-6.21917;39.2219
ZOS;Canal Balo;Canal Balo;Canal Balo;CL;ZOS;0;-40.6078;-73.0556
ZPE;Оснабрюк ж/д вокзал;Osnabrueck Rail Service;Оснабрюк ж/д вокзал;DE;ZPE;0;0;0
ZQN;Франктон;Frankton;Франктон;NZ;ZQN;2;-45.0214;168.739
ZQW;Цвайбрюккен;Zweibruecken;Цвайбрюккен;DE;ZQW;0;0;0
ZRB;Франкфурт - Центральный ж/д вокзал;Frankfurt HBF Railway Service;Франкфурт - Центральный ж/д вокзал;DE;FRA;0;0;0
ZRF;Пеория Рокфор автобусный терминал;Peoria Rockford Bus Terminal;Пеорія Рокфор автобусний термінал;US;RFD;0;-32.85;24.1667
ZRG;Братислава автобусный вокзал;Bratislava Bus Station;Братислава автобусний вокзал;SK;BTS;0;0;0
ZRH;Цюрих;Zurich;Цюріх;CH;ZRH;204;47.4583;8.55167
ZRK;Van Galder автобусный терминал;Van Galder Bus Terminal;Ван Галдер автобусний термінал;US;RFD;0;-32.85;24.1667
ZSA;Сан-Сальвадор;San Salvador;Сан-Сальвадор;BS;ZSA;0;24.06;-74.5331
ZSE;St Pierre Dela Reunion;St Pierre Dela Reunion;St Pierre Dela Reunion;RE;ZSE;0;-21.3333;55.4833
ZSG;Зоннеберг ж/д вокзал;Sonneberg Railway Station;Зоннеберг ж/д вокзал;DE;ZSG;0;0;0
ZSJ;Sandy Lake;Sandy Lake;Sandy Lake;CA;ZSJ;0;53.0333;-93.2333
ZSM;Санта-Клара автобусный вокзал;Santa Clara Bus Service;Санта-Клара автобусний вокзал;US;SJC;0;0;0
ZTB;Tete A La Baleine;Tete A La Baleine;Tete A La Baleine;CA;ZTB;0;50.7167;-59.3333
ZTH;Закинф;Zakinthos;Закінф;GR;ZTH;2;37.7558;20.8883
ZUH;Zhuhai;Zhuhai;Zhuhai;CN;ZUH;0;22.25;113.5
ZUM;Чарчхил Фалс;Churchhill Falls;Чарчхіл Фалс;CA;ZUM;0;53.5628;-64.1092
ZVD;Дрангедал ж/д вокзал;Drangedal Rail Station;Дрангедал ж/д вокзал;NO;ZVD;0;0;0
ZVR;Гановер - Центральный ж/д вокзал;Hanover HBF Railway Service;Гановер - Центральный ж/д вокзал;DE;HAJ;0;49.4667;-96.8333
ZWC;Ставангер ж/д вокзал;Stavanger Rail Station;Ставангер ж/д вокзал;NO;SVG;0;0;0
ZWS;Штутгарт ж/д вокзал;Stuttgart Railway Service;Штутгарт ж/д вокзал;DE;STR;0;0;0
ZXA;Абердин ScotRail вокзал;Aberdeen ScotRail Station;Абердин ScotRail вокзал;GB;ABZ;0;0;0
ZXE;Эдинбург ScotRail вокзал;Edinburgh ScotRail;Эдінбург Скотрейл вокзал;GB;EDI;0;0;0
ZXM;Rognan ж/д вокзал;Rognan Rail Station;Rognan ж/д вокзал;NO;BOO;0;0;0
ZXO;Fauske ж/д вокзал;Fauske Rail Station;Fauske ж/д вокзал;NO;ZXO;0;0;0
ZXU;Ригге ж/д вокзал;Rygge Rail Station;Ригге ж/д вокзал;NO;ZXU;0;0;0
ZXX;Раде ж/д вокзал;Rade Rail Station;Раде ж/д вокзал;NO;ZXX;0;0;0
ZYA;Амстердам центральный ж/д вокзал;Amsterdam Central Rail Station;Амстердам центральный ж/д вокзал;NL;AMS;0;0;0
ZYE;Эйндховен ж/д вокзал;Eindhoven Rail Station;Эйндховен ж/д вокзал;NL;EIN;0;0;0
ZYL;Sylhet Osmany;Sylhet Osmany;Sylhet Osmany;BD;ZYL;0;24.9589;91.8744
ZYM;Арнхем ж/д вокзал;Arnhem Rail Station;Арнхем ж/д вокзал;NL;QAR;0;0;0
ZYP;New York Penn STN;New York Penn STN;New York Penn STN;US;ZYP;0;0;0
ZYT;Маастрихт ж/д вокзал;Maastricht Rail Station;Маастрихт ж/д вокзал;NL;MST;0;0;0
ZYU;Утрехт ж/д вокзал;Utrecht Rail Station;Утрехт ж/д вокзал;NL;UTC;0;0;0
ZYV;Вегаршеи ж/д вокзал;Vegarshei Rail Station;Вегаршеи ж/д вокзал;NO;ZYV;0;0;0
ZYW;Сандвика ж/д вокзал;Sandvika Rail Station;Сандвика ж/д вокзал;NO;ZYW;0;0;0
ZYY;Марнардал ж/д вокзал;Marnardal Rail Station;Марнардал ж/д вокзал;NO;ZYY;0;0;0
ZYZ;Антверпен ж/д вокзал;Antwerp Berchem Rail Station;Антверпен ж/д вокзал;BE;BRU;0;51.2167;4.41667
MSQ;Минск;Minsk;Мінськ;BY;MSQ;0;53.88;28.03
MHP;Минск-1;Minsk-1;Мінськ-1;BY;MSQ;0;53.86;27.54
CSY;Чебоксары;Cheboksary;Чебоксары;RU;CSY;0;47.2492;56.139
EYK;Белоярский;BELOYARSKY;Белоярский;RU;EYK;0;47.2492;56.139
GDZ;Геленджик;Gelendzik;Геленджик;RU;GDZ;0;44.57;38.01
GRV;Грозный;GROZNY;Грозний;RU;GRV;0;45.6449;43.3318
CEE;Череповец;Cherepovets;Череповец;RU;CEE;0;59.27;38.02
JQO;Белорусский вокзал;Belorusskiy railway station;Белорусский вокзал;RU;MOW;12;55.7761;37.5798
JRB;Downtown Manhattan;Downtown Manhattan H/p;Downtown Manhattan;US;NYC;0;40.7;-74.01
KGP;Когалым;KOGALYM INT.;Когалым;RU;KGP;0;74.5269;62.2401
KQT;Курган Тюбе;QURGHONTEPPA;Курган Тюбе;RU;KQT;0;68.7173;37.8065
KRO;Курган;Kurgan;Курган;RU;KRO;0;55.48;65.42
KSQ;Карши;KARSHI;Карши;RU;KSQ;0;65.8002;38.8474
KVD;Гянджа;Gyandzha;Гянджа;AZ;KVD;0;40.74;46.32
LBD;Худжанд;Khudzhand;Худжанд;TJ;LBD;0;69.62;40.28
LLK;Ленкорань;LANKARAN;Ленкорань;RU;LLK;0;48.8517;38.7378
LWN;Гюмри;SHIRAK;Гюмри;RU;LWN;0;43.8656;40.7983
MCX;Уйташ;UYTASH;Уйташ;RU;MCX;0;47.6522;42.8169
NER;Нерюнгри;Neryungri;Нерюнгрі;RU;NER;0;56.65;124.6
NLV;Николаев;Nikolaev;Николаев;UA;NLV;0;47.05;31.9167
NMA;Наманган;Namangan;Наманган;RU;NMA;0;40.98;71.56
NOZ;Новокузнецк;Novokuznetsk;Новокузнецк;RU;NOZ;0;53.75;87.1667
NSK;Алыкель;Alykel;Аликель;RU;NSK;0;69.3167;87.3167
NUX;Новый Уренгой;Novy Urengoy;Новий Уренгой;RU;NUX;0;66.07;76.52
NYA;Нягань;NYAGAN;Нягань;RU;NYA;0;65.4028;62.1373
OGZ;Владикавказ;Vladikavkaz;Владикавказ;RU;OGZ;0;43.2;44.6
OSS;Ош;Osh;Ош;KG;OSS;0;40.6077;72.7865
OVS;Советский;SOVETSKY;Советский;RU;OVS;0;63.5432;61.3667
REN;Оренбург;Orenburg;Оренбург;RU;REN;0;51.8;55.46
SKX;Саранск;SARANSK;Саранск;RU;SKX;0;45.1779;54.1801
SLY;Салехард;Salekhard;Салехард;RU;SLY;0;66.5833;66.6
TGK;Южный;Yuzhny;Южный;RU;TGK;0;47.24;38.84
TJU;Куляб;KULYAB;Куляб;RU;TJU;0;69.6981;37.848
TMJ;Термез;TERMEZ;Термез;RU;TMJ;0;67.2435;37.2227
UCT;Ухта;UKHTA;Ухта;RU;UCT;0;53.7273;63.5778
UDJ;Ужгород;Uzhgorod;Ужгород;RU;UDJ;0;48.6167;22.2833
UKS;Бельбек;Belbek;Бельбек;UA;UKS;0;44.6917;33.5767
UUA;Бугульма;BUGULMA;Бугульма;RU;UUA;0;52.8007;54.5316
ZWE;Antwerpen-Centraal railway station;Antwerpen-Centraal railway station;Antwerpen-Centraal railway station;BE;BRU;0;51.2172;4.42111
ИНШ;Магас;Magas;Магас;RU;IGT;0;44.7688;43.2228
ЛНЙ;Байконур;BAYKONUR;Байконур;RU;ЛНЙ;0;71.3355;51.1816
AZN;Андижан;ANDIZHAN;Андижан;RU;AZN;0;72.2582;40.7133
BAX;Барнаул;Barnaul;Барнаул;RU;BAX;0;53.36;83.54
IGT;Магас;Magas;Магас;RU;IGT;0;44.7688;43.2228
ZYR;Брюссель ж/д вокзал;Brussels Midi Railway Station;Брюссель ж/д вокзал;BE;BRU;0;50.8464;4.3528
ZDH;Базель ж/д вокзал;Basel Mulhouse Railway Station;Базель ж/д вокзал;CH;BSL;1;47.54874;7.58768
БКТ;Байкит;Байкит;Байкит;RU;БКТ;0;61.6666;96.3666
ПЯЙ;Полярный;Полярный;Полярный;RU;ПЯЙ;0;69.1983;33.4561
КРН;Киренск;Киренск;Киренск;RU;КРН;0;57.7833;108.1
